{
  "version": 0.6,
  "generator": "Overpass API 0.7.57 93a4d346",
  "osm3s": {
    "timestamp_osm_base": "2021-10-24T02:19:48Z",
    "timestamp_areas_base": "2021-10-24T00:08:13Z",
    "copyright": "The data included in this document is from www.openstreetmap.org. The data is made available under ODbL."
  },
  "elements": [

{
  "type": "node",
  "id": 540460770,
  "lat": -34.6259959,
  "lon": -58.4378589,
  "tags": {
    "amenity": "pharmacy",
    "healthcare": "pharmacy",
    "name": "Farmacity",
    "operator": "Farmacity",
    "shop": "chemist"
  }
},
{
  "type": "node",
  "id": 624002720,
  "lat": -27.3672544,
  "lon": -55.8927148,
  "tags": {
    "addr:city": "Posadas",
    "addr:housenumber": "1709",
    "addr:street": "Bolívar",
    "amenity": "pharmacy",
    "healthcare": "pharmacy",
    "name": "Farmacity",
    "opening_hours": "Mo-Su,PH 08:00-22:00+",
    "operator": "Farmacity",
    "shop": "chemist"
  }
},
{
  "type": "node",
  "id": 666396620,
  "lat": -34.7771865,
  "lon": -58.3086655,
  "tags": {
    "amenity": "pharmacy",
    "name": "Farmacity",
    "note": "24hs open",
    "shop": "chemist"
  }
},
{
  "type": "node",
  "id": 705466795,
  "lat": -31.4255224,
  "lon": -64.1834099,
  "tags": {
    "addr:street": "Obispo Oro",
    "amenity": "pharmacy",
    "healthcare": "pharmacy",
    "name": "Del Sol",
    "shop": "chemist"
  }
},
{
  "type": "node",
  "id": 724287434,
  "lat": -34.5991961,
  "lon": -58.3877640,
  "tags": {
    "amenity": "pharmacy",
    "healthcare": "pharmacy",
    "name": "Farmacity Uruguay",
    "operator": "Farmacity",
    "shop": "chemist"
  }
},
{
  "type": "node",
  "id": 724294212,
  "lat": -34.5919730,
  "lon": -58.3901818,
  "tags": {
    "amenity": "pharmacy",
    "branch": "Lopez",
    "brand": "Farmacity",
    "brand:wikidata": "Q5856076",
    "brand:wikipedia": "es:Farmacity",
    "healthcare": "pharmacy",
    "name": "Farmacity",
    "operator": "Farmacity",
    "shop": "chemist"
  }
},
{
  "type": "node",
  "id": 724294234,
  "lat": -34.5908678,
  "lon": -58.3911377,
  "tags": {
    "amenity": "pharmacy",
    "branch": "Recoleta",
    "brand": "Farmacity",
    "brand:wikidata": "Q5856076",
    "brand:wikipedia": "es:Farmacity",
    "healthcare": "pharmacy",
    "name": "Farmacity",
    "operator": "Farmacity",
    "shop": "chemist"
  }
},
{
  "type": "node",
  "id": 724294237,
  "lat": -34.5932215,
  "lon": -58.3842572,
  "tags": {
    "amenity": "pharmacy",
    "healthcare": "pharmacy",
    "name": "Farmacity Libertad",
    "operator": "Farmacity",
    "shop": "chemist"
  }
},
{
  "type": "node",
  "id": 724294239,
  "lat": -34.5879919,
  "lon": -58.3910946,
  "tags": {
    "amenity": "pharmacy",
    "branch": "La Biela",
    "brand": "Farmacity",
    "brand:wikidata": "Q5856076",
    "brand:wikipedia": "es:Farmacity",
    "healthcare": "pharmacy",
    "name": "Farmacity",
    "operator": "Farmacity",
    "shop": "chemist"
  }
},
{
  "type": "node",
  "id": 871916239,
  "lat": -37.3316978,
  "lon": -59.1274196,
  "tags": {
    "butcher": "chicken",
    "shop": "chemist"
  }
},
{
  "type": "node",
  "id": 1215523522,
  "lat": -34.5972131,
  "lon": -58.3886137,
  "tags": {
    "amenity": "pharmacy",
    "healthcare": "pharmacy",
    "name": "Francolatina",
    "shop": "chemist"
  }
},
{
  "type": "node",
  "id": 1446731579,
  "lat": -28.0644805,
  "lon": -67.5625834,
  "tags": {
    "name": "Farmacia Central 2",
    "shop": "chemist"
  }
},
{
  "type": "node",
  "id": 1565600662,
  "lat": -31.6427476,
  "lon": -60.7172677,
  "tags": {
    "shop": "chemist"
  }
},
{
  "type": "node",
  "id": 1565600794,
  "lat": -31.6447487,
  "lon": -60.7157643,
  "tags": {
    "name": "Amherd",
    "shop": "chemist"
  }
},
{
  "type": "node",
  "id": 1644303184,
  "lat": -26.9393831,
  "lon": -65.7075418,
  "tags": {
    "amenity": "pharmacy",
    "healthcare": "pharmacy",
    "shop": "chemist"
  }
},
{
  "type": "node",
  "id": 1701697324,
  "lat": -34.7106395,
  "lon": -58.3935174,
  "tags": {
    "shop": "chemist"
  }
},
{
  "type": "node",
  "id": 1828064709,
  "lat": -34.5229205,
  "lon": -58.4891540,
  "tags": {
    "addr:city": "Florida",
    "addr:housenumber": "1756",
    "addr:postcode": "1602",
    "addr:street": "Presidente Hipólito Yrigoyen",
    "name": "Farmacia Iris",
    "phone": "+54 11 4791-2522",
    "shop": "chemist"
  }
},
{
  "type": "node",
  "id": 1867429240,
  "lat": -34.9182110,
  "lon": -57.9559765,
  "tags": {
    "name": "Perfume y cosmeticos",
    "shop": "chemist"
  }
},
{
  "type": "node",
  "id": 1870334993,
  "lat": -38.9514267,
  "lon": -68.0588555,
  "tags": {
    "name": "Productos belleza",
    "shop": "chemist"
  }
},
{
  "type": "node",
  "id": 1877489866,
  "lat": -33.0496645,
  "lon": -61.1801362,
  "tags": {
    "name": "Perfumería Arival",
    "shop": "chemist"
  }
},
{
  "type": "node",
  "id": 2226214192,
  "lat": -27.4635711,
  "lon": -58.9727183,
  "tags": {
    "name": "M&L Limpieza",
    "shop": "chemist"
  }
},
{
  "type": "node",
  "id": 2226214206,
  "lat": -27.4609055,
  "lon": -58.9757357,
  "tags": {
    "name": "Todo Suelto",
    "shop": "chemist"
  }
},
{
  "type": "node",
  "id": 2228876076,
  "lat": -27.4665533,
  "lon": -58.9753308,
  "tags": {
    "name": "Multirrubro Juany's",
    "shop": "chemist"
  }
},
{
  "type": "node",
  "id": 2291610908,
  "lat": -33.6824957,
  "lon": -59.6641489,
  "tags": {
    "addr:city": "San Pedro",
    "addr:country": "AR",
    "addr:housenumber": "397",
    "addr:postcode": "B2930",
    "addr:street": "Avenida 3 de Febrero",
    "name": "La Jabonera",
    "shop": "chemist"
  }
},
{
  "type": "node",
  "id": 2297806791,
  "lat": -34.7436268,
  "lon": -58.3908704,
  "tags": {
    "addr:housenumber": "363",
    "addr:postcode": "1828",
    "addr:street": "Maipú",
    "name": "Mickey",
    "ref:vatin": "AR20043463900",
    "shop": "chemist"
  }
},
{
  "type": "node",
  "id": 2299226660,
  "lat": -34.7432353,
  "lon": -58.3929099,
  "tags": {
    "addr:housenumber": "218",
    "addr:postcode": "1828",
    "addr:street": "Maipú",
    "name": "Anahí",
    "opening_hours:covid19": "off",
    "ref:vatin": "AR20051687702",
    "shop": "chemist"
  }
},
{
  "type": "node",
  "id": 2315447988,
  "lat": -34.7601225,
  "lon": -58.3963661,
  "tags": {
    "shop": "chemist"
  }
},
{
  "type": "node",
  "id": 2322626323,
  "lat": -34.7431116,
  "lon": -58.3936713,
  "tags": {
    "addr:housenumber": "176",
    "addr:postcode": "1828",
    "addr:street": "Maipú",
    "name": "Mickey",
    "ref:vatin": "AR30709636622",
    "shop": "chemist"
  }
},
{
  "type": "node",
  "id": 2348779593,
  "lat": -27.4696043,
  "lon": -58.9933505,
  "tags": {
    "name": "Center Quim",
    "shop": "chemist"
  }
},
{
  "type": "node",
  "id": 2411691935,
  "lat": -24.1853432,
  "lon": -65.3016054,
  "tags": {
    "name": "Perfumería Venus",
    "shop": "chemist"
  }
},
{
  "type": "node",
  "id": 2445210958,
  "lat": -24.3696012,
  "lon": -65.3321630,
  "tags": {
    "amenity": "pharmacy",
    "healthcare": "pharmacy",
    "shop": "chemist"
  }
},
{
  "type": "node",
  "id": 2488282904,
  "lat": -38.9778407,
  "lon": -67.8285954,
  "tags": {
    "shop": "chemist"
  }
},
{
  "type": "node",
  "id": 2523708672,
  "lat": -27.4580614,
  "lon": -59.0196332,
  "tags": {
    "name": "Perfumería G&A",
    "shop": "chemist"
  }
},
{
  "type": "node",
  "id": 2533703997,
  "lat": -34.5589887,
  "lon": -58.4590496,
  "tags": {
    "addr:housenumber": "2409",
    "addr:street": "Avenida Cabildo",
    "description": "sahumerios, velas, jabones naturales",
    "name": "Aroma Fusión",
    "shop": "chemist"
  }
},
{
  "type": "node",
  "id": 2638629874,
  "lat": -33.1914113,
  "lon": -68.4656440,
  "tags": {
    "shop": "chemist"
  }
},
{
  "type": "node",
  "id": 2693194705,
  "lat": -37.0137025,
  "lon": -57.1323131,
  "tags": {
    "name": "Eco Farma",
    "shop": "chemist"
  }
},
{
  "type": "node",
  "id": 2693194708,
  "lat": -37.0042695,
  "lon": -57.1357700,
  "tags": {
    "name": "Giorgi",
    "shop": "chemist"
  }
},
{
  "type": "node",
  "id": 2693194711,
  "lat": -37.0009281,
  "lon": -57.1367868,
  "tags": {
    "name": "Farmacia Soto",
    "shop": "chemist"
  }
},
{
  "type": "node",
  "id": 2693194717,
  "lat": -36.9974782,
  "lon": -57.1388695,
  "tags": {
    "name": "Farmacia Vicario",
    "shop": "chemist"
  }
},
{
  "type": "node",
  "id": 2693194738,
  "lat": -36.9940282,
  "lon": -57.1393625,
  "tags": {
    "name": "Farmacia Alaniz",
    "shop": "chemist"
  }
},
{
  "type": "node",
  "id": 2702278886,
  "lat": -34.6811920,
  "lon": -58.7595096,
  "tags": {
    "addr:housenumber": "19",
    "addr:postcode": "B1721EGA",
    "addr:street": "Ezeiza",
    "description": "Química, venta de productos químicos",
    "name": "Química 34,500",
    "name:en": "Chemicals 34,500",
    "opening_hours": "Mo-Sa 08:00-20:00",
    "phone": "02204802761",
    "shop": "chemist"
  }
},
{
  "type": "node",
  "id": 2741054561,
  "lat": -32.9219050,
  "lon": -60.8081390,
  "tags": {
    "addr:housenumber": "1392",
    "addr:postcode": "S2132",
    "addr:street": "Avenida Córdoba",
    "amenity": "pharmacy",
    "contact:phone": "+54 341 493-3500",
    "dispensing": "yes",
    "name": "Renz",
    "payment:cash": "yes",
    "payment:credit_cards": "yes",
    "payment:debit_cards": "yes",
    "shop": "chemist",
    "wheelchair": "yes"
  }
},
{
  "type": "node",
  "id": 3045809762,
  "lat": -34.5668835,
  "lon": -58.4512741,
  "tags": {
    "addr:street": "Avenida Cabildo",
    "amenity": "pharmacy",
    "healthcare": "pharmacy",
    "name": "Vip",
    "shop": "chemist",
    "source": "Reconocimiento cartográfico de campo 2016 por KG."
  }
},
{
  "type": "node",
  "id": 3243846434,
  "lat": -34.5800930,
  "lon": -58.4269669,
  "tags": {
    "name": "Juleriaque",
    "shop": "chemist"
  }
},
{
  "type": "node",
  "id": 3381285070,
  "lat": -39.0272966,
  "lon": -67.5576139,
  "tags": {
    "name": "Artículos de limpieza",
    "shop": "chemist"
  }
},
{
  "type": "node",
  "id": 3391067880,
  "lat": -27.4518508,
  "lon": -58.9772275,
  "tags": {
    "addr:city": "Resistencia",
    "addr:housenumber": "586",
    "addr:postcode": "3500",
    "addr:street": "Avenida Paraguay",
    "name": "Droguería Central",
    "shop": "chemist"
  }
},
{
  "type": "node",
  "id": 3423919200,
  "lat": -32.9473637,
  "lon": -60.6426217,
  "tags": {
    "name": "Perfumería",
    "shop": "chemist"
  }
},
{
  "type": "node",
  "id": 3522533309,
  "lat": -32.9119474,
  "lon": -60.7977395,
  "tags": {
    "shop": "chemist"
  }
},
{
  "type": "node",
  "id": 3556747580,
  "lat": -32.9103096,
  "lon": -60.8089149,
  "tags": {
    "addr:housenumber": "1028",
    "addr:postcode": "S2132",
    "addr:street": "Hipólito Yrigoyen",
    "contact:facebook": "Chany-Perfumería",
    "contact:phone": "+54 341 493-1673",
    "name": "Chany",
    "opening_hours": "Mo-Sa 09:00-20:00",
    "shop": "chemist",
    "wheelchair": "limited"
  }
},
{
  "type": "node",
  "id": 3729721505,
  "lat": -34.6583560,
  "lon": -58.7848994,
  "tags": {
    "name": "Limpissimo",
    "shop": "chemist"
  }
},
{
  "type": "node",
  "id": 3762731488,
  "lat": -34.5600412,
  "lon": -58.4559238,
  "tags": {
    "addr:housenumber": "2209",
    "addr:street": "Mendoza",
    "opening_hours": "Mo-Fr 09:00-13:00, 14:30-18:30; Sa 09:00-13:30",
    "shop": "chemist"
  }
},
{
  "type": "node",
  "id": 3816355132,
  "lat": -34.5496579,
  "lon": -58.4679019,
  "tags": {
    "name": "Vany",
    "shop": "chemist"
  }
},
{
  "type": "node",
  "id": 3914945139,
  "lat": -34.6479425,
  "lon": -58.7897796,
  "tags": {
    "addr:street": "Merlo",
    "name": "Simplicity",
    "shop": "chemist"
  }
},
{
  "type": "node",
  "id": 3917057539,
  "lat": -34.6853009,
  "lon": -58.5185652,
  "tags": {
    "name": "Droquimar S.R.L.",
    "shop": "chemist",
    "source": "Reconocimiento terrestre por Kaart 2016"
  }
},
{
  "type": "node",
  "id": 4082392202,
  "lat": -36.7847812,
  "lon": -59.8611578,
  "tags": {
    "name": "Articulos Sueltos Limpieza",
    "shop": "chemist"
  }
},
{
  "type": "node",
  "id": 4129555366,
  "lat": -34.8167114,
  "lon": -58.4807082,
  "tags": {
    "shop": "chemist"
  }
},
{
  "type": "node",
  "id": 4167717576,
  "lat": -34.6677529,
  "lon": -58.7949226,
  "tags": {
    "name": "Tienda de Mascotas",
    "shop": "chemist"
  }
},
{
  "type": "node",
  "id": 4178511089,
  "lat": -34.6489996,
  "lon": -58.7914529,
  "tags": {
    "name": "Finissima",
    "shop": "chemist"
  }
},
{
  "type": "node",
  "id": 4199478416,
  "lat": -32.9446519,
  "lon": -60.6773090,
  "tags": {
    "contact:website": "http://soylola.com/",
    "name": "Soy Lola",
    "shop": "chemist"
  }
},
{
  "type": "node",
  "id": 4214641714,
  "lat": -34.5938713,
  "lon": -58.4450645,
  "tags": {
    "name": "Farmacia Nueva Darwin",
    "shop": "chemist",
    "wheelchair": "yes"
  }
},
{
  "type": "node",
  "id": 4214670720,
  "lat": -34.5953169,
  "lon": -58.4439027,
  "tags": {
    "name": "Farmacia Millenium",
    "shop": "chemist"
  }
},
{
  "type": "node",
  "id": 4263395894,
  "lat": -31.9044446,
  "lon": -61.2787630,
  "tags": {
    "name": "Aroma a Hogar",
    "shop": "chemist"
  }
},
{
  "type": "node",
  "id": 4270042667,
  "lat": -34.6469520,
  "lon": -58.7843628,
  "tags": {
    "addr:housenumber": "397",
    "addr:street": "Hipólito Bouchard",
    "delivery": "yes",
    "name": "Quimica Bouchard",
    "phone": "+54 237 462-0862",
    "shop": "chemist",
    "website": "https://www.quimicabouchard.com"
  }
},
{
  "type": "node",
  "id": 4307812603,
  "lat": -24.2370586,
  "lon": -65.2633294,
  "tags": {
    "shop": "chemist"
  }
},
{
  "type": "node",
  "id": 4331133997,
  "lat": -31.4272123,
  "lon": -68.4951239,
  "tags": {
    "name": "La Escoba",
    "shop": "chemist"
  }
},
{
  "type": "node",
  "id": 4363718200,
  "lat": -24.1857391,
  "lon": -65.3055405,
  "tags": {
    "name": "Perfumería Venus",
    "shop": "chemist"
  }
},
{
  "type": "node",
  "id": 4381408605,
  "lat": -34.6475134,
  "lon": -58.7893517,
  "tags": {
    "name": "Boglione",
    "shop": "chemist"
  }
},
{
  "type": "node",
  "id": 4382321372,
  "lat": -38.0284956,
  "lon": -57.5589406,
  "tags": {
    "name": "Fleming - audiologia",
    "shop": "chemist"
  }
},
{
  "type": "node",
  "id": 4413446521,
  "lat": -34.6505254,
  "lon": -58.7848858,
  "tags": {
    "name": "La Jabonería",
    "shop": "chemist"
  }
},
{
  "type": "node",
  "id": 4417664584,
  "lat": -32.9161158,
  "lon": -60.8136915,
  "tags": {
    "addr:postcode": "S2132",
    "addr:street": "Juan Elorza",
    "name": "Todo Suelto",
    "shop": "chemist",
    "wheelchair": "limited"
  }
},
{
  "type": "node",
  "id": 4429112324,
  "lat": -34.6663694,
  "lon": -58.7926321,
  "tags": {
    "name": "Todo Suelto en Centenario",
    "shop": "chemist"
  }
},
{
  "type": "node",
  "id": 4475484163,
  "lat": -27.3734159,
  "lon": -55.9080514,
  "tags": {
    "addr:city": "Posadas",
    "addr:housenumber": "3099",
    "addr:postcode": "3300",
    "addr:street": "Avenida López y Planes",
    "description": "Tienda de productos de limpieza",
    "name": "Mundo Limp",
    "shop": "chemist"
  }
},
{
  "type": "node",
  "id": 4482216916,
  "lat": -34.6565625,
  "lon": -58.7854985,
  "tags": {
    "name": "Aroma Limpio",
    "shop": "chemist"
  }
},
{
  "type": "node",
  "id": 4484246735,
  "lat": -27.3720978,
  "lon": -55.9135614,
  "tags": {
    "addr:city": "Posadas",
    "addr:country": "AR",
    "addr:street": "Avenida Tomás Guido",
    "description": "Venta de artículos y productos de limpieza",
    "name": "Muy Limpio",
    "shop": "chemist"
  }
},
{
  "type": "node",
  "id": 4494833330,
  "lat": -34.6512455,
  "lon": -58.7918377,
  "tags": {
    "name": "De Noé",
    "shop": "chemist"
  }
},
{
  "type": "node",
  "id": 4504731364,
  "lat": -33.8904487,
  "lon": -60.5913863,
  "tags": {
    "addr:housenumber": "2340",
    "addr:street": "San Martín",
    "name": "Limpiafast",
    "shop": "chemist"
  }
},
{
  "type": "node",
  "id": 4504770652,
  "lat": -33.8910510,
  "lon": -60.5801855,
  "tags": {
    "addr:housenumber": "460",
    "addr:street": "Boulevard Colón",
    "name": "Aguas Claras",
    "shop": "chemist"
  }
},
{
  "type": "node",
  "id": 4510438152,
  "lat": -27.4109915,
  "lon": -55.9121399,
  "tags": {
    "addr:street": "Avenida Cocomarola",
    "name": "Super LImpio",
    "shop": "chemist"
  }
},
{
  "type": "node",
  "id": 4511398781,
  "lat": -27.4458851,
  "lon": -55.8718649,
  "tags": {
    "name": "Alquimia",
    "shop": "chemist"
  }
},
{
  "type": "node",
  "id": 4548102601,
  "lat": -27.3881174,
  "lon": -55.9082210,
  "tags": {
    "addr:city": "Posadas",
    "addr:housenumber": "4398",
    "addr:postcode": "3300",
    "addr:street": "Avenida Lavalle",
    "name": "Artículos de limpieza",
    "shop": "chemist"
  }
},
{
  "type": "node",
  "id": 4553150403,
  "lat": -34.9069211,
  "lon": -57.9744077,
  "tags": {
    "name": "La Platense",
    "shop": "chemist",
    "source": "Reconocimiento cartográfico de campo 2016 por KG."
  }
},
{
  "type": "node",
  "id": 4590983715,
  "lat": -34.9185104,
  "lon": -57.9583000,
  "tags": {
    "addr:street": "Avenida 13",
    "name": "No Stop",
    "shop": "chemist",
    "source": "Reconocimiento cartográfico de campo 2016 por KG."
  }
},
{
  "type": "node",
  "id": 4597390025,
  "lat": -31.7062380,
  "lon": -65.0197551,
  "tags": {
    "name": "Venta de Artículos de Limpieza",
    "shop": "chemist"
  }
},
{
  "type": "node",
  "id": 4598141578,
  "lat": -34.6402567,
  "lon": -58.5387472,
  "tags": {
    "name": "Cloro Ya",
    "shop": "chemist"
  }
},
{
  "type": "node",
  "id": 4600414294,
  "lat": -32.9612735,
  "lon": -60.6459553,
  "tags": {
    "name": "Droguería Industrial Rosario",
    "shop": "chemist"
  }
},
{
  "type": "node",
  "id": 4601942088,
  "lat": -34.6116932,
  "lon": -58.5285246,
  "tags": {
    "name": "Mary Sant",
    "shop": "chemist"
  }
},
{
  "type": "node",
  "id": 4612968426,
  "lat": -34.5522821,
  "lon": -58.4808027,
  "tags": {
    "addr:street": "Roque Pérez",
    "name": "Drugstore",
    "shop": "chemist",
    "source": "Reconocimiento cartográfico de campo 2016 por KG."
  }
},
{
  "type": "node",
  "id": 4619402909,
  "lat": -34.5320000,
  "lon": -58.5907940,
  "tags": {
    "name": "Despensa San Antonio",
    "shop": "chemist",
    "source": "Reconocimiento terrestre por Kaart 2016"
  }
},
{
  "type": "node",
  "id": 4621113121,
  "lat": -34.5519953,
  "lon": -58.4654839,
  "tags": {
    "name": "Alan",
    "shop": "chemist"
  }
},
{
  "type": "node",
  "id": 4624440030,
  "lat": -34.5229287,
  "lon": -58.4741688,
  "tags": {
    "addr:street": "General Julio Argentino Roca",
    "amenity": "pharmacy",
    "healthcare": "pharmacy",
    "name": "Mensch",
    "shop": "chemist"
  }
},
{
  "type": "node",
  "id": 4632588764,
  "lat": -34.4858324,
  "lon": -58.6160494,
  "tags": {
    "addr:street": "Avenida Ángel Torcuato de Alvear",
    "name": "50 Drugstores",
    "shop": "chemist",
    "source": "Reconocimiento terrestre por Kaart 2016"
  }
},
{
  "type": "node",
  "id": 4633363912,
  "lat": -34.6658790,
  "lon": -58.8003648,
  "tags": {
    "name": "Japones",
    "prepayment:sube": "yes",
    "shop": "chemist"
  }
},
{
  "type": "node",
  "id": 4644719861,
  "lat": -34.5170025,
  "lon": -58.7471844,
  "tags": {
    "addr:street": "Avenida Presidente Hipólito Yrigoyen",
    "name": "50+ Drugstores",
    "shop": "chemist",
    "source": "Reconocimiento terrestre cartográfico realizado por Kaart en 2016."
  }
},
{
  "type": "node",
  "id": 4646122848,
  "lat": -34.5484304,
  "lon": -58.4605119,
  "tags": {
    "name": "Kurt's",
    "shop": "chemist",
    "source": "Reconocimiento cartográfico de campo 2016 por KG."
  }
},
{
  "type": "node",
  "id": 4650075059,
  "lat": -34.5931662,
  "lon": -58.4417523,
  "tags": {
    "addr:street": "Avenida Juan Bautista Justo",
    "name": "Drugstore",
    "shop": "chemist",
    "source": "Reconocimiento cartográfico de campo 2016 por KG."
  }
},
{
  "type": "node",
  "id": 4659840033,
  "lat": -34.5778603,
  "lon": -58.7440004,
  "tags": {
    "name": "Lo de Anny",
    "shop": "chemist"
  }
},
{
  "type": "node",
  "id": 4669843941,
  "lat": -34.5896245,
  "lon": -58.4368078,
  "tags": {
    "addr:street": "Avenida Córdoba",
    "name": "Cepillo",
    "shop": "chemist",
    "source": "Reconocimiento terrestre por Kaart 2016"
  }
},
{
  "type": "node",
  "id": 4673371698,
  "lat": -34.5928772,
  "lon": -58.3926287,
  "tags": {
    "addr:street": "Avenida Callao",
    "name": "Drugstore",
    "shop": "chemist",
    "source": "Reconocimiento terrestre por Kaart 2016"
  }
},
{
  "type": "node",
  "id": 4673371724,
  "lat": -34.5891428,
  "lon": -58.3887382,
  "tags": {
    "addr:street": "Presidente Quintana",
    "name": "Drugstore",
    "shop": "chemist",
    "source": "Reconocimiento terrestre por Kaart 2016"
  }
},
{
  "type": "node",
  "id": 4675541045,
  "lat": -34.5965424,
  "lon": -58.4007088,
  "tags": {
    "addr:street": "Marcelo T. de Alvear",
    "name": "Drugstore",
    "shop": "chemist",
    "source": "Reconocimiento terrestre por Kaart 2016"
  }
},
{
  "type": "node",
  "id": 4675753876,
  "lat": -34.5815009,
  "lon": -58.7450624,
  "tags": {
    "name": "Huguito",
    "shop": "chemist"
  }
},
{
  "type": "node",
  "id": 4676864693,
  "lat": -34.5948401,
  "lon": -58.4289155,
  "tags": {
    "addr:street": "Avenida Córdoba",
    "name": "Drugstore",
    "shop": "chemist",
    "source": "Reconocimiento terrestre por Kaart 2016"
  }
},
{
  "type": "node",
  "id": 4676880787,
  "lat": -34.5935409,
  "lon": -58.4309195,
  "tags": {
    "addr:street": "Avenida Córdoba",
    "name": "Drugstore Clock",
    "shop": "chemist",
    "source": "Reconocimiento terrestre por Kaart 2016"
  }
},
{
  "type": "node",
  "id": 4677079826,
  "lat": -34.4699347,
  "lon": -58.5091357,
  "tags": {
    "addr:street": "Martín y Omar",
    "name": "Bristol Medicine",
    "shop": "chemist",
    "source": "Actualizaciones en Argentina. Reconocimiento cartográfico 2016 por KG."
  }
},
{
  "type": "node",
  "id": 4678791247,
  "lat": -34.4705899,
  "lon": -58.5100261,
  "tags": {
    "addr:street": "Martín y Omar",
    "name": "Locatorio",
    "shop": "chemist",
    "source": "Actualizaciones en Argentina. Reconocimiento cartográfico 2016 por KG."
  }
},
{
  "type": "node",
  "id": 4679439385,
  "lat": -34.6451463,
  "lon": -58.7959791,
  "tags": {
    "name": "Doméstico",
    "shop": "chemist"
  }
},
{
  "type": "node",
  "id": 4693682389,
  "lat": -31.5390552,
  "lon": -68.5351179,
  "tags": {
    "name": "La Marina",
    "shop": "chemist"
  }
},
{
  "type": "node",
  "id": 4693682406,
  "lat": -31.5388308,
  "lon": -68.5243209,
  "tags": {
    "medical_supply": "no",
    "name": "La Marina",
    "shop": "chemist"
  }
},
{
  "type": "node",
  "id": 4695998033,
  "lat": -34.6410682,
  "lon": -58.5662056,
  "tags": {
    "addr:street": "Avenida Rivadavia",
    "name": "Simplicity",
    "shop": "chemist"
  }
},
{
  "type": "node",
  "id": 4695998056,
  "lat": -34.6415080,
  "lon": -58.5658293,
  "tags": {
    "addr:housenumber": "55",
    "addr:street": "Avenida de Mayo",
    "building": "yes",
    "name": "Miriam",
    "shop": "chemist"
  }
},
{
  "type": "node",
  "id": 4697965914,
  "lat": -34.6398835,
  "lon": -58.5344532,
  "tags": {
    "addr:street": "137 - Avenida Rivadavia",
    "name": "Lp Fragancias",
    "shop": "chemist"
  }
},
{
  "type": "node",
  "id": 4698230439,
  "lat": -34.6034052,
  "lon": -58.3738929,
  "tags": {
    "addr:city": "Ciudad Autónoma de Buenos Aires",
    "addr:street": "San Martín",
    "name": "Drugstore",
    "shop": "chemist",
    "source": "Reconocimiento terrestre por Kaart 2016"
  }
},
{
  "type": "node",
  "id": 4699661728,
  "lat": -34.5990614,
  "lon": -58.4029199,
  "tags": {
    "addr:city": "Ciudad Autónoma de Buenos Aires",
    "addr:street": "Avenida Córdoba",
    "name": "Madonna",
    "shop": "chemist",
    "source": "Reconocimiento terrestre por Kaart 2016"
  }
},
{
  "type": "node",
  "id": 4700535783,
  "lat": -34.6017630,
  "lon": -58.4320740,
  "tags": {
    "addr:street": "Avenida Estado de Israel",
    "name": "Open 25 Hs",
    "shop": "chemist",
    "source": "Reconocimiento terrestre por Kaart 2016"
  }
},
{
  "type": "node",
  "id": 4701895474,
  "lat": -34.5978874,
  "lon": -58.4117622,
  "tags": {
    "addr:city": "Ciudad Autónoma de Buenos Aires",
    "addr:street": "Avenida Córdoba",
    "name": "Farmacia",
    "shop": "chemist",
    "source": "Reconocimiento terrestre por Kaart 2016"
  }
},
{
  "type": "node",
  "id": 4702602251,
  "lat": -34.5987691,
  "lon": -58.4027917,
  "tags": {
    "addr:city": "Ciudad Autónoma de Buenos Aires",
    "addr:street": "Avenida Córdoba",
    "name": "Kiomax",
    "shop": "chemist",
    "source": "Reconocimiento terrestre por Kaart 2016"
  }
},
{
  "type": "node",
  "id": 4709090210,
  "lat": -34.6587119,
  "lon": -58.5450143,
  "tags": {
    "name": "Quimica San Martin",
    "shop": "chemist"
  }
},
{
  "type": "node",
  "id": 4746253677,
  "lat": -34.6434616,
  "lon": -58.7877787,
  "tags": {
    "name": "Las Martinas",
    "shop": "chemist"
  }
},
{
  "type": "node",
  "id": 4758786345,
  "lat": -34.6163612,
  "lon": -58.7714449,
  "tags": {
    "name": "Química JC",
    "shop": "chemist"
  }
},
{
  "type": "node",
  "id": 4758786589,
  "lat": -34.5903967,
  "lon": -58.7525281,
  "tags": {
    "name": "Huguito",
    "shop": "chemist"
  }
},
{
  "type": "node",
  "id": 4770461576,
  "lat": -34.5399308,
  "lon": -58.4756676,
  "tags": {
    "addr:street": "Avenida Cabildo",
    "name": "Rendí",
    "shop": "chemist"
  }
},
{
  "type": "node",
  "id": 4788498597,
  "lat": -34.6360766,
  "lon": -58.7696553,
  "tags": {
    "addr:housenumber": "4302",
    "addr:street": "Avenida Pablo Ruiz de Gaona (Colectora sur)",
    "name": "Caromar",
    "shop": "chemist",
    "wholesale": "yes"
  }
},
{
  "type": "node",
  "id": 4788499532,
  "lat": -34.6421345,
  "lon": -58.7869271,
  "tags": {
    "name": "Valparaiso",
    "shop": "chemist"
  }
},
{
  "type": "node",
  "id": 4892839587,
  "lat": -34.6380140,
  "lon": -58.7866840,
  "tags": {
    "name": "RedLimp",
    "shop": "chemist",
    "wholesale": "yes"
  }
},
{
  "type": "node",
  "id": 4929194614,
  "lat": -34.5580911,
  "lon": -58.4478440,
  "tags": {
    "addr:housenumber": "1567",
    "addr:street": "Echeverría",
    "delivery": "yes",
    "name": "Impacto",
    "phone": "+54 11 4783-7190",
    "shop": "chemist"
  }
},
{
  "type": "node",
  "id": 4941061913,
  "lat": -34.5721961,
  "lon": -58.4829534,
  "tags": {
    "addr:city": "Ciudad Autónoma de Buenos Aires",
    "addr:country": "AR",
    "addr:housenumber": "4817",
    "addr:postcode": "1431",
    "addr:street": "Monroe",
    "delivery": "yes",
    "description": "Articulos de limpieza sueltos",
    "name": "Burbujas",
    "phone": "+54 11 4521-1396",
    "shop": "chemist"
  }
},
{
  "type": "node",
  "id": 4970320436,
  "lat": -34.5751589,
  "lon": -58.4852974,
  "tags": {
    "addr:city": "Ciudad Autónoma de Buenos Aires",
    "addr:country": "AR",
    "addr:housenumber": "4576",
    "addr:postcode": "1431",
    "addr:street": "Avenida Triunvirato",
    "contact:facebook": "https://www.facebook.com/perfumeriaspigmento/",
    "name": "Pigmento",
    "opening_hours": "Mo-Sa 09:00-21:00; Su 10:30-20:30",
    "phone": "+54 11 4514-8173",
    "shop": "chemist",
    "website": "https://www.perfumeriaspigmento.com.ar/"
  }
},
{
  "type": "node",
  "id": 5008369423,
  "lat": -34.5788283,
  "lon": -58.4786804,
  "tags": {
    "addr:city": "Ciudad Autónoma de Buenos Aires",
    "addr:country": "AR",
    "addr:housenumber": "4975",
    "addr:postcode": "1431",
    "addr:street": "La Pampa",
    "description": "Art. de limpieza y perfumería, por mayor y menor.",
    "name": "House Cleaner",
    "phone": "+54 11 4521-9106",
    "shop": "chemist"
  }
},
{
  "type": "node",
  "id": 5012965805,
  "lat": -34.5787940,
  "lon": -58.4781940,
  "tags": {
    "addr:city": "Ciudad Autónoma de Buenos Aires",
    "addr:country": "AR",
    "addr:housenumber": "4968",
    "addr:postcode": "1431",
    "addr:street": "La Pampa",
    "contact:facebook": "https://www.facebook.com/AcquaLimpiezaProfesional/",
    "email": "sulfonico@hotmail.com",
    "name": "ACQUA",
    "opening_hours": "Mo-Fr 09:00-13:00,17:30-20:00; Sa 09:00-13:00",
    "phone": "+54 11 4522-5589",
    "shop": "chemist"
  }
},
{
  "type": "node",
  "id": 5018307655,
  "lat": -34.5660745,
  "lon": -58.4636856,
  "tags": {
    "addr:city": "Ciudad Autónoma de Buenos Aires",
    "addr:country": "AR",
    "addr:housenumber": "3123",
    "addr:postcode": "1428",
    "addr:street": "Juramento",
    "name": "Brujitas",
    "shop": "chemist"
  }
},
{
  "type": "node",
  "id": 5040266130,
  "lat": -37.3172746,
  "lon": -59.1243383,
  "tags": {
    "addr:city": "Tandil",
    "addr:postcode": "7000",
    "addr:street": "Avenida Marconi",
    "name": "Mazzola Hermanos",
    "shop": "chemist"
  }
},
{
  "type": "node",
  "id": 5106438407,
  "lat": -31.3866527,
  "lon": -58.0234155,
  "tags": {
    "addr:city": "Concordia",
    "addr:country": "AR",
    "addr:postcode": "3200",
    "addr:street": "Presidente Marcelo Torcuato de Alvear",
    "description": "Productos de Limpieza Sueltos",
    "name": "Aromitos",
    "shop": "chemist"
  }
},
{
  "type": "node",
  "id": 5129692113,
  "lat": -27.3739226,
  "lon": -55.9053573,
  "tags": {
    "addr:city": "Posadas",
    "addr:postcode": "3300",
    "addr:street": "Gómez Portiño",
    "shop": "chemist"
  }
},
{
  "type": "node",
  "id": 5197156041,
  "lat": -32.9091431,
  "lon": -60.8090150,
  "tags": {
    "shop": "chemist"
  }
},
{
  "type": "node",
  "id": 5208337296,
  "lat": -42.7761066,
  "lon": -65.0520920,
  "tags": {
    "addr:city": "Puerto Madryn",
    "addr:housenumber": "548",
    "addr:postcode": "9120",
    "addr:street": "Mendoza",
    "description": "Venta de elementos orgánicos de higiene personal y para el hogar",
    "name": "Ayliñ Piuke",
    "shop": "chemist"
  }
},
{
  "type": "node",
  "id": 5265563121,
  "lat": -27.4616522,
  "lon": -55.8591636,
  "tags": {
    "addr:city": "Garupá",
    "addr:postcode": "3304",
    "addr:street": "Doctor Sabín",
    "name": "Doña Gucha",
    "opening_hours": "Mo-Sa 08:00-19:30",
    "phone": "+54 376 4365641",
    "shop": "chemist",
    "website": "https://www.facebook.com/limpiezaguch/"
  }
},
{
  "type": "node",
  "id": 5273446479,
  "lat": -34.8637148,
  "lon": -57.9035953,
  "tags": {
    "name": "Avenida",
    "shop": "chemist"
  }
},
{
  "type": "node",
  "id": 5282870112,
  "lat": -34.7542294,
  "lon": -58.2828472,
  "tags": {
    "addr:street": "Avenida Calchaquí",
    "fixme": "nombre",
    "name": "Drugstore",
    "shop": "chemist"
  }
},
{
  "type": "node",
  "id": 5311525516,
  "lat": -34.5617306,
  "lon": -59.1087357,
  "tags": {
    "name": "Química Luján",
    "shop": "chemist"
  }
},
{
  "type": "node",
  "id": 5334144041,
  "lat": -34.6573181,
  "lon": -58.7631171,
  "tags": {
    "name": "Química Bouchard",
    "shop": "chemist",
    "website": "http://www.quimicabouchard.com.ar"
  }
},
{
  "type": "node",
  "id": 5337303121,
  "lat": -27.4232768,
  "lon": -55.9541687,
  "tags": {
    "internet_access": "wlan",
    "name": "RecicQuím",
    "opening_hours": "Sa 09:00-18:00; Mo-Fr 09:00-18:00",
    "phone": "54 376 4323963",
    "shop": "chemist"
  }
},
{
  "type": "node",
  "id": 5345221062,
  "lat": -33.8945207,
  "lon": -60.5735169,
  "tags": {
    "addr:housenumber": "635",
    "addr:street": "Mitre",
    "level": "-1",
    "name": "Limpiatutti",
    "shop": "chemist"
  }
},
{
  "type": "node",
  "id": 5347756426,
  "lat": -27.3709831,
  "lon": -55.8929361,
  "tags": {
    "addr:city": "Posadas",
    "addr:country": "AR",
    "addr:housenumber": "2201",
    "addr:street": "Buenos Aires",
    "name": "La Química",
    "shop": "chemist"
  }
},
{
  "type": "node",
  "id": 5373523470,
  "lat": -41.1268474,
  "lon": -71.3939828,
  "tags": {
    "name": "Superclin",
    "shop": "chemist"
  }
},
{
  "type": "node",
  "id": 5463286064,
  "lat": -27.4938587,
  "lon": -55.1114519,
  "tags": {
    "addr:city": "Oberá",
    "addr:country": "AR",
    "addr:postcode": "3360",
    "addr:street": "Avenida Andresito",
    "description": "Artículos y químicos sueltos para limpieza",
    "name": "Va-Lu-An",
    "shop": "chemist"
  }
},
{
  "type": "node",
  "id": 5506832799,
  "lat": -27.4093913,
  "lon": -55.9409704,
  "tags": {
    "name": "Súper Suelto",
    "shop": "chemist"
  }
},
{
  "type": "node",
  "id": 5509042332,
  "lat": -27.4511554,
  "lon": -58.9898376,
  "tags": {
    "amenity": "pharmacy",
    "healthcare": "pharmacy",
    "name": "FarmaCity",
    "operator": "Farmacity",
    "shop": "chemist"
  }
},
{
  "type": "node",
  "id": 5597153378,
  "lat": -34.6488670,
  "lon": -58.7866645,
  "tags": {
    "name": "De Todo un Poco",
    "shop": "chemist"
  }
},
{
  "type": "node",
  "id": 5597154326,
  "lat": -34.6577431,
  "lon": -58.7979264,
  "tags": {
    "name": "Renata",
    "shop": "chemist"
  }
},
{
  "type": "node",
  "id": 5601109604,
  "lat": -34.6308133,
  "lon": -58.7815729,
  "tags": {
    "name": "Qr 23",
    "shop": "chemist"
  }
},
{
  "type": "node",
  "id": 5790402017,
  "lat": -33.3423302,
  "lon": -60.2138180,
  "tags": {
    "name": "Farmasend",
    "shop": "chemist"
  }
},
{
  "type": "node",
  "id": 5889036266,
  "lat": -34.5852470,
  "lon": -58.4271883,
  "tags": {
    "addr:housenumber": "4902",
    "addr:street": "Soler",
    "name": "Soho",
    "shop": "chemist"
  }
},
{
  "type": "node",
  "id": 5896467773,
  "lat": -38.7056217,
  "lon": -62.2744285,
  "tags": {
    "addr:city": "Bahía Blanca",
    "addr:housenumber": "1093",
    "addr:street": "Alvarado",
    "name": "Muy Limpito",
    "shop": "chemist",
    "website": "http://www.muylimpito.com/"
  }
},
{
  "type": "node",
  "id": 5937687843,
  "lat": -31.7307313,
  "lon": -60.5376494,
  "tags": {
    "name": "El Gran Duke",
    "shop": "chemist"
  }
},
{
  "type": "node",
  "id": 5965410918,
  "lat": -34.6401287,
  "lon": -58.5264688,
  "tags": {
    "addr:housenumber": "95",
    "addr:street": "Montiel",
    "name": "Las Melli",
    "shop": "chemist"
  }
},
{
  "type": "node",
  "id": 5968053780,
  "lat": -34.5943676,
  "lon": -58.4031671,
  "tags": {
    "name": "Noemí",
    "shop": "chemist"
  }
},
{
  "type": "node",
  "id": 5999506694,
  "lat": -34.6394820,
  "lon": -58.5235428,
  "tags": {
    "name": "Her-Mat",
    "shop": "chemist"
  }
},
{
  "type": "node",
  "id": 6008882001,
  "lat": -34.6402465,
  "lon": -58.5240657,
  "tags": {
    "addr:housenumber": "6932",
    "addr:street": "Coronel Ramón Lorenzo Falcón",
    "shop": "chemist"
  }
},
{
  "type": "node",
  "id": 6088075186,
  "lat": -27.9202580,
  "lon": -55.7597296,
  "tags": {
    "addr:city": "Apóstoles",
    "addr:postcode": "3350",
    "addr:street": "Belgrano",
    "name": "Gotas de Rocío",
    "shop": "chemist"
  }
},
{
  "type": "node",
  "id": 6139656283,
  "lat": -34.5900430,
  "lon": -58.5196077,
  "tags": {
    "name": "La Jabonería",
    "shop": "chemist"
  }
},
{
  "type": "node",
  "id": 6177353204,
  "lat": -32.9047933,
  "lon": -60.7941910,
  "tags": {
    "addr:street": "General José Rondeau",
    "description": "Forraje",
    "name": "7 Soles City",
    "shop": "chemist",
    "wheelchair": "yes"
  }
},
{
  "type": "node",
  "id": 6250929487,
  "lat": -34.5689289,
  "lon": -58.4569577,
  "tags": {
    "name": "Zafira Bath",
    "shop": "chemist"
  }
},
{
  "type": "node",
  "id": 6261016537,
  "lat": -34.6405281,
  "lon": -58.5274885,
  "tags": {
    "shop": "chemist"
  }
},
{
  "type": "node",
  "id": 6342142827,
  "lat": -34.5679229,
  "lon": -58.7439545,
  "tags": {
    "name": "Cloro Atómico",
    "shop": "chemist"
  }
},
{
  "type": "node",
  "id": 6387952441,
  "lat": -34.5511373,
  "lon": -59.1260207,
  "tags": {
    "contact:email": "quimicalarotonda@gmail.com",
    "contact:phone": "+54 11 2488-8934",
    "name": "La rotonda",
    "shop": "chemist"
  }
},
{
  "type": "node",
  "id": 6405277279,
  "lat": -38.9225846,
  "lon": -67.9988923,
  "tags": {
    "name": "Mopin",
    "shop": "chemist"
  }
},
{
  "type": "node",
  "id": 6441634240,
  "lat": -32.9107447,
  "lon": -60.8671954,
  "tags": {
    "addr:street": "San Sebastián",
    "shop": "chemist"
  }
},
{
  "type": "node",
  "id": 6465970553,
  "lat": -34.5613723,
  "lon": -59.1111719,
  "tags": {
    "description": "Artivulos de limpieza y perfumería",
    "name": "Parque",
    "shop": "chemist"
  }
},
{
  "type": "node",
  "id": 6491343732,
  "lat": -34.5657962,
  "lon": -58.4550798,
  "tags": {
    "addr:housenumber": "1770",
    "addr:street": "Ciudad de la Paz",
    "name": "Del Rosario",
    "shop": "chemist"
  }
},
{
  "type": "node",
  "id": 6590294330,
  "lat": -34.6633079,
  "lon": -58.7275872,
  "tags": {
    "shop": "chemist"
  }
},
{
  "type": "node",
  "id": 6693811697,
  "lat": -34.6617900,
  "lon": -58.5174858,
  "tags": {
    "name": "Los Chicos",
    "shop": "chemist"
  }
},
{
  "type": "node",
  "id": 6791517414,
  "lat": -34.5804681,
  "lon": -58.4579928,
  "tags": {
    "name": "Mapuche",
    "shop": "chemist"
  }
},
{
  "type": "node",
  "id": 6813316326,
  "lat": -36.7846256,
  "lon": -59.8613651,
  "tags": {
    "addr:city": "Azul",
    "addr:country": "AR",
    "addr:housenumber": "752",
    "addr:postcode": "7300",
    "addr:street": "Avenida Juan Domingo Perón",
    "name": "Limpio y ReSuelto",
    "shop": "chemist"
  }
},
{
  "type": "node",
  "id": 6904334510,
  "lat": -34.6587151,
  "lon": -58.7835807,
  "tags": {
    "name": "Química Martina",
    "shop": "chemist"
  }
},
{
  "type": "node",
  "id": 6915725438,
  "lat": -34.6521204,
  "lon": -58.7912021,
  "tags": {
    "addr:housenumber": "155",
    "addr:street": "Doctor Eugenio Asconapé",
    "shop": "chemist"
  }
},
{
  "type": "node",
  "id": 6951963204,
  "lat": -34.5573732,
  "lon": -58.4456646,
  "tags": {
    "name": "Mr. Cleaner",
    "shop": "chemist"
  }
},
{
  "type": "node",
  "id": 7055939989,
  "lat": -34.6520420,
  "lon": -58.7889844,
  "tags": {
    "name": "La Jabonería",
    "shop": "chemist"
  }
},
{
  "type": "node",
  "id": 7058471466,
  "lat": -34.5609291,
  "lon": -59.1079385,
  "tags": {
    "level": "0",
    "name": "Química Luján",
    "shop": "chemist",
    "wheelchair": "limited"
  }
},
{
  "type": "node",
  "id": 7079676651,
  "lat": -27.3765783,
  "lon": -55.8986878,
  "tags": {
    "addr:housenumber": "2851",
    "addr:street": "Avenida Uruguay",
    "contact:facebook": "https://www.facebook.com/solarpoolspiscinas/",
    "email": "solarpools@solarpools.arnetbiz.com.ar",
    "name": "Solarpools Piscinas",
    "phone": "+54 376 5223632",
    "shop": "chemist"
  }
},
{
  "type": "node",
  "id": 7113528849,
  "lat": -34.6536501,
  "lon": -58.7839904,
  "tags": {
    "name": "La Esquina",
    "shop": "chemist"
  }
},
{
  "type": "node",
  "id": 7192010675,
  "lat": -34.6477434,
  "lon": -58.7905332,
  "tags": {
    "name": "Química Bouchard",
    "shop": "chemist"
  }
},
{
  "type": "node",
  "id": 7202514783,
  "lat": -34.6420929,
  "lon": -58.7943878,
  "tags": {
    "name": "EuroQuimica",
    "shop": "chemist"
  }
},
{
  "type": "node",
  "id": 7217635089,
  "lat": -34.6269731,
  "lon": -58.4026685,
  "tags": {
    "addr:housenumber": "1440",
    "addr:street": "Catamarca",
    "name": "SCM",
    "official_name": "Super Centro Mayorista",
    "opening_hours": "Mo-Fr 08:00-13:00,14:00-18:00",
    "shop": "chemist",
    "wholesale": "yes"
  }
},
{
  "type": "node",
  "id": 7232862161,
  "lat": -31.4029071,
  "lon": -68.4903170,
  "tags": {
    "name": "Max y Max",
    "shop": "chemist"
  }
},
{
  "type": "node",
  "id": 7239477455,
  "lat": -34.6566979,
  "lon": -58.7968988,
  "tags": {
    "name": "Todo Limpio",
    "shop": "chemist"
  }
},
{
  "type": "node",
  "id": 7313696642,
  "lat": -27.4826904,
  "lon": -55.1255741,
  "tags": {
    "addr:city": "Oberá",
    "addr:housenumber": "383",
    "addr:postcode": "3360",
    "addr:street": "Gustavo Erasmie",
    "name": "Droguería Obera",
    "shop": "chemist"
  }
},
{
  "type": "node",
  "id": 7322197656,
  "lat": -33.8910717,
  "lon": -60.5872880,
  "tags": {
    "addr:housenumber": "715",
    "addr:street": "Boulevard Florencio Sánchez",
    "name": "Limpioteca",
    "shop": "chemist"
  }
},
{
  "type": "node",
  "id": 7322987452,
  "lat": -33.9003036,
  "lon": -60.5537041,
  "tags": {
    "addr:housenumber": "1177",
    "addr:street": "Santiago del Estero",
    "name": "Prolimp Distribuciones",
    "shop": "chemist"
  }
},
{
  "type": "node",
  "id": 7322987455,
  "lat": -33.8893637,
  "lon": -60.5593167,
  "tags": {
    "addr:housenumber": "446",
    "addr:street": "Chacabuco",
    "name": "Aromas",
    "shop": "chemist"
  }
},
{
  "type": "node",
  "id": 7354432049,
  "lat": -27.3669332,
  "lon": -55.9027724,
  "tags": {
    "addr:city": "Posadas",
    "addr:housenumber": "2606",
    "addr:postcode": "3300",
    "addr:street": "Avenida Centenario",
    "contact:facebook": "https://www.facebook.com/pg/superlimpioexpressposadas/",
    "name": "Super Limpio Express",
    "opening_hours": "Mo-Fr 08:00-12:00; Sa 8:30 -12:00",
    "phone": "+54 376 4438137",
    "shop": "chemist"
  }
},
{
  "type": "node",
  "id": 7369822002,
  "lat": -34.4906276,
  "lon": -59.0778690,
  "tags": {
    "addr:street": "Avenida Doctor Domingo Cabred",
    "delivery": "yes",
    "description": "Tarjetas de Crédito y Débito.",
    "fixme": "Revisar ubicación. Cabred y Córdoba",
    "name": "Productos de Limpieza Química Marez",
    "phone": "+542323601513",
    "shop": "chemist"
  }
},
{
  "type": "node",
  "id": 7426649168,
  "lat": -27.4852435,
  "lon": -55.1239229,
  "tags": {
    "addr:city": "Oberá",
    "addr:postcode": "3360",
    "addr:street": "Estrada",
    "description": "Productos de Limpieza, Pañalería",
    "name": "Mas Clean",
    "shop": "chemist"
  }
},
{
  "type": "node",
  "id": 7506346820,
  "lat": -27.5062390,
  "lon": -58.8261416,
  "tags": {
    "addr:city": "corrientes",
    "addr:postcode": "3400",
    "addr:street": "Avenida Paysandú",
    "name": "Química Paysandú",
    "shop": "chemist"
  }
},
{
  "type": "node",
  "id": 7537831460,
  "lat": -34.6075783,
  "lon": -58.4469331,
  "tags": {
    "addr:street": "Avenida San Martín",
    "payment:cash": "yes",
    "payment:debit_cards": "yes",
    "shop": "chemist"
  }
},
{
  "type": "node",
  "id": 7630668959,
  "lat": -34.5648877,
  "lon": -58.4391614,
  "tags": {
    "name": "TJ",
    "shop": "chemist"
  }
},
{
  "type": "node",
  "id": 7659028944,
  "lat": -34.6433270,
  "lon": -58.7840784,
  "tags": {
    "shop": "chemist"
  }
},
{
  "type": "node",
  "id": 7661587375,
  "lat": -39.0291561,
  "lon": -67.5706566,
  "tags": {
    "name": "Todo Suelto",
    "shop": "chemist"
  }
},
{
  "type": "node",
  "id": 7725802836,
  "lat": -41.1359259,
  "lon": -71.2981003,
  "tags": {
    "name": "Punto Clean",
    "shop": "chemist"
  }
},
{
  "type": "node",
  "id": 7727537934,
  "lat": -30.9276038,
  "lon": -64.5005711,
  "tags": {
    "name": "El Balcón",
    "shop": "chemist"
  }
},
{
  "type": "node",
  "id": 7732071511,
  "lat": -34.5873711,
  "lon": -58.4821358,
  "tags": {
    "name": "Misión Limpieza",
    "shop": "chemist"
  }
},
{
  "type": "node",
  "id": 7797387457,
  "lat": -37.8829063,
  "lon": -67.7992757,
  "tags": {
    "name": "Rayos de Sol",
    "shop": "chemist"
  }
},
{
  "type": "node",
  "id": 7813586943,
  "lat": -34.5983099,
  "lon": -58.4998700,
  "tags": {
    "shop": "chemist"
  }
},
{
  "type": "node",
  "id": 7824246086,
  "lat": -31.4282768,
  "lon": -64.4964874,
  "tags": {
    "name": "TodoLimpio.com",
    "shop": "chemist"
  }
},
{
  "type": "node",
  "id": 7847688908,
  "lat": -34.6559141,
  "lon": -58.7934069,
  "tags": {
    "name": "Aqualimp",
    "shop": "chemist"
  }
},
{
  "type": "node",
  "id": 7847690898,
  "lat": -34.6569398,
  "lon": -58.7963542,
  "tags": {
    "shop": "chemist"
  }
},
{
  "type": "node",
  "id": 7847694543,
  "lat": -34.6562336,
  "lon": -58.7940769,
  "tags": {
    "shop": "chemist"
  }
},
{
  "type": "node",
  "id": 7861974651,
  "lat": -38.9545046,
  "lon": -68.0675599,
  "tags": {
    "name": "El Emporio de la Limpieza",
    "shop": "chemist"
  }
},
{
  "type": "node",
  "id": 7895281205,
  "lat": -36.7720430,
  "lon": -59.8575491,
  "tags": {
    "addr:city": "Azul",
    "addr:housenumber": "402",
    "addr:postcode": "7300",
    "addr:street": "Diab",
    "name": "Artículos de Limpieza Cha-Cha",
    "shop": "chemist"
  }
},
{
  "type": "node",
  "id": 7895405014,
  "lat": -34.6146393,
  "lon": -58.5312676,
  "tags": {
    "name": "Lo de Rafa",
    "shop": "chemist"
  }
},
{
  "type": "node",
  "id": 7901631927,
  "lat": -36.6372016,
  "lon": -64.3181032,
  "tags": {
    "addr:city": "Santa Rosa",
    "addr:housenumber": "2787",
    "addr:postcode": "6300",
    "addr:street": "Avenida Presidente Juan Domingo Perón",
    "contact:facebook": "https://www.facebook.com/brillanteproductos/",
    "name": "Más que Brillante",
    "shop": "chemist"
  }
},
{
  "type": "node",
  "id": 7911352723,
  "lat": -38.9414067,
  "lon": -67.9902529,
  "tags": {
    "name": "Clean Up",
    "shop": "chemist"
  }
},
{
  "type": "node",
  "id": 7936106542,
  "lat": -34.6525580,
  "lon": -58.7878434,
  "tags": {
    "name": "MG Higiene",
    "shop": "chemist"
  }
},
{
  "type": "node",
  "id": 7955046747,
  "lat": -38.9294396,
  "lon": -67.9986310,
  "tags": {
    "name": "S&S Limpieza",
    "shop": "chemist"
  }
},
{
  "type": "node",
  "id": 7988026471,
  "lat": -41.1385422,
  "lon": -71.3018723,
  "tags": {
    "addr:housenumber": "602",
    "addr:street": "Gral. Antonio Tiscornia",
    "description": "Desde hace 40 años los mejores artículos de limpieza y al precio más bajo, los encontrás en Super Clin",
    "name": "Súper Clin",
    "phone": "0294 443-2546",
    "shop": "chemist",
    "website": "https://super-clin.com.ar/"
  }
},
{
  "type": "node",
  "id": 7990435045,
  "lat": -34.6624337,
  "lon": -58.7269221,
  "tags": {
    "name": "La Jaboneria",
    "shop": "chemist"
  }
},
{
  "type": "node",
  "id": 7990459219,
  "lat": -34.6619370,
  "lon": -58.7266561,
  "tags": {
    "name": "Any",
    "shop": "chemist"
  }
},
{
  "type": "node",
  "id": 8001815393,
  "lat": -30.9252050,
  "lon": -64.5052390,
  "tags": {
    "name": "Artículos de Limpieza",
    "shop": "chemist"
  }
},
{
  "type": "node",
  "id": 8033175858,
  "lat": -27.3281904,
  "lon": -55.0516707,
  "tags": {
    "name": "Todo Suelto",
    "shop": "chemist"
  }
},
{
  "type": "node",
  "id": 8235460760,
  "lat": -40.7638818,
  "lon": -71.6435729,
  "tags": {
    "name": "H2O Limpieza",
    "shop": "chemist"
  }
},
{
  "type": "node",
  "id": 8301569454,
  "lat": -34.6023125,
  "lon": -58.5287772,
  "tags": {
    "name": "Limpio & Relimpio",
    "shop": "chemist"
  }
},
{
  "type": "node",
  "id": 8371464265,
  "lat": -37.3224583,
  "lon": -59.1422784,
  "tags": {
    "name": "Distribuidora BH",
    "shop": "chemist"
  }
},
{
  "type": "node",
  "id": 8412453832,
  "lat": -30.7380204,
  "lon": -64.7903399,
  "tags": {
    "shop": "chemist"
  }
},
{
  "type": "node",
  "id": 8446059725,
  "lat": -30.7207173,
  "lon": -64.8060921,
  "tags": {
    "name": "La Jabonera",
    "shop": "chemist"
  }
},
{
  "type": "node",
  "id": 8464781682,
  "lat": -34.8865393,
  "lon": -60.0069661,
  "tags": {
    "name": "Kiosco de jabón - Todo Suelto",
    "shop": "chemist"
  }
},
{
  "type": "node",
  "id": 8554281034,
  "lat": -41.1261877,
  "lon": -71.3956410,
  "tags": {
    "name": "Farmacia Tao Pehuenes",
    "shop": "chemist"
  }
},
{
  "type": "node",
  "id": 8581216585,
  "lat": -34.5638853,
  "lon": -58.4593821,
  "tags": {
    "name": "Natural Paper",
    "shop": "chemist"
  }
},
{
  "type": "node",
  "id": 8612207930,
  "lat": -36.7806062,
  "lon": -59.8587536,
  "tags": {
    "addr:city": "Azul",
    "addr:housenumber": "683",
    "addr:postcode": "7300",
    "addr:street": "Hipólito Yrigoyen",
    "name": "Autoservicio Brillo's",
    "phone": "+54 2281 42 6109",
    "shop": "chemist"
  }
},
{
  "type": "node",
  "id": 8616313068,
  "lat": -34.6472566,
  "lon": -58.7889993,
  "tags": {
    "name": "Pulcro",
    "shop": "chemist"
  }
},
{
  "type": "node",
  "id": 8640964443,
  "lat": -27.2639064,
  "lon": -58.9714625,
  "tags": {
    "name": "Geminis",
    "shop": "chemist"
  }
},
{
  "type": "node",
  "id": 8645389146,
  "lat": -27.2639173,
  "lon": -58.9714460,
  "tags": {
    "name": "Geminis",
    "shop": "chemist"
  }
},
{
  "type": "node",
  "id": 8752897072,
  "lat": -27.3725498,
  "lon": -55.9440794,
  "tags": {
    "addr:city": "Posadas",
    "addr:postcode": "3300",
    "addr:street": "Avenida Blas Parera",
    "shop": "chemist"
  }
},
{
  "type": "node",
  "id": 8783933441,
  "lat": -38.7137733,
  "lon": -62.2689560,
  "tags": {
    "addr:city": "Bahía Blanca",
    "addr:housenumber": "382",
    "addr:postcode": "B8000",
    "addr:street": "Zelarrayán",
    "name": "Planeta",
    "shop": "chemist"
  }
},
{
  "type": "node",
  "id": 8784302358,
  "lat": -38.7155656,
  "lon": -62.2666588,
  "tags": {
    "addr:city": "Bahía Blanca",
    "addr:housenumber": "184",
    "addr:postcode": "B8000",
    "addr:street": "Zelarrayán",
    "name": "Fina Lavanda",
    "shop": "chemist"
  }
},
{
  "type": "node",
  "id": 9084335416,
  "lat": -34.6491467,
  "lon": -58.8048133,
  "tags": {
    "name": "Buena Química",
    "shop": "chemist"
  }
},
{
  "type": "node",
  "id": 9112106654,
  "lat": -34.6594898,
  "lon": -58.7807678,
  "tags": {
    "name": "Ju-Ka",
    "shop": "chemist"
  }
},
{
  "type": "node",
  "id": 9112117145,
  "lat": -34.6596317,
  "lon": -58.7802543,
  "tags": {
    "name": "Limpieza y Perfumería",
    "shop": "chemist"
  }
},
{
  "type": "node",
  "id": 9166101484,
  "lat": -29.1487880,
  "lon": -59.6565758,
  "tags": {
    "addr:city": "Reconquista",
    "addr:postcode": "S3560",
    "addr:street": "Bulevar Hipólito Yrigoyen",
    "name": "Forlin",
    "shop": "chemist"
  }
},
{
  "type": "way",
  "id": 114332924,
  "nodes": [
    1589623261,
    1295400771,
    5337560213,
    5498760249,
    1295401216,
    1295401002,
    1589623259,
    1589623261
  ],
  "tags": {
    "amenity": "pharmacy",
    "building": "yes",
    "healthcare": "pharmacy",
    "name": "FarmaCity",
    "operator": "Farmacity",
    "shop": "chemist"
  }
},
{
  "type": "way",
  "id": 237613111,
  "nodes": [
    2454876855,
    2568382121,
    2454876863,
    2454876859,
    2454876858,
    2568382118,
    2454876857,
    2454876855
  ],
  "tags": {
    "addr:housename": "Avenida Sarmiento y Pueyrredon",
    "building": "yes",
    "name": "Farmacia Favaloro",
    "shop": "chemist"
  }
},
{
  "type": "way",
  "id": 239208801,
  "nodes": [
    2470197286,
    2566519808,
    2470197283,
    2456280044,
    2566519815,
    2566519806,
    2470197286
  ],
  "tags": {
    "addr:postcode": "S2132",
    "addr:street": "Presidente Perón",
    "building": "retail",
    "building:colour": "red",
    "building:levels": "2",
    "building:material": "concrete",
    "name": "Limpieza Oeste",
    "roof:levels": "1",
    "roof:material": "concrete",
    "roof:shape": "flat",
    "shop": "chemist",
    "wheelchair": "yes"
  }
},
{
  "type": "way",
  "id": 253263375,
  "nodes": [
    8948797604,
    2592158351,
    2592158350,
    2592158349,
    2592158353,
    3493408914,
    3493408911,
    3493408912,
    3493408909,
    8948797604
  ],
  "tags": {
    "addr:housenumber": "1519",
    "addr:postcode": "S2132",
    "addr:street": "San José",
    "amenity": "pharmacy",
    "building": "retail",
    "building:levels": "1",
    "contact:email": "farmacialascurain@funescoop.com.ar",
    "contact:phone": "+54 341 493-3547",
    "dispensing": "yes",
    "healthcare": "pharmacy",
    "name": "Lascurain",
    "operator": "María Eugenia Lascurain",
    "roof:levels": "1",
    "shop": "chemist",
    "wheelchair": "yes"
  }
},
{
  "type": "way",
  "id": 253888140,
  "nodes": [
    2597598960,
    2597598958,
    2922520764,
    3468000177,
    3468000178,
    3468000179,
    3468000182,
    3468000184,
    3468000185,
    2597598960
  ],
  "tags": {
    "addr:postcode": "S2132",
    "addr:street": "Juan Elorza",
    "building": "retail",
    "building:colour": "yellow",
    "building:levels": "2",
    "description": "Perfumería y pañalería",
    "name": "Berenice",
    "opening_hours:signed": "no",
    "roof:levels": "1",
    "roof:shape": "half-hipped",
    "shop": "chemist",
    "wheelchair": "limited"
  }
},
{
  "type": "way",
  "id": 293777236,
  "nodes": [
    2973638845,
    2973638846,
    2973638844,
    2973638843,
    2973638845
  ],
  "tags": {
    "addr:postcode": "S2132",
    "addr:street": "Suipacha",
    "building": "retail",
    "description": "Forraje",
    "opening_hours": "Mo-Fr 09:00-13:00,17:00-20:00",
    "shop": "chemist"
  }
},
{
  "type": "way",
  "id": 294416723,
  "nodes": [
    2980161006,
    2980161005,
    2980160999,
    2980161000,
    2980161006
  ],
  "tags": {
    "addr:housenumber": "646",
    "addr:postcode": "S2132",
    "addr:street": "Buenos Aires",
    "amenity": "pharmacy",
    "building": "yes",
    "contact:phone": "+54 341 493-0770",
    "dispensing": "yes",
    "healthcare": "pharmacy",
    "name": "Orcellet",
    "opening_hours": "Mo-Su 09:00-13:00,16:30-20:30, Sa off",
    "payment:cash": "yes",
    "shop": "chemist",
    "wheelchair": "limited"
  }
},
{
  "type": "way",
  "id": 300302155,
  "nodes": [
    4044971648,
    2923646919,
    2923646915,
    2923646914,
    2923646917,
    3043995841,
    4044971648
  ],
  "tags": {
    "addr:postcode": "S2132",
    "addr:street": "Avenida Fuerza Aérea",
    "amenity": "pharmacy",
    "building": "retail",
    "building:levels": "2",
    "contact:phone": "+54 341 493-7593",
    "dispensing": "yes",
    "healthcare": "pharmacy",
    "name": "Sabín",
    "payment:cash": "yes",
    "shop": "chemist",
    "wheelchair": "yes"
  }
},
{
  "type": "way",
  "id": 312974215,
  "nodes": [
    3188884027,
    3188884025,
    3188884026,
    3188884028,
    3188884027
  ],
  "tags": {
    "building": "retail",
    "name": "Artículos de Limpieza",
    "shop": "chemist"
  }
},
{
  "type": "way",
  "id": 342341416,
  "nodes": [
    3493504002,
    3493504000,
    3493504001,
    3493504003,
    3493504002
  ],
  "tags": {
    "addr:housenumber": "1743",
    "addr:postcode": "S2132",
    "addr:street": "Avenida Córdoba",
    "building": "retail",
    "building:levels": "2",
    "contact:email": "info@soylola.com",
    "contact:phone": "+54 341 493-5665",
    "contact:website": "http://soylola.com/",
    "name": "Soy Lola",
    "opening_hours": "Mo-Sa 9:00-14:00,17:00-20:00",
    "payment:cash": "yes",
    "shop": "chemist",
    "wheelchair": "limited"
  }
},
{
  "type": "way",
  "id": 369196018,
  "nodes": [
    5517448825,
    3730055239,
    4417664626,
    3730055233,
    5581051345,
    3730055240,
    5517448825
  ],
  "tags": {
    "addr:street": "Domingo Faustino Sarmiento",
    "alt_name": "Más Limpieza",
    "building": "retail",
    "building:levels": "1",
    "name": "+ Limpieza",
    "official_name": "+ Limpieza",
    "opening_hours": "Mo-Fr 08:30-12:30,16:30-20:00",
    "shop": "chemist",
    "wheelchair": "limited"
  }
},
{
  "type": "way",
  "id": 444842650,
  "nodes": [
    4423077826,
    4423077823,
    4423077819,
    4423077820,
    4423077821,
    4423077826
  ],
  "tags": {
    "addr:housenumber": "1865",
    "addr:postcode": "S2132",
    "addr:street": "Buenos Aires",
    "building": "retail",
    "building:levels": "1",
    "name": "El Súper de la Limpieza",
    "roof:levels": "1",
    "shop": "chemist",
    "wheelchair": "limited"
  }
},
{
  "type": "way",
  "id": 465530854,
  "nodes": [
    4604886310,
    4604886311,
    4604886312,
    4604886313,
    4604886310
  ],
  "tags": {
    "addr:street": "125 - Avenida Eva Perón",
    "building": "yes",
    "name": "Cloro",
    "shop": "chemist",
    "source": "Reconocimiento terrestre por Kaart 2016"
  }
},
{
  "type": "way",
  "id": 465760447,
  "nodes": [
    4606830724,
    4606830725,
    4606830726,
    4606830727,
    4606830724
  ],
  "tags": {
    "addr:street": "Avenida 101 - Doctor Ricardo Balbín",
    "building": "yes",
    "name": "Ar. de Limpieza Cloro",
    "shop": "chemist",
    "source": "Reconocimiento terrestre por Kaart 2016"
  }
},
{
  "type": "way",
  "id": 465775345,
  "nodes": [
    4606952063,
    4606952064,
    4606952065,
    4606952066,
    4606952063
  ],
  "tags": {
    "addr:housenumber": "4344",
    "addr:street": "Diagonal 101 - Avenida Doctor Ricardo Balbín",
    "building": "yes",
    "name": "Quimica Cloro",
    "shop": "chemist",
    "source": "Reconocimiento terrestre por Kaart 2016"
  }
},
{
  "type": "way",
  "id": 466456197,
  "nodes": [
    4612506365,
    4612506372,
    4612506373,
    4612506374,
    4612506375,
    4612506365
  ],
  "tags": {
    "addr:street": "Avenida Bartolomé Mitre",
    "building": "yes",
    "name": "Simplicity",
    "shop": "chemist"
  }
},
{
  "type": "way",
  "id": 466464273,
  "nodes": [
    4612584212,
    4612584213,
    4612584214,
    4612584215,
    4612584216,
    4612584212
  ],
  "tags": {
    "addr:street": "Avenida 101 - Doctor Ricardo Balbín",
    "building": "yes",
    "name": "Proquimo",
    "shop": "chemist",
    "source": "Reconocimiento terrestre por Kaart 2016"
  }
},
{
  "type": "way",
  "id": 468153361,
  "nodes": [
    4627181724,
    4627181725,
    4627181726,
    4627181727,
    4627181728,
    4627181724
  ],
  "tags": {
    "building": "yes",
    "name": "La Jaboneía",
    "shop": "chemist"
  }
},
{
  "type": "way",
  "id": 468829012,
  "nodes": [
    4633000706,
    4633000707,
    4633000708,
    4633000709,
    4633000706
  ],
  "tags": {
    "building": "yes",
    "name": "Higiene Bella Vista",
    "shop": "chemist"
  }
},
{
  "type": "way",
  "id": 469138329,
  "nodes": [
    4635355907,
    4635355905,
    4635355908,
    4635355909,
    4635355910,
    4635355907
  ],
  "tags": {
    "addr:street": "Las Heras",
    "building": "yes",
    "name": "Simplicity",
    "shop": "chemist",
    "source": "Reconocimiento terrestre por Kaart 2016"
  }
},
{
  "type": "way",
  "id": 470372154,
  "nodes": [
    4645734656,
    4645734657,
    4645734658,
    4645734659,
    4645734656
  ],
  "tags": {
    "building": "yes",
    "name": "Quimica",
    "shop": "chemist",
    "source": "Reconocimiento terrestre cartográfico realizado por Kaart en 2016."
  }
},
{
  "type": "way",
  "id": 470423239,
  "nodes": [
    4646205008,
    4646205009,
    4646205010,
    4646205011,
    4646205012,
    4646205008
  ],
  "tags": {
    "building": "yes",
    "name": "La Gauchita",
    "shop": "chemist"
  }
},
{
  "type": "way",
  "id": 471554159,
  "nodes": [
    4657137603,
    4657137604,
    4657137605,
    4657137606,
    4657137603
  ],
  "tags": {
    "addr:street": "Avenida Hipólito Yrigoyen",
    "building": "yes",
    "name": "El Kioskazo del Cruce",
    "shop": "chemist",
    "source": "Reconocimiento terrestre 2016 por Kaart"
  }
},
{
  "type": "way",
  "id": 471648820,
  "nodes": [
    4658095051,
    4658095048,
    4670193168,
    4658095049,
    4658095054,
    4658095051
  ],
  "tags": {
    "addr:city": "Olivos",
    "addr:street": "Avenida Maipú",
    "building": "yes",
    "building:levels": "2",
    "name": "Simplicity",
    "shop": "chemist"
  }
},
{
  "type": "way",
  "id": 471840851,
  "nodes": [
    4659904870,
    4659904871,
    4659904872,
    4659904873,
    4659904870
  ],
  "tags": {
    "addr:city": "Longchamps",
    "addr:postcode": "1854",
    "addr:street": "Avenida Doctor Chiesa",
    "building": "yes",
    "name": "Rocco",
    "opening_hours:covid19": "open",
    "shop": "chemist",
    "source": "Reconocimiento terrestre 2016 por Kaart."
  }
},
{
  "type": "way",
  "id": 471982515,
  "nodes": [
    4661334225,
    4661334226,
    4661334227,
    4661334228,
    4661334229,
    4661334230,
    4661334225
  ],
  "tags": {
    "addr:street": "Castelli",
    "building": "yes",
    "name": "Distribuidora M&G",
    "shop": "chemist",
    "source": "Reconocimiento terrestre 2016 por Kaart"
  }
},
{
  "type": "way",
  "id": 472700494,
  "nodes": [
    4668942368,
    4668989806,
    4668989807,
    4668989808,
    4668942367,
    4668942368
  ],
  "tags": {
    "addr:street": "J. Sagarra",
    "building": "yes",
    "name": "Girasole",
    "shop": "chemist",
    "source": "Reconocimiento terrestre 2016 por Kaart"
  }
},
{
  "type": "way",
  "id": 472791786,
  "nodes": [
    4669929175,
    4669929176,
    4669929177,
    4669929178,
    4669929174,
    4669929175
  ],
  "tags": {
    "addr:street": "General José de San Martín",
    "building": "yes",
    "name": "Drugstore Florida",
    "shop": "chemist",
    "source": "Reconocimiento terrestre por Kaart 2016"
  }
},
{
  "type": "way",
  "id": 473435230,
  "nodes": [
    4675539917,
    4675539918,
    4675539919,
    4675539920,
    4675539921,
    4675539922,
    4675539917
  ],
  "tags": {
    "addr:city": "San Isidro",
    "addr:housenumber": "18",
    "addr:postcode": "B1642",
    "addr:street": "Laprida",
    "building": "retail",
    "building:levels": "1",
    "name": "Simplicity",
    "opening_hours": "Mo-Sa 09:00-21:00",
    "phone": "+54 0800-666-4321",
    "roof:levels": "0",
    "shop": "chemist",
    "source": "Reconocimiento terrestre por Kaart 2016.;local knowledge",
    "website": "https://simplicity.com.ar/"
  }
},
{
  "type": "way",
  "id": 474483785,
  "nodes": [
    4684317809,
    4684317810,
    4684317811,
    4684317812,
    4684317809
  ],
  "tags": {
    "addr:street": "Avenida General San Martín",
    "building": "yes",
    "name": "Euro Quimica S.A.",
    "shop": "chemist",
    "source": "Reconocimiento terrestre 2016 por Kaart"
  }
},
{
  "type": "way",
  "id": 476409534,
  "nodes": [
    4700029957,
    4700029960,
    4700029961,
    4700029962,
    4700029956,
    4700029957
  ],
  "tags": {
    "building": "yes",
    "name": "Ricky",
    "shop": "chemist"
  }
},
{
  "type": "way",
  "id": 477618341,
  "nodes": [
    4709327977,
    4709327978,
    4709327979,
    4709327980,
    4709327977
  ],
  "tags": {
    "addr:street": "Doctor Ignacio Arieta",
    "building": "yes",
    "name": "Perfumería Margarita",
    "shop": "chemist",
    "source": "Reconocimiento terrestre 2016 por Kaart"
  }
},
{
  "type": "way",
  "id": 545080245,
  "nodes": [
    5268512609,
    5268512610,
    5268512611,
    5268512612,
    5268512609
  ],
  "tags": {
    "addr:street": "Coronel D'Elía",
    "building": "yes",
    "name": "Loly",
    "shop": "chemist"
  }
},
{
  "type": "way",
  "id": 545341155,
  "nodes": [
    5270776582,
    5270776583,
    5270776584,
    5270776585,
    5270776582
  ],
  "tags": {
    "addr:street": "Coronel Ignacio Warnes",
    "building": "yes",
    "name": "Quimica APM",
    "shop": "chemist"
  }
},
{
  "type": "way",
  "id": 546224317,
  "nodes": [
    5278701402,
    5278701395,
    5278701400,
    5278701399,
    5278701401,
    5278701402
  ],
  "tags": {
    "building": "retail",
    "building:levels": "1",
    "name": "Deco Aroma",
    "shop": "chemist",
    "wheelchair": "yes"
  }
},
{
  "type": "way",
  "id": 555602893,
  "nodes": [
    5360214336,
    5360214334,
    722914973,
    5360214335,
    5360214336
  ],
  "tags": {
    "addr:street": "Bulevar Chacabuco",
    "amenity": "pharmacy",
    "building": "yes",
    "healthcare": "pharmacy",
    "name": "Farmacity",
    "shop": "chemist"
  }
},
{
  "type": "way",
  "id": 555874596,
  "nodes": [
    5362628826,
    5362628825,
    717587777,
    5362628824,
    5362628826
  ],
  "tags": {
    "addr:street": "Avenida José Manuel Estrada",
    "amenity": "pharmacy",
    "building": "yes",
    "healthcare": "pharmacy",
    "name": "Farmacity",
    "shop": "chemist"
  }
},
{
  "type": "way",
  "id": 580637946,
  "nodes": [
    5557877552,
    5557877551,
    5557877544,
    5557877573,
    5557877553,
    5557877552
  ],
  "tags": {
    "addr:housename": "Tierra Chica",
    "addr:housenumber": "972",
    "addr:postcode": "S2132",
    "addr:street": "Avenida Córdoba",
    "building:part": "retail",
    "description": "Local 27",
    "indoor": "room",
    "level": "0",
    "name": "Aloha Drugstore",
    "shop": "chemist",
    "wheelchair": "yes"
  }
},
{
  "type": "way",
  "id": 637166201,
  "nodes": [
    6007283654,
    6007283655,
    6007283656,
    6007283657,
    6007283659,
    6007283658,
    6007283654
  ],
  "tags": {
    "addr:city": "Villa Sarmiento (Ramos Mejía Norte)",
    "addr:housenumber": "323",
    "addr:postcode": "1706",
    "addr:street": "Doctor Saturnino Segurola",
    "building": "yes",
    "name": "Droguería San Antonio",
    "phone": "+54 11 4658-9700",
    "shop": "chemist"
  }
},
{
  "type": "way",
  "id": 751354462,
  "nodes": [
    4401492456,
    7023996501,
    7914574327,
    7914574328,
    7023996502,
    7023996503,
    4401492454,
    4401492456
  ],
  "tags": {
    "building": "yes",
    "name": "El Balcón",
    "shop": "chemist"
  }
},
{
  "type": "way",
  "id": 787016202,
  "nodes": [
    3965271645,
    7357640633,
    7357640634,
    3965271644,
    3965271645
  ],
  "tags": {
    "addr:city": "Viedma",
    "addr:housenumber": "1011",
    "addr:postcode": "8500",
    "addr:street": "25 de Mayo",
    "building": "yes",
    "name": "Quinor SA - Droguería y Productos Biomédicos",
    "shop": "chemist"
  }
},
{
  "type": "way",
  "id": 790557103,
  "nodes": [
    7390792663,
    7390792664,
    7390792665,
    7390792666,
    7390792663
  ],
  "tags": {
    "addr:street": "Jorge Newbery",
    "building": "yes",
    "name": "Limpito's",
    "shop": "chemist"
  }
},
{
  "type": "way",
  "id": 790569889,
  "nodes": [
    7390918115,
    7390918116,
    7390918117,
    7390918118,
    7390918115
  ],
  "tags": {
    "addr:street": "Leandro N. Alem",
    "building": "yes",
    "shop": "chemist"
  }
},
{
  "type": "way",
  "id": 791952316,
  "nodes": [
    7403640909,
    7403640910,
    7403640911,
    7403640912,
    7403640909
  ],
  "tags": {
    "addr:street": "Belgrano",
    "building": "yes",
    "name": "Química Belgrano",
    "shop": "chemist"
  }
},
{
  "type": "way",
  "id": 810553299,
  "nodes": [
    7023858599,
    7914677202,
    7578535274,
    7914677204,
    7578535275,
    7578535241,
    7023858599
  ],
  "tags": {
    "building": "yes",
    "name": "La Casa de la Limpieza",
    "shop": "chemist"
  }
},
{
  "type": "way",
  "id": 810553310,
  "nodes": [
    7578535317,
    7578535318,
    7578535319,
    7578535303,
    7578535320,
    7578535324,
    7578535317
  ],
  "tags": {
    "building": "yes",
    "name": "Artículos de Limpieza",
    "shop": "chemist"
  }
},
{
  "type": "way",
  "id": 820789331,
  "nodes": [
    8986350865,
    7662553732,
    7662553731,
    7662553729,
    8986350865
  ],
  "tags": {
    "addr:city": "Cipolletti",
    "addr:housenumber": "48",
    "addr:postcode": "R8324",
    "addr:street": "General San Martín",
    "building": "yes",
    "name": "Econoclean",
    "shop": "chemist"
  }
},
{
  "type": "way",
  "id": 821270339,
  "nodes": [
    7668212083,
    7668212084,
    7668212085,
    7668212086,
    7668212083
  ],
  "tags": {
    "addr:city": "Neuquén",
    "addr:postcode": "Q8300",
    "addr:street": "Intendente Pedro Linares",
    "building": "yes",
    "name": "CAROMAR Mayorista",
    "shop": "chemist"
  }
},
{
  "type": "way",
  "id": 844643450,
  "nodes": [
    7879925073,
    7879925076,
    7879925082,
    7879925077,
    7879826121,
    7879925074,
    7879925073
  ],
  "tags": {
    "building": "yes",
    "name": "Segulimp",
    "shop": "chemist"
  }
},
{
  "type": "way",
  "id": 848677640,
  "nodes": [
    7918718494,
    7918718495,
    7918718496,
    7918718497,
    7918718500,
    7918718498,
    7918718499,
    7918718492,
    7918718494
  ],
  "tags": {
    "building": "yes",
    "name": "Smart Clean",
    "shop": "chemist"
  }
},
{
  "type": "way",
  "id": 852793388,
  "nodes": [
    7955046697,
    7955046698,
    7955046699,
    7955046700,
    7955046701,
    7955046697
  ],
  "tags": {
    "building": "yes",
    "name": "Shaddai",
    "shop": "chemist"
  }
},
{
  "type": "way",
  "id": 901809323,
  "nodes": [
    8377009115,
    8377009116,
    8377012017,
    8377012018,
    8377012019,
    8377012020,
    8377012021,
    8377009115
  ],
  "tags": {
    "building": "yes",
    "name": "A Y M",
    "shop": "chemist"
  }
},
{
  "type": "way",
  "id": 942040652,
  "nodes": [
    8723657432,
    8723657433,
    8723657434,
    8723657435,
    8723657436,
    8723657432
  ],
  "tags": {
    "addr:city": "Bahía Blanca",
    "addr:housenumber": "98",
    "addr:postcode": "8000",
    "addr:street": "Undiano",
    "building": "yes",
    "contact:facebook": "https://www.facebook.com/alprosbb/",
    "name": "Alpros",
    "phone": "+54 9 291 436-8282;+54 9 291 453-1355",
    "shop": "chemist"
  }
},
{
  "type": "node",
  "id": 7918718492,
  "lat": -50.3398829,
  "lon": -72.2665920
},
{
  "type": "node",
  "id": 7918718494,
  "lat": -50.3398083,
  "lon": -72.2666070
},
{
  "type": "node",
  "id": 7918718495,
  "lat": -50.3398043,
  "lon": -72.2665573
},
{
  "type": "node",
  "id": 7918718496,
  "lat": -50.3397579,
  "lon": -72.2665664
},
{
  "type": "node",
  "id": 7918718499,
  "lat": -50.3399515,
  "lon": -72.2665779
},
{
  "type": "node",
  "id": 7918718497,
  "lat": -50.3397478,
  "lon": -72.2664425
},
{
  "type": "node",
  "id": 7918718498,
  "lat": -50.3399376,
  "lon": -72.2664051
},
{
  "type": "node",
  "id": 7918718500,
  "lat": -50.3398521,
  "lon": -72.2664219
},
{
  "type": "node",
  "id": 2454876855,
  "lat": -41.9556311,
  "lon": -71.5366785
},
{
  "type": "node",
  "id": 2454876857,
  "lat": -41.9556386,
  "lon": -71.5365556
},
{
  "type": "node",
  "id": 2454876858,
  "lat": -41.9557676,
  "lon": -71.5364816
},
{
  "type": "node",
  "id": 2454876859,
  "lat": -41.9557605,
  "lon": -71.5365984
},
{
  "type": "node",
  "id": 2454876863,
  "lat": -41.9557315,
  "lon": -71.5365952
},
{
  "type": "node",
  "id": 2568382118,
  "lat": -41.9556963,
  "lon": -71.5364877
},
{
  "type": "node",
  "id": 2568382121,
  "lat": -41.9557257,
  "lon": -71.5366889
},
{
  "type": "node",
  "id": 7879925073,
  "lat": -38.9580759,
  "lon": -68.0672832
},
{
  "type": "node",
  "id": 7879925076,
  "lat": -38.9580765,
  "lon": -68.0671499
},
{
  "type": "node",
  "id": 7879925082,
  "lat": -38.9579659,
  "lon": -68.0671494
},
{
  "type": "node",
  "id": 7879826121,
  "lat": -38.9578056,
  "lon": -68.0672426
},
{
  "type": "node",
  "id": 7879925074,
  "lat": -38.9578055,
  "lon": -68.0672819
},
{
  "type": "node",
  "id": 7879925077,
  "lat": -38.9578059,
  "lon": -68.0671486
},
{
  "type": "node",
  "id": 7668212083,
  "lat": -38.9598149,
  "lon": -68.0448287
},
{
  "type": "node",
  "id": 7668212084,
  "lat": -38.9602018,
  "lon": -68.0448352
},
{
  "type": "node",
  "id": 7668212085,
  "lat": -38.9602043,
  "lon": -68.0445356
},
{
  "type": "node",
  "id": 7668212086,
  "lat": -38.9598155,
  "lon": -68.0445309
},
{
  "type": "node",
  "id": 7662553729,
  "lat": -38.9391506,
  "lon": -68.0013577
},
{
  "type": "node",
  "id": 7662553731,
  "lat": -38.9391673,
  "lon": -68.0012778
},
{
  "type": "node",
  "id": 7662553732,
  "lat": -38.9389716,
  "lon": -68.0012106
},
{
  "type": "node",
  "id": 8986350865,
  "lat": -38.9389551,
  "lon": -68.0012901
},
{
  "type": "node",
  "id": 7955046697,
  "lat": -38.9260732,
  "lon": -67.9975435
},
{
  "type": "node",
  "id": 7955046698,
  "lat": -38.9260735,
  "lon": -67.9974327
},
{
  "type": "node",
  "id": 7955046699,
  "lat": -38.9259833,
  "lon": -67.9974322
},
{
  "type": "node",
  "id": 7955046700,
  "lat": -38.9259832,
  "lon": -67.9974799
},
{
  "type": "node",
  "id": 7955046701,
  "lat": -38.9260086,
  "lon": -67.9975220
},
{
  "type": "node",
  "id": 3965271644,
  "lat": -40.8104558,
  "lon": -63.0012773
},
{
  "type": "node",
  "id": 3965271645,
  "lat": -40.8102702,
  "lon": -63.0014218
},
{
  "type": "node",
  "id": 7357640633,
  "lat": -40.8101523,
  "lon": -63.0011600
},
{
  "type": "node",
  "id": 7357640634,
  "lat": -40.8103388,
  "lon": -63.0010148
},
{
  "type": "node",
  "id": 8723657432,
  "lat": -38.7248549,
  "lon": -62.2613783
},
{
  "type": "node",
  "id": 8723657433,
  "lat": -38.7249180,
  "lon": -62.2614578
},
{
  "type": "node",
  "id": 8723657434,
  "lat": -38.7249772,
  "lon": -62.2614588
},
{
  "type": "node",
  "id": 8723657435,
  "lat": -38.7250080,
  "lon": -62.2614180
},
{
  "type": "node",
  "id": 8723657436,
  "lat": -38.7249140,
  "lon": -62.2613010
},
{
  "type": "node",
  "id": 7403640909,
  "lat": -33.0969138,
  "lon": -64.2902173
},
{
  "type": "node",
  "id": 7403640910,
  "lat": -33.0969743,
  "lon": -64.2901567
},
{
  "type": "node",
  "id": 7403640911,
  "lat": -33.0970307,
  "lon": -64.2902369
},
{
  "type": "node",
  "id": 7403640912,
  "lat": -33.0969702,
  "lon": -64.2902975
},
{
  "type": "node",
  "id": 7390792663,
  "lat": -33.0919301,
  "lon": -64.2915187
},
{
  "type": "node",
  "id": 7390792664,
  "lat": -33.0919811,
  "lon": -64.2914669
},
{
  "type": "node",
  "id": 7390792665,
  "lat": -33.0919517,
  "lon": -64.2914258
},
{
  "type": "node",
  "id": 7390792666,
  "lat": -33.0919008,
  "lon": -64.2914777
},
{
  "type": "node",
  "id": 7390918115,
  "lat": -33.0885961,
  "lon": -64.2859733
},
{
  "type": "node",
  "id": 7390918116,
  "lat": -33.0886473,
  "lon": -64.2859236
},
{
  "type": "node",
  "id": 7390918117,
  "lat": -33.0887034,
  "lon": -64.2860060
},
{
  "type": "node",
  "id": 7390918118,
  "lat": -33.0886522,
  "lon": -64.2860557
},
{
  "type": "node",
  "id": 717587777,
  "lat": -31.4278366,
  "lon": -64.1864540
},
{
  "type": "node",
  "id": 5362628824,
  "lat": -31.4279591,
  "lon": -64.1864996
},
{
  "type": "node",
  "id": 5362628825,
  "lat": -31.4278163,
  "lon": -64.1865291
},
{
  "type": "node",
  "id": 5362628826,
  "lat": -31.4279387,
  "lon": -64.1865747
},
{
  "type": "node",
  "id": 722914973,
  "lat": -31.4242587,
  "lon": -64.1831272
},
{
  "type": "node",
  "id": 5360214334,
  "lat": -31.4242060,
  "lon": -64.1832935
},
{
  "type": "node",
  "id": 5360214335,
  "lat": -31.4243717,
  "lon": -64.1831763
},
{
  "type": "node",
  "id": 5360214336,
  "lat": -31.4243191,
  "lon": -64.1833426
},
{
  "type": "node",
  "id": 7023858599,
  "lat": -30.9815970,
  "lon": -64.4915427
},
{
  "type": "node",
  "id": 7578535241,
  "lat": -30.9817295,
  "lon": -64.4915340
},
{
  "type": "node",
  "id": 7578535274,
  "lat": -30.9816017,
  "lon": -64.4916002
},
{
  "type": "node",
  "id": 7578535275,
  "lat": -30.9817385,
  "lon": -64.4915910
},
{
  "type": "node",
  "id": 7578535303,
  "lat": -30.9816469,
  "lon": -64.4908176
},
{
  "type": "node",
  "id": 7578535317,
  "lat": -30.9815544,
  "lon": -64.4909026
},
{
  "type": "node",
  "id": 7578535318,
  "lat": -30.9815434,
  "lon": -64.4908350
},
{
  "type": "node",
  "id": 7578535319,
  "lat": -30.9816397,
  "lon": -64.4907957
},
{
  "type": "node",
  "id": 7578535320,
  "lat": -30.9816560,
  "lon": -64.4908551
},
{
  "type": "node",
  "id": 7578535324,
  "lat": -30.9816270,
  "lon": -64.4908687
},
{
  "type": "node",
  "id": 7914677202,
  "lat": -30.9815999,
  "lon": -64.4915696
},
{
  "type": "node",
  "id": 7914677204,
  "lat": -30.9816107,
  "lon": -64.4916004
},
{
  "type": "node",
  "id": 4401492454,
  "lat": -30.9277050,
  "lon": -64.5005826
},
{
  "type": "node",
  "id": 7023996503,
  "lat": -30.9276118,
  "lon": -64.5006416
},
{
  "type": "node",
  "id": 4401492456,
  "lat": -30.9276433,
  "lon": -64.5004455
},
{
  "type": "node",
  "id": 7023996501,
  "lat": -30.9276279,
  "lon": -64.5004431
},
{
  "type": "node",
  "id": 7023996502,
  "lat": -30.9275485,
  "lon": -64.5005022
},
{
  "type": "node",
  "id": 7914574327,
  "lat": -30.9276090,
  "lon": -64.5004579
},
{
  "type": "node",
  "id": 7914574328,
  "lat": -30.9275769,
  "lon": -64.5004830
},
{
  "type": "node",
  "id": 2923646914,
  "lat": -32.9290013,
  "lon": -60.8161966
},
{
  "type": "node",
  "id": 2923646915,
  "lat": -32.9290040,
  "lon": -60.8162874
},
{
  "type": "node",
  "id": 2923646917,
  "lat": -32.9290517,
  "lon": -60.8161945
},
{
  "type": "node",
  "id": 2923646919,
  "lat": -32.9291551,
  "lon": -60.8162810
},
{
  "type": "node",
  "id": 3043995841,
  "lat": -32.9291637,
  "lon": -60.8161898
},
{
  "type": "node",
  "id": 4044971648,
  "lat": -32.9291659,
  "lon": -60.8162672
},
{
  "type": "node",
  "id": 5557877544,
  "lat": -32.9222843,
  "lon": -60.8029658
},
{
  "type": "node",
  "id": 5557877551,
  "lat": -32.9222858,
  "lon": -60.8029294
},
{
  "type": "node",
  "id": 5557877552,
  "lat": -32.9223546,
  "lon": -60.8029334
},
{
  "type": "node",
  "id": 5557877553,
  "lat": -32.9223515,
  "lon": -60.8030078
},
{
  "type": "node",
  "id": 5557877573,
  "lat": -32.9222827,
  "lon": -60.8030038
},
{
  "type": "node",
  "id": 3493504000,
  "lat": -32.9213125,
  "lon": -60.8128531
},
{
  "type": "node",
  "id": 3493504001,
  "lat": -32.9213311,
  "lon": -60.8127380
},
{
  "type": "node",
  "id": 3493504002,
  "lat": -32.9215799,
  "lon": -60.8129143
},
{
  "type": "node",
  "id": 3493504003,
  "lat": -32.9215984,
  "lon": -60.8127991
},
{
  "type": "node",
  "id": 3730055233,
  "lat": -32.9188931,
  "lon": -60.8125434
},
{
  "type": "node",
  "id": 3730055239,
  "lat": -32.9189564,
  "lon": -60.8125612
},
{
  "type": "node",
  "id": 3730055240,
  "lat": -32.9189619,
  "lon": -60.8125331
},
{
  "type": "node",
  "id": 4417664626,
  "lat": -32.9189080,
  "lon": -60.8125476
},
{
  "type": "node",
  "id": 5517448825,
  "lat": -32.9189591,
  "lon": -60.8125471
},
{
  "type": "node",
  "id": 5581051345,
  "lat": -32.9188986,
  "lon": -60.8125153
},
{
  "type": "node",
  "id": 2456280044,
  "lat": -32.9178854,
  "lon": -60.8074201
},
{
  "type": "node",
  "id": 2470197283,
  "lat": -32.9178610,
  "lon": -60.8074140
},
{
  "type": "node",
  "id": 2470197286,
  "lat": -32.9178416,
  "lon": -60.8073753
},
{
  "type": "node",
  "id": 2566519806,
  "lat": -32.9178522,
  "lon": -60.8073145
},
{
  "type": "node",
  "id": 2566519808,
  "lat": -32.9178520,
  "lon": -60.8073961
},
{
  "type": "node",
  "id": 2566519815,
  "lat": -32.9179018,
  "lon": -60.8073268
},
{
  "type": "node",
  "id": 2592158349,
  "lat": -32.9206813,
  "lon": -60.8098926
},
{
  "type": "node",
  "id": 2592158350,
  "lat": -32.9206993,
  "lon": -60.8097905
},
{
  "type": "node",
  "id": 2592158351,
  "lat": -32.9207065,
  "lon": -60.8097923
},
{
  "type": "node",
  "id": 2592158353,
  "lat": -32.9207925,
  "lon": -60.8099204
},
{
  "type": "node",
  "id": 3493408909,
  "lat": -32.9207482,
  "lon": -60.8098303
},
{
  "type": "node",
  "id": 3493408911,
  "lat": -32.9207918,
  "lon": -60.8098595
},
{
  "type": "node",
  "id": 3493408912,
  "lat": -32.9207948,
  "lon": -60.8098420
},
{
  "type": "node",
  "id": 3493408914,
  "lat": -32.9208028,
  "lon": -60.8098622
},
{
  "type": "node",
  "id": 8948797604,
  "lat": -32.9207529,
  "lon": -60.8098033
},
{
  "type": "node",
  "id": 2597598958,
  "lat": -32.9131749,
  "lon": -60.8129287
},
{
  "type": "node",
  "id": 2597598960,
  "lat": -32.9132177,
  "lon": -60.8129071
},
{
  "type": "node",
  "id": 2922520764,
  "lat": -32.9131659,
  "lon": -60.8129801
},
{
  "type": "node",
  "id": 3468000177,
  "lat": -32.9131843,
  "lon": -60.8129847
},
{
  "type": "node",
  "id": 3468000178,
  "lat": -32.9131866,
  "lon": -60.8129711
},
{
  "type": "node",
  "id": 3468000179,
  "lat": -32.9131991,
  "lon": -60.8129742
},
{
  "type": "node",
  "id": 3468000182,
  "lat": -32.9132240,
  "lon": -60.8129565
},
{
  "type": "node",
  "id": 3468000184,
  "lat": -32.9132725,
  "lon": -60.8129686
},
{
  "type": "node",
  "id": 3468000185,
  "lat": -32.9132805,
  "lon": -60.8129227
},
{
  "type": "node",
  "id": 4423077819,
  "lat": -32.9122618,
  "lon": -60.8120933
},
{
  "type": "node",
  "id": 4423077820,
  "lat": -32.9122665,
  "lon": -60.8120666
},
{
  "type": "node",
  "id": 4423077821,
  "lat": -32.9122688,
  "lon": -60.8120533
},
{
  "type": "node",
  "id": 4423077823,
  "lat": -32.9122779,
  "lon": -60.8120972
},
{
  "type": "node",
  "id": 4423077826,
  "lat": -32.9122849,
  "lon": -60.8120573
},
{
  "type": "node",
  "id": 2980160999,
  "lat": -32.9148814,
  "lon": -60.7955299
},
{
  "type": "node",
  "id": 2980161000,
  "lat": -32.9149001,
  "lon": -60.7954422
},
{
  "type": "node",
  "id": 2980161005,
  "lat": -32.9149836,
  "lon": -60.7955610
},
{
  "type": "node",
  "id": 2980161006,
  "lat": -32.9150024,
  "lon": -60.7954733
},
{
  "type": "node",
  "id": 5278701395,
  "lat": -32.9276061,
  "lon": -60.7881036
},
{
  "type": "node",
  "id": 5278701399,
  "lat": -32.9276813,
  "lon": -60.7880885
},
{
  "type": "node",
  "id": 5278701400,
  "lat": -32.9276058,
  "lon": -60.7880903
},
{
  "type": "node",
  "id": 5278701401,
  "lat": -32.9276817,
  "lon": -60.7881152
},
{
  "type": "node",
  "id": 5278701402,
  "lat": -32.9276063,
  "lon": -60.7881170
},
{
  "type": "node",
  "id": 2973638843,
  "lat": -32.9087443,
  "lon": -60.8128631
},
{
  "type": "node",
  "id": 2973638844,
  "lat": -32.9087471,
  "lon": -60.8130128
},
{
  "type": "node",
  "id": 2973638845,
  "lat": -32.9088161,
  "lon": -60.8128612
},
{
  "type": "node",
  "id": 2973638846,
  "lat": -32.9088189,
  "lon": -60.8130108
},
{
  "type": "node",
  "id": 8377009115,
  "lat": -32.8305174,
  "lon": -60.7122629
},
{
  "type": "node",
  "id": 8377009116,
  "lat": -32.8305278,
  "lon": -60.7122059
},
{
  "type": "node",
  "id": 8377012017,
  "lat": -32.8304863,
  "lon": -60.7121705
},
{
  "type": "node",
  "id": 8377012018,
  "lat": -32.8303867,
  "lon": -60.7122044
},
{
  "type": "node",
  "id": 8377012019,
  "lat": -32.8303931,
  "lon": -60.7123600
},
{
  "type": "node",
  "id": 8377012020,
  "lat": -32.8304372,
  "lon": -60.7123523
},
{
  "type": "node",
  "id": 8377012021,
  "lat": -32.8304501,
  "lon": -60.7122675
},
{
  "type": "node",
  "id": 4645734656,
  "lat": -34.5613360,
  "lon": -58.7340985
},
{
  "type": "node",
  "id": 4645734657,
  "lat": -34.5614456,
  "lon": -58.7339309
},
{
  "type": "node",
  "id": 4645734658,
  "lat": -34.5613973,
  "lon": -58.7338843
},
{
  "type": "node",
  "id": 4645734659,
  "lat": -34.5612877,
  "lon": -58.7340519
},
{
  "type": "node",
  "id": 4657137603,
  "lat": -34.9892331,
  "lon": -58.3824348
},
{
  "type": "node",
  "id": 4657137604,
  "lat": -34.9892826,
  "lon": -58.3825187
},
{
  "type": "node",
  "id": 4657137605,
  "lat": -34.9892337,
  "lon": -58.3825616
},
{
  "type": "node",
  "id": 4657137606,
  "lat": -34.9891842,
  "lon": -58.3824777
},
{
  "type": "node",
  "id": 4668942367,
  "lat": -34.9814202,
  "lon": -58.3741600
},
{
  "type": "node",
  "id": 4668942368,
  "lat": -34.9813836,
  "lon": -58.3740875
},
{
  "type": "node",
  "id": 4668989806,
  "lat": -34.9814666,
  "lon": -58.3740764
},
{
  "type": "node",
  "id": 4668989807,
  "lat": -34.9815390,
  "lon": -58.3742105
},
{
  "type": "node",
  "id": 4668989808,
  "lat": -34.9814768,
  "lon": -58.3742579
},
{
  "type": "node",
  "id": 4661334225,
  "lat": -34.9170509,
  "lon": -58.3850327
},
{
  "type": "node",
  "id": 4661334226,
  "lat": -34.9171367,
  "lon": -58.3849670
},
{
  "type": "node",
  "id": 4661334227,
  "lat": -34.9172100,
  "lon": -58.3851094
},
{
  "type": "node",
  "id": 4661334228,
  "lat": -34.9171710,
  "lon": -58.3851394
},
{
  "type": "node",
  "id": 4661334229,
  "lat": -34.9171455,
  "lon": -58.3850899
},
{
  "type": "node",
  "id": 4661334230,
  "lat": -34.9170988,
  "lon": -58.3851257
},
{
  "type": "node",
  "id": 4659904870,
  "lat": -34.8586733,
  "lon": -58.3868491
},
{
  "type": "node",
  "id": 4659904871,
  "lat": -34.8587489,
  "lon": -58.3868439
},
{
  "type": "node",
  "id": 4659904872,
  "lat": -34.8587436,
  "lon": -58.3867149
},
{
  "type": "node",
  "id": 4659904873,
  "lat": -34.8586684,
  "lon": -58.3867194
},
{
  "type": "node",
  "id": 4627181724,
  "lat": -34.6288095,
  "lon": -58.7092221
},
{
  "type": "node",
  "id": 4627181725,
  "lat": -34.6288317,
  "lon": -58.7092305
},
{
  "type": "node",
  "id": 4627181726,
  "lat": -34.6290474,
  "lon": -58.7089786
},
{
  "type": "node",
  "id": 4627181727,
  "lat": -34.6289458,
  "lon": -58.7088502
},
{
  "type": "node",
  "id": 4627181728,
  "lat": -34.6287995,
  "lon": -58.7088561
},
{
  "type": "node",
  "id": 4709327977,
  "lat": -34.6696274,
  "lon": -58.5725841
},
{
  "type": "node",
  "id": 4709327978,
  "lat": -34.6695847,
  "lon": -58.5726430
},
{
  "type": "node",
  "id": 4709327979,
  "lat": -34.6696613,
  "lon": -58.5727251
},
{
  "type": "node",
  "id": 4709327980,
  "lat": -34.6697040,
  "lon": -58.5726662
},
{
  "type": "node",
  "id": 4684317809,
  "lat": -34.6703667,
  "lon": -58.5319521
},
{
  "type": "node",
  "id": 4684317810,
  "lat": -34.6702316,
  "lon": -58.5317758
},
{
  "type": "node",
  "id": 4684317811,
  "lat": -34.6701799,
  "lon": -58.5318344
},
{
  "type": "node",
  "id": 4684317812,
  "lat": -34.6703150,
  "lon": -58.5320107
},
{
  "type": "node",
  "id": 6007283654,
  "lat": -34.6359285,
  "lon": -58.5622739
},
{
  "type": "node",
  "id": 6007283655,
  "lat": -34.6360101,
  "lon": -58.5622362
},
{
  "type": "node",
  "id": 6007283656,
  "lat": -34.6358549,
  "lon": -58.5617405
},
{
  "type": "node",
  "id": 6007283657,
  "lat": -34.6357012,
  "lon": -58.5618127
},
{
  "type": "node",
  "id": 6007283658,
  "lat": -34.6358702,
  "lon": -58.5620876
},
{
  "type": "node",
  "id": 6007283659,
  "lat": -34.6357990,
  "lon": -58.5621192
},
{
  "type": "node",
  "id": 5270776583,
  "lat": -34.6849896,
  "lon": -58.4232943
},
{
  "type": "node",
  "id": 5270776582,
  "lat": -34.6848806,
  "lon": -58.4233697
},
{
  "type": "node",
  "id": 5270776584,
  "lat": -34.6849035,
  "lon": -58.4231102
},
{
  "type": "node",
  "id": 5270776585,
  "lat": -34.6847945,
  "lon": -58.4231856
},
{
  "type": "node",
  "id": 5268512609,
  "lat": -34.6893425,
  "lon": -58.4103145
},
{
  "type": "node",
  "id": 5268512610,
  "lat": -34.6893739,
  "lon": -58.4102667
},
{
  "type": "node",
  "id": 5268512611,
  "lat": -34.6892832,
  "lon": -58.4101788
},
{
  "type": "node",
  "id": 5268512612,
  "lat": -34.6892518,
  "lon": -58.4102266
},
{
  "type": "node",
  "id": 4700029956,
  "lat": -34.6143651,
  "lon": -58.4374697
},
{
  "type": "node",
  "id": 4700029957,
  "lat": -34.6143804,
  "lon": -58.4376404
},
{
  "type": "node",
  "id": 4700029960,
  "lat": -34.6144500,
  "lon": -58.4376303
},
{
  "type": "node",
  "id": 4700029961,
  "lat": -34.6144738,
  "lon": -58.4375761
},
{
  "type": "node",
  "id": 4700029962,
  "lat": -34.6144277,
  "lon": -58.4374485
},
{
  "type": "node",
  "id": 4635355905,
  "lat": -34.5468545,
  "lon": -58.7053134
},
{
  "type": "node",
  "id": 4635355907,
  "lat": -34.5469505,
  "lon": -58.7051740
},
{
  "type": "node",
  "id": 4635355908,
  "lat": -34.5467880,
  "lon": -58.7052459
},
{
  "type": "node",
  "id": 4635355909,
  "lat": -34.5468963,
  "lon": -58.7050887
},
{
  "type": "node",
  "id": 4635355910,
  "lat": -34.5469378,
  "lon": -58.7051309
},
{
  "type": "node",
  "id": 4633000706,
  "lat": -34.5618579,
  "lon": -58.6616391
},
{
  "type": "node",
  "id": 4633000707,
  "lat": -34.5619282,
  "lon": -58.6615483
},
{
  "type": "node",
  "id": 4633000708,
  "lat": -34.5620635,
  "lon": -58.6617028
},
{
  "type": "node",
  "id": 4633000709,
  "lat": -34.5619931,
  "lon": -58.6617936
},
{
  "type": "node",
  "id": 4604886310,
  "lat": -34.5697615,
  "lon": -58.5735439
},
{
  "type": "node",
  "id": 4604886311,
  "lat": -34.5698136,
  "lon": -58.5734786
},
{
  "type": "node",
  "id": 4604886312,
  "lat": -34.5699387,
  "lon": -58.5736258
},
{
  "type": "node",
  "id": 4604886313,
  "lat": -34.5698866,
  "lon": -58.5736911
},
{
  "type": "node",
  "id": 4606830724,
  "lat": -34.5649837,
  "lon": -58.5701197
},
{
  "type": "node",
  "id": 4606830725,
  "lat": -34.5650905,
  "lon": -58.5701501
},
{
  "type": "node",
  "id": 4606830726,
  "lat": -34.5650587,
  "lon": -58.5703147
},
{
  "type": "node",
  "id": 4606830727,
  "lat": -34.5649519,
  "lon": -58.5702843
},
{
  "type": "node",
  "id": 4606952063,
  "lat": -34.5660644,
  "lon": -58.5649655
},
{
  "type": "node",
  "id": 4606952064,
  "lat": -34.5661565,
  "lon": -58.5649961
},
{
  "type": "node",
  "id": 4606952065,
  "lat": -34.5661766,
  "lon": -58.5649068
},
{
  "type": "node",
  "id": 4606952066,
  "lat": -34.5660845,
  "lon": -58.5648762
},
{
  "type": "node",
  "id": 4612584212,
  "lat": -34.5655086,
  "lon": -58.5655933
},
{
  "type": "node",
  "id": 4612584213,
  "lat": -34.5655701,
  "lon": -58.5656565
},
{
  "type": "node",
  "id": 4612584214,
  "lat": -34.5656098,
  "lon": -58.5656498
},
{
  "type": "node",
  "id": 4612584215,
  "lat": -34.5656319,
  "lon": -58.5655573
},
{
  "type": "node",
  "id": 4612584216,
  "lat": -34.5655747,
  "lon": -58.5654985
},
{
  "type": "node",
  "id": 4612506365,
  "lat": -34.5284185,
  "lon": -58.5172980
},
{
  "type": "node",
  "id": 4612506372,
  "lat": -34.5283521,
  "lon": -58.5173446
},
{
  "type": "node",
  "id": 4612506373,
  "lat": -34.5284866,
  "lon": -58.5176275
},
{
  "type": "node",
  "id": 4612506374,
  "lat": -34.5285531,
  "lon": -58.5175809
},
{
  "type": "node",
  "id": 4612506375,
  "lat": -34.5284846,
  "lon": -58.5174369
},
{
  "type": "node",
  "id": 4675539917,
  "lat": -34.4728566,
  "lon": -58.5147977
},
{
  "type": "node",
  "id": 4675539918,
  "lat": -34.4729038,
  "lon": -58.5147615
},
{
  "type": "node",
  "id": 4675539919,
  "lat": -34.4729702,
  "lon": -58.5147333
},
{
  "type": "node",
  "id": 4675539920,
  "lat": -34.4727610,
  "lon": -58.5143584
},
{
  "type": "node",
  "id": 4675539921,
  "lat": -34.4726883,
  "lon": -58.5144181
},
{
  "type": "node",
  "id": 4675539922,
  "lat": -34.4726801,
  "lon": -58.5144591
},
{
  "type": "node",
  "id": 4646205008,
  "lat": -34.5455992,
  "lon": -58.4713152
},
{
  "type": "node",
  "id": 4646205012,
  "lat": -34.5455265,
  "lon": -58.4713626
},
{
  "type": "node",
  "id": 4646205009,
  "lat": -34.5455063,
  "lon": -58.4711055
},
{
  "type": "node",
  "id": 4646205010,
  "lat": -34.5454634,
  "lon": -58.4711335
},
{
  "type": "node",
  "id": 4646205011,
  "lat": -34.5454468,
  "lon": -58.4711827
},
{
  "type": "node",
  "id": 4669929174,
  "lat": -34.5246943,
  "lon": -58.4854279
},
{
  "type": "node",
  "id": 4669929175,
  "lat": -34.5246218,
  "lon": -58.4854774
},
{
  "type": "node",
  "id": 4669929176,
  "lat": -34.5245851,
  "lon": -58.4853980
},
{
  "type": "node",
  "id": 4669929177,
  "lat": -34.5246287,
  "lon": -58.4853682
},
{
  "type": "node",
  "id": 4669929178,
  "lat": -34.5246694,
  "lon": -58.4853742
},
{
  "type": "node",
  "id": 4658095049,
  "lat": -34.5113220,
  "lon": -58.4909173
},
{
  "type": "node",
  "id": 4658095054,
  "lat": -34.5111730,
  "lon": -58.4910075
},
{
  "type": "node",
  "id": 4658095048,
  "lat": -34.5112181,
  "lon": -58.4906790
},
{
  "type": "node",
  "id": 4658095051,
  "lat": -34.5110675,
  "lon": -58.4907688
},
{
  "type": "node",
  "id": 4670193168,
  "lat": -34.5112647,
  "lon": -58.4907836
},
{
  "type": "node",
  "id": 3188884025,
  "lat": -32.1657824,
  "lon": -58.3996357
},
{
  "type": "node",
  "id": 3188884026,
  "lat": -32.1658373,
  "lon": -58.3995719
},
{
  "type": "node",
  "id": 3188884027,
  "lat": -32.1658630,
  "lon": -58.3997325
},
{
  "type": "node",
  "id": 3188884028,
  "lat": -32.1659179,
  "lon": -58.3996688
},
{
  "type": "node",
  "id": 1295400771,
  "lat": -27.4508178,
  "lon": -58.9845079
},
{
  "type": "node",
  "id": 1295401002,
  "lat": -27.4509208,
  "lon": -58.9848215
},
{
  "type": "node",
  "id": 1295401216,
  "lat": -27.4507735,
  "lon": -58.9846558
},
{
  "type": "node",
  "id": 1589623259,
  "lat": -27.4509822,
  "lon": -58.9847449
},
{
  "type": "node",
  "id": 1589623261,
  "lat": -27.4509810,
  "lon": -58.9846942
},
{
  "type": "node",
  "id": 5337560213,
  "lat": -27.4507256,
  "lon": -58.9846080
},
{
  "type": "node",
  "id": 5498760249,
  "lat": -27.4507414,
  "lon": -58.9846265
}

  ]
}
