{
"type": "FeatureCollection",
"name": "001-escobar",
"features": [
{ "type": "Feature", "properties": { "amenity": "clinic", "healthcare": "clinic", "operator": "Municipal", "operator_type": "public", "name": "Centro Atencion Primaria Catalina De Lalli", "addr_full": "Frutos Gonzalez 990 Y San Luis", "addr_postcode": "1625", "phone": "03488-15542096\/ 03488-434285", "ref_sisa_codigo": 50062522106693, "ref_sisa_tipologia": "ESSIDT", "wikidata": "", "wikipedia": "" }, "geometry": { "type": "Point", "coordinates": [ -58.7785721, -34.3312725 ] } },
{ "type": "Feature", "properties": { "amenity": "clinic", "healthcare": "clinic", "operator": "Municipal", "operator_type": "public", "name": "Centro De Salud Alfredo Villar", "addr_full": "Formosa Y Corrientes S\/N Bo. Ovejero Urquiza - Maquinista F. Savio", "addr_postcode": "1619", "phone": "03488-481136", "ref_sisa_codigo": 50062522201189, "ref_sisa_tipologia": "ESSIDT", "wikidata": "", "wikipedia": "" }, "geometry": { "type": "Point", "coordinates": [ -58.7671137, -34.4145926 ] } },
{ "type": "Feature", "properties": { "amenity": "clinic", "healthcare": "clinic", "operator": "Municipal", "operator_type": "public", "name": "Centro De Salud Aurora Peñalba", "addr_full": "Rio Turbio 35 - Barrio Stone", "addr_postcode": "1625", "phone": "", "ref_sisa_codigo": 50062522106692, "ref_sisa_tipologia": "ESSIDT", "wikidata": "", "wikipedia": "" }, "geometry": { "type": "Point", "coordinates": [ -58.776863, -34.360301 ] } },
{ "type": "Feature", "properties": { "amenity": "clinic", "healthcare": "clinic", "operator": "Municipal", "operator_type": "public", "name": "Centro De Salud Coronel Dorrego", "addr_full": "Las Retamas 888 - Bo. Lambaré", "addr_postcode": "1623", "phone": "03488-446198", "ref_sisa_codigo": 50062522201215, "ref_sisa_tipologia": "ESSIDT", "wikidata": "", "wikipedia": "" }, "geometry": { "type": "Point", "coordinates": [ -58.7548592, -34.3942498 ] } },
{ "type": "Feature", "properties": { "amenity": "clinic", "healthcare": "clinic", "operator": "Municipal", "operator_type": "public", "name": "Centro De Salud Doctor Luis Resio", "addr_full": "Horacio Dupuy Y Churich S\/N - Garin", "addr_postcode": "1619", "phone": "03488-477862", "ref_sisa_codigo": 50062522201232, "ref_sisa_tipologia": "ESSIDT", "wikidata": "", "wikipedia": "" }, "geometry": { "type": "Point", "coordinates": [ -58.7336376, -34.4210616 ] } },
{ "type": "Feature", "properties": { "amenity": "clinic", "healthcare": "clinic", "operator": "Municipal", "operator_type": "public", "name": "Centro De Salud Juan Carlos Selles", "addr_full": "Pablo Marín Entre Islas Malvinas Y Scalabrini Ortíz S\/N - Barrio 24 De Febrero", "addr_postcode": "1619", "phone": "(02320) 49-3444", "ref_sisa_codigo": 50062522201251, "ref_sisa_tipologia": "ESSIDT", "wikidata": "", "wikipedia": "" }, "geometry": { "type": "Point", "coordinates": [ -58.73695, -34.45394 ] } },
{ "type": "Feature", "properties": { "amenity": "clinic", "healthcare": "clinic", "operator": "Municipal", "operator_type": "public", "name": "Centro De Salud Periferico Carlos Menem Hijo", "addr_full": "Las Orquídeas Y Junquillo", "addr_postcode": "1625", "phone": "(03488) 43-0599", "ref_sisa_codigo": 50062522201339, "ref_sisa_tipologia": "ESSIDT", "wikidata": "", "wikipedia": "" }, "geometry": { "type": "Point", "coordinates": [ -58.8177302, -34.3510531 ] } },
{ "type": "Feature", "properties": { "amenity": "clinic", "healthcare": "clinic", "operator": "Municipal", "operator_type": "public", "name": "Centro Materno Infantil Audelina Zambrano", "addr_full": "Corrientes 512", "addr_postcode": "1625", "phone": "03488-430530", "ref_sisa_codigo": 50062522201266, "ref_sisa_tipologia": "ESSIDT", "wikidata": "", "wikipedia": "" }, "geometry": { "type": "Point", "coordinates": [ -58.8000625, -34.3412845 ] } },
{ "type": "Feature", "properties": { "amenity": "clinic", "healthcare": "clinic", "operator": "Municipal", "operator_type": "public", "name": "Centro Odontologico Municipal Doctor Nicolas V. Goñi", "addr_full": "Travi 1215", "addr_postcode": "1625", "phone": "", "ref_sisa_codigo": 50062522206871, "ref_sisa_tipologia": "ESSIDT", "wikidata": "", "wikipedia": "" }, "geometry": { "type": "Point", "coordinates": [ -58.796876, -34.353282 ] } },
{ "type": "Feature", "properties": { "amenity": "clinic", "healthcare": "clinic", "operator": "Municipal", "operator_type": "public", "name": "Hogar Todos Juntos", "addr_full": "Islas Malvinas 3045 E\/ La Paz Y Juan Xxiii - Garin", "addr_postcode": "1619", "phone": "03488-8473789", "ref_sisa_codigo": 50062522201630, "ref_sisa_tipologia": "ESSIDT", "wikidata": "", "wikipedia": "" }, "geometry": { "type": "Point", "coordinates": [ -58.7389376, -34.4034565 ] } },
{ "type": "Feature", "properties": { "amenity": "hospital", "healthcare": "hospital", "operator": "Municipal", "operator_type": "public", "name": "Hospital Municipal Oftalmologico Doctor Horacio Lopez", "addr_full": "Boulevard Presidente Peron 240", "addr_postcode": "1619", "phone": "", "ref_sisa_codigo": 10062522215001, "ref_sisa_tipologia": "ESCIG", "wikidata": "", "wikipedia": "" }, "geometry": { "type": "Point", "coordinates": [ -58.7360913, -34.4208965 ] } },
{ "type": "Feature", "properties": { "amenity": "hospital", "healthcare": "hospital", "operator": "Provincial", "operator_type": "public", "name": "Hospital Zonal General Agudos Doctor Erill", "addr_full": "Eugenia Tapia De Cruz", "addr_postcode": "1625", "phone": "03321-423994", "ref_sisa_codigo": 10062522100384, "ref_sisa_tipologia": "ESCIG", "wikidata": "", "wikipedia": "" }, "geometry": { "type": "Point", "coordinates": [ -58.8069701, -34.3578665 ] } },
{ "type": "Feature", "properties": { "amenity": "clinic", "healthcare": "clinic", "operator": "Municipal", "operator_type": "public", "name": "Sala Argentino Torres", "addr_full": "La Plata 1191", "addr_postcode": "1623", "phone": "03488-446197", "ref_sisa_codigo": 50062522201775, "ref_sisa_tipologia": "ESSIDT", "wikidata": "", "wikipedia": "" }, "geometry": { "type": "Point", "coordinates": [ -58.7376309, -34.3884648 ] } },
{ "type": "Feature", "properties": { "amenity": "clinic", "healthcare": "clinic", "operator": "Municipal", "operator_type": "public", "name": "Sala De Primeros Auxilios Horacio Canesi", "addr_full": "Sarmiento 41- Matheu", "addr_postcode": "1627", "phone": "(03488) 462759", "ref_sisa_codigo": 50062522201837, "ref_sisa_tipologia": "ESSIDT", "wikidata": "", "wikipedia": "" }, "geometry": { "type": "Point", "coordinates": [ -58.7918821, -34.3541975 ] } },
{ "type": "Feature", "properties": { "amenity": "clinic", "healthcare": "clinic", "operator": "Municipal", "operator_type": "public", "name": "Sala De Primeros Auxilios Loma Verde", "addr_full": "Calle 119 Y Ruta 9 Km 55.500", "addr_postcode": "1625", "phone": "(03488) 49-4563", "ref_sisa_codigo": 50062522201851, "ref_sisa_tipologia": "ESSIDT", "wikidata": "", "wikipedia": "" }, "geometry": { "type": "Point", "coordinates": [ -58.849819, -34.323686 ] } },
{ "type": "Feature", "properties": { "amenity": "hospital", "healthcare": "hospital", "operator": "Privado", "operator_type": "private", "name": "Sanatorio Clinica Privada Fatima", "addr_full": "Spadaccini 1084", "addr_postcode": "1625", "phone": "(03488) 421000", "ref_sisa_codigo": 10062522300112, "ref_sisa_tipologia": "ESCIG", "wikidata": "", "wikipedia": "" }, "geometry": { "type": "Point", "coordinates": [ -58.7971065, -34.3514875 ] } },
{ "type": "Feature", "properties": { "amenity": "hospital", "healthcare": "hospital", "operator": "Privado", "operator_type": "private", "name": "Sanatorio Plaza", "addr_full": "Florentino Ameghino 650", "addr_postcode": "1625", "phone": "(03488) 420761", "ref_sisa_codigo": 10062522300110, "ref_sisa_tipologia": "ESCIG", "wikidata": "", "wikipedia": "" }, "geometry": { "type": "Point", "coordinates": [ -58.7834431, -34.3554807 ] } },
{ "type": "Feature", "properties": { "amenity": "hospital", "healthcare": "hospital", "operator": "Privado", "operator_type": "private", "name": "Sanatorio San Carlos", "addr_full": "Ruta Provincial 26 318", "addr_postcode": "1619", "phone": "", "ref_sisa_codigo": 10062522300150, "ref_sisa_tipologia": "ESCIG", "wikidata": "", "wikipedia": "" }, "geometry": { "type": "Point", "coordinates": [ -58.772208, -34.410476 ] } },
{ "type": "Feature", "properties": { "amenity": "clinic", "healthcare": "clinic", "operator": "Municipal", "operator_type": "public", "name": "Unidad De Diagnostico Precoz Pediatrica (Dra. Susana Lara)", "addr_full": "Independencia 140", "addr_postcode": "1619", "phone": "", "ref_sisa_codigo": 50062522217906, "ref_sisa_tipologia": "ESSIDT", "wikidata": "", "wikipedia": "" }, "geometry": { "type": "Point", "coordinates": [ -58.7955488, -34.3564909 ] } },
{ "type": "Feature", "properties": { "amenity": "clinic", "healthcare": "clinic", "operator": "Municipal", "operator_type": "public", "name": "Unidad Sanitaria Eva Peron De Escobar", "addr_full": "Jilgueros Y Los Gladiolos S\/N Barrio Amancay Maquinista F. Savio", "addr_postcode": "1619", "phone": "03488-481137", "ref_sisa_codigo": 50062522202283, "ref_sisa_tipologia": "ESSIDT", "wikidata": "", "wikipedia": "" }, "geometry": { "type": "Point", "coordinates": [ -58.7753878, -34.3174802 ] } },
{ "type": "Feature", "properties": { "amenity": "clinic", "healthcare": "clinic", "operator": "Municipal", "operator_type": "public", "name": "Unidad Sanitaria Periferica Ramon Carillo De Garin", "addr_full": "Misiones Salesianas Y Piedrabuena Bo. San Javier - Garin", "addr_postcode": "1619", "phone": "03327-415050", "ref_sisa_codigo": 50062522202722, "ref_sisa_tipologia": "ESSIDT", "wikidata": "", "wikipedia": "" }, "geometry": { "type": "Point", "coordinates": [ -58.7240031, -34.4361499 ] } }
]
}
