{
"type": "FeatureCollection",
"name": "002-lomas_de_zamora",
"features": [
{ "type": "Feature", "properties": { "amenity": "clinic", "healthcare": "clinic", "operator": "Municipal", "operator_type": "public", "name": "ACCIP", "addr_full": "J.J.Valle ( Rivera Sur) 2900 Y Virgilio", "addr_postcode": "6073", "phone": "", "ref_sisa_codigo": 50064902201057, "ref_sisa_tipologia": "ESSIDT", "wikidata": "", "wikipedia": "" }, "geometry": { "type": "Point", "coordinates": [ -58.4382963, -34.7636853 ] } },
{ "type": "Feature", "properties": { "amenity": "hospital", "healthcare": "hospital", "operator": "Privado", "operator_type": "private", "name": "Asociacion Medica De Lomas De Zamora S.a Policlinico Lomas", "addr_full": "Avenida Hipólito Yrigoyen 8439", "addr_postcode": "1832", "phone": "011-42393300", "ref_sisa_codigo": 10064902316021, "ref_sisa_tipologia": "ESCIG", "wikidata": "", "wikipedia": "" }, "geometry": { "type": "Point", "coordinates": [ -58.4012048, -34.7537204 ] } },
{ "type": "Feature", "properties": { "amenity": "clinic", "healthcare": "clinic", "operator": "Municipal", "operator_type": "public", "name": "Centro Asistencial Nazaret", "addr_full": "Pueyrredón 1571", "addr_postcode": "1828", "phone": "(011) 42420381\/8322\/7481", "ref_sisa_codigo": 50064902201096, "ref_sisa_tipologia": "ESSIDT", "wikidata": "", "wikipedia": "" }, "geometry": { "type": "Point", "coordinates": [ -58.389956, -34.7428559 ] } },
{ "type": "Feature", "properties": { "amenity": "clinic", "healthcare": "clinic", "operator": "Provincial", "operator_type": "public", "name": "Centro De Recepcion Lomas De Zamora", "addr_full": "Larroque Y 12 De Octubre", "addr_postcode": "1828", "phone": "", "ref_sisa_codigo": 50064902106686, "ref_sisa_tipologia": "ESSIDT", "wikidata": "", "wikipedia": "" }, "geometry": { "type": "Point", "coordinates": [ -58.426009, -34.741853 ] } },
{ "type": "Feature", "properties": { "amenity": "clinic", "healthcare": "clinic", "operator": "Municipal", "operator_type": "public", "name": "Centro De Salud 25 De Mayo De Lomas De Zamora", "addr_full": "Germán Kurth E\/ Wilde Y Padre Javier", "addr_postcode": "1836", "phone": "011-42987917", "ref_sisa_codigo": 50064902201391, "ref_sisa_tipologia": "ESSIDT", "wikidata": "", "wikipedia": "" }, "geometry": { "type": "Point", "coordinates": [ -58.4335949, -34.8078036 ] } },
{ "type": "Feature", "properties": { "amenity": "clinic", "healthcare": "clinic", "operator": "Municipal", "operator_type": "public", "name": "Centro De Salud Doctor E. Finochietto", "addr_full": "Campoamor Esquina Ginebra S\/N", "addr_postcode": "1828", "phone": "011-42857016", "ref_sisa_codigo": 50064902201225, "ref_sisa_tipologia": "ESSIDT", "wikidata": "", "wikipedia": "" }, "geometry": { "type": "Point", "coordinates": [ -58.4469309, -34.7252207 ] } },
{ "type": "Feature", "properties": { "amenity": "clinic", "healthcare": "clinic", "operator": "Municipal", "operator_type": "public", "name": "Centro Odontologico Infantil", "addr_full": "Av. Hipolito Yrigoyen 10043", "addr_postcode": "1834", "phone": "(011) 4239-9688", "ref_sisa_codigo": 50064902207476, "ref_sisa_tipologia": "ESSIDT", "wikidata": "", "wikipedia": "" }, "geometry": { "type": "Point", "coordinates": [ -58.405214, -34.7727246 ] } },
{ "type": "Feature", "properties": { "amenity": "hospital", "healthcare": "hospital", "operator": "Privado", "operator_type": "private", "name": "Clinica Comahue", "addr_full": "Avenida Eva Perón 4798", "addr_postcode": "1834", "phone": "(011) 4243-9232", "ref_sisa_codigo": 10064902300028, "ref_sisa_tipologia": "ESCIG", "wikidata": "", "wikipedia": "" }, "geometry": { "type": "Point", "coordinates": [ -58.3432293, -34.7525131 ] } },
{ "type": "Feature", "properties": { "amenity": "hospital", "healthcare": "hospital", "operator": "Privado", "operator_type": "private", "name": "Clinica Estrada", "addr_full": "Flores De Estrada 5248", "addr_postcode": "1826", "phone": "(011) 4202-9070", "ref_sisa_codigo": 10064342300039, "ref_sisa_tipologia": "ESCIG", "wikidata": "", "wikipedia": "" }, "geometry": { "type": "Point", "coordinates": [ -58.3960818, -34.7355515 ] } },
{ "type": "Feature", "properties": { "amenity": "hospital", "healthcare": "hospital", "operator": "Privado", "operator_type": "private", "name": "Clinica Privada 2 De Abril", "addr_full": "Av. Molina Arrotea 2499", "addr_postcode": "1832", "phone": "(011) 4282-1406", "ref_sisa_codigo": 10064902300036, "ref_sisa_tipologia": "ESCIG", "wikidata": "", "wikipedia": "" }, "geometry": { "type": "Point", "coordinates": [ -58.4319452, -34.7668626 ] } },
{ "type": "Feature", "properties": { "amenity": "hospital", "healthcare": "hospital", "operator": "Privado", "operator_type": "private", "name": "Clinica Privada Boedo", "addr_full": "Mariano Boedo 535", "addr_postcode": "1832", "phone": "(011) 4292-1114\/1115", "ref_sisa_codigo": 10064902306647, "ref_sisa_tipologia": "ESCIG", "wikidata": "", "wikipedia": "" }, "geometry": { "type": "Point", "coordinates": [ -58.4042713, -34.7589102 ] } },
{ "type": "Feature", "properties": { "amenity": "hospital", "healthcare": "hospital", "operator": "Privado", "operator_type": "private", "name": "Clinica Privada Passo Sa", "addr_full": "Avenida Eva Perón 3097", "addr_postcode": "1834", "phone": "(011) 4264-0056", "ref_sisa_codigo": 10064902300142, "ref_sisa_tipologia": "ESCIG", "wikidata": "", "wikipedia": "" }, "geometry": { "type": "Point", "coordinates": [ -58.360661, -34.760997 ] } },
{ "type": "Feature", "properties": { "amenity": "hospital", "healthcare": "hospital", "operator": "Privado", "operator_type": "private", "name": "Clinica Privada Y Maternidad Casanova", "addr_full": "Quesada 2823", "addr_postcode": "1765", "phone": "", "ref_sisa_codigo": 10064272305601, "ref_sisa_tipologia": "ESCIG", "wikidata": "", "wikipedia": "" }, "geometry": { "type": "Point", "coordinates": [ -58.4643889, -34.7255111 ] } },
{ "type": "Feature", "properties": { "amenity": "hospital", "healthcare": "hospital", "operator": "Provincial", "operator_type": "public", "name": "Hospital Interzonal General Agudos L. C. De Gandulfo", "addr_full": "Balcarce 351", "addr_postcode": "1832", "phone": "(011) 4244-1923", "ref_sisa_codigo": 10064902100232, "ref_sisa_tipologia": "ESCIG", "wikidata": "", "wikipedia": "" }, "geometry": { "type": "Point", "coordinates": [ -58.3928751, -34.7618465 ] } },
{ "type": "Feature", "properties": { "amenity": "clinic", "healthcare": "clinic", "operator": "Provincial", "operator_type": "public", "name": "Hospital Interzonal J. A. Estevez", "addr_full": "Garibaldi 1661", "addr_postcode": "1834", "phone": "(011) 4298-0091", "ref_sisa_codigo": 13064902100616, "ref_sisa_tipologia": "ESCIESM", "wikidata": "", "wikipedia": "" }, "geometry": { "type": "Point", "coordinates": [ -58.418971, -34.7787083 ] } },
{ "type": "Feature", "properties": { "amenity": "hospital", "healthcare": "hospital", "operator": "Privado", "operator_type": "private", "name": "Instituto Medico Sarmiento", "addr_full": "Sarmiento 250", "addr_postcode": "1832", "phone": "", "ref_sisa_codigo": 10064902317030, "ref_sisa_tipologia": "ESCIG", "wikidata": "", "wikipedia": "" }, "geometry": { "type": "Point", "coordinates": [ -58.4225506, -34.7274717 ] } },
{ "type": "Feature", "properties": { "amenity": "hospital", "healthcare": "hospital", "operator": "Privado", "operator_type": "private", "name": "Sanatorio Bernardino Rivadavia", "addr_full": "Avenida Eva Perón 695", "addr_postcode": "1834", "phone": "", "ref_sisa_codigo": 10064902305285, "ref_sisa_tipologia": "ESCIG", "wikidata": "", "wikipedia": "" }, "geometry": { "type": "Point", "coordinates": [ -58.3879439, -34.7752882 ] } },
{ "type": "Feature", "properties": { "amenity": "hospital", "healthcare": "hospital", "operator": "Privado", "operator_type": "private", "name": "Sanatorio Juncal", "addr_full": "Avenida Almirante Brown 2779", "addr_postcode": "1834", "phone": "(011) 4239-8000", "ref_sisa_codigo": 10064902300451, "ref_sisa_tipologia": "ESCIG", "wikidata": "", "wikipedia": "" }, "geometry": { "type": "Point", "coordinates": [ -58.3965118, -34.7699161 ] } },
{ "type": "Feature", "properties": { "amenity": "hospital", "healthcare": "hospital", "operator": "Privado", "operator_type": "private", "name": "Sanatorio Modelo Banfield", "addr_full": "Belgrano 1309", "addr_postcode": "1832", "phone": "", "ref_sisa_codigo": 10064902305160, "ref_sisa_tipologia": "ESCIG", "wikidata": "", "wikipedia": "" }, "geometry": { "type": "Point", "coordinates": [ -58.3921443, -34.7457013 ] } },
{ "type": "Feature", "properties": { "amenity": "hospital", "healthcare": "hospital", "operator": "Privado", "operator_type": "private", "name": "Sanatorio Privado Del Nińo", "addr_full": "Adolfo Alsina 1519", "addr_postcode": "1832", "phone": "(011) 4244-1830", "ref_sisa_codigo": 10064902306619, "ref_sisa_tipologia": "ESCIG", "wikidata": "", "wikipedia": "" }, "geometry": { "type": "Point", "coordinates": [ -58.3953524, -34.7543841 ] } },
{ "type": "Feature", "properties": { "amenity": "hospital", "healthcare": "hospital", "operator": "Privado", "operator_type": "private", "name": "Sanatorio Temperley", "addr_full": "Alzaga 925", "addr_postcode": "1834", "phone": "011-42929951", "ref_sisa_codigo": 10064902300076, "ref_sisa_tipologia": "ESCIG", "wikidata": "", "wikipedia": "" }, "geometry": { "type": "Point", "coordinates": [ -58.3878635, -34.7750843 ] } },
{ "type": "Feature", "properties": { "amenity": "clinic", "healthcare": "clinic", "operator": "Municipal", "operator_type": "public", "name": "Trailer Pediatrico", "addr_full": "Avenida Hipolito Yrigoyen 10047", "addr_postcode": "1832", "phone": "(011) 4239-9650", "ref_sisa_codigo": 50064902201990, "ref_sisa_tipologia": "ESSIDT", "wikidata": "", "wikipedia": "" }, "geometry": { "type": "Point", "coordinates": [ -58.4051183, -34.7726129 ] } },
{ "type": "Feature", "properties": { "amenity": "clinic", "healthcare": "clinic", "operator": "Municipal", "operator_type": "public", "name": "Unidad Sanitaria 19 De Diciembre De Lomas De Zamora", "addr_full": "Bolonia Y Lavarden", "addr_postcode": "1832", "phone": "011-42854607", "ref_sisa_codigo": 50064902202924, "ref_sisa_tipologia": "ESSIDT", "wikidata": "", "wikipedia": "" }, "geometry": { "type": "Point", "coordinates": [ -58.4567156, -34.7351403 ] } },
{ "type": "Feature", "properties": { "amenity": "clinic", "healthcare": "clinic", "operator": "Municipal", "operator_type": "public", "name": "Unidad Sanitaria 2 De Abril De Lomas De Zamora", "addr_full": "Soldado Zelarrayan 1103", "addr_postcode": "1832", "phone": "011-46936172", "ref_sisa_codigo": 50064902202928, "ref_sisa_tipologia": "ESSIDT", "wikidata": "", "wikipedia": "" }, "geometry": { "type": "Point", "coordinates": [ -58.4682473, -34.7435886 ] } },
{ "type": "Feature", "properties": { "amenity": "clinic", "healthcare": "clinic", "operator": "Municipal", "operator_type": "public", "name": "Unidad Sanitaria Alicia Moreau De Justo Villa Benques", "addr_full": "Coronel Lynch Y Nahual Huapi", "addr_postcode": "1828", "phone": "011-42600128", "ref_sisa_codigo": 50064902202050, "ref_sisa_tipologia": "ESSIDT", "wikidata": "", "wikipedia": "" }, "geometry": { "type": "Point", "coordinates": [ -58.3658102, -34.7451292 ] } },
{ "type": "Feature", "properties": { "amenity": "clinic", "healthcare": "clinic", "operator": "Municipal", "operator_type": "public", "name": "Unidad Sanitaria Barrio Obrero", "addr_full": "107 Esquina 4 Manzana 1 Casa 1-2", "addr_postcode": "1832", "phone": "011-1564710699\/15657181258", "ref_sisa_codigo": 50064902202116, "ref_sisa_tipologia": "ESSIDT", "wikidata": "", "wikipedia": "" }, "geometry": { "type": "Point", "coordinates": [ -58.4628654, -34.7486035 ] } },
{ "type": "Feature", "properties": { "amenity": "clinic", "healthcare": "clinic", "operator": "Municipal", "operator_type": "public", "name": "Unidad Sanitaria Barrio San Jose De Lomas De Zamora", "addr_full": "De Los Eucaliptos 47 Barrio San Jose", "addr_postcode": "1834", "phone": "011-42642100", "ref_sisa_codigo": 50064902202129, "ref_sisa_tipologia": "ESSIDT", "wikidata": "", "wikipedia": "" }, "geometry": { "type": "Point", "coordinates": [ -58.3621135, -34.7624745 ] } },
{ "type": "Feature", "properties": { "amenity": "clinic", "healthcare": "clinic", "operator": "Municipal", "operator_type": "public", "name": "Unidad Sanitaria Bartolome Mitre De Lomas De Zamora", "addr_full": "Lautaro 815", "addr_postcode": "1834", "phone": "011-42447664", "ref_sisa_codigo": 50064902202147, "ref_sisa_tipologia": "ESSIDT", "wikidata": "", "wikipedia": "" }, "geometry": { "type": "Point", "coordinates": [ -58.3717722, -34.7770824 ] } },
{ "type": "Feature", "properties": { "amenity": "clinic", "healthcare": "clinic", "operator": "Municipal", "operator_type": "public", "name": "Unidad Sanitaria Doctor Angel A. Tullio", "addr_full": "Dr. Indalecio Gomez 702", "addr_postcode": "1834", "phone": "011-42399663", "ref_sisa_codigo": 50064902202214, "ref_sisa_tipologia": "ESSIDT", "wikidata": "", "wikipedia": "" }, "geometry": { "type": "Point", "coordinates": [ -58.3789873, -34.7785155 ] } },
{ "type": "Feature", "properties": { "amenity": "clinic", "healthcare": "clinic", "operator": "Municipal", "operator_type": "public", "name": "Unidad Sanitaria Doctor Federico Payas", "addr_full": "Doyhenard 1240", "addr_postcode": "1836", "phone": "(011) 4214-2348", "ref_sisa_codigo": 50064902202227, "ref_sisa_tipologia": "ESSIDT", "wikidata": "", "wikipedia": "" }, "geometry": { "type": "Point", "coordinates": [ -58.4195561, -34.8086552 ] } },
{ "type": "Feature", "properties": { "amenity": "clinic", "healthcare": "clinic", "operator": "Municipal", "operator_type": "public", "name": "Unidad Sanitaria Doctor Gregorio A. Alfaro", "addr_full": "Avenida Hipolito Yrigoyen 10067", "addr_postcode": "1834", "phone": "(011) 4239-9689", "ref_sisa_codigo": 50064902202232, "ref_sisa_tipologia": "ESSIDT", "wikidata": "", "wikipedia": "" }, "geometry": { "type": "Point", "coordinates": [ -58.4052689, -34.77319 ] } },
{ "type": "Feature", "properties": { "amenity": "clinic", "healthcare": "clinic", "operator": "Municipal", "operator_type": "public", "name": "Unidad Sanitaria Doctor M. J. Oliveras", "addr_full": "Carhue 850", "addr_postcode": "1834", "phone": "(011) 4264-8377", "ref_sisa_codigo": 50064902202238, "ref_sisa_tipologia": "ESSIDT", "wikidata": "", "wikipedia": "" }, "geometry": { "type": "Point", "coordinates": [ -58.3678426, -34.7607532 ] } },
{ "type": "Feature", "properties": { "amenity": "clinic", "healthcare": "clinic", "operator": "Municipal", "operator_type": "public", "name": "Unidad Sanitaria Doctor Ramon Carrillo De Avellaneda", "addr_full": "Morse Y Genova", "addr_postcode": "1870", "phone": "011-42053380", "ref_sisa_codigo": 50060352202244, "ref_sisa_tipologia": "ESSIDT", "wikidata": "", "wikipedia": "" }, "geometry": { "type": "Point", "coordinates": [ -58.3867035, -34.7782234 ] } },
{ "type": "Feature", "properties": { "amenity": "clinic", "healthcare": "clinic", "operator": "Municipal", "operator_type": "public", "name": "Unidad Sanitaria Doctor Ramon Carrillo De Lomas De Zamora", "addr_full": "Darwin 1835", "addr_postcode": "6030", "phone": "011-42866629", "ref_sisa_codigo": 50064902202246, "ref_sisa_tipologia": "ESSIDT", "wikidata": "", "wikipedia": "" }, "geometry": { "type": "Point", "coordinates": [ -58.4439533, -34.6960016 ] } },
{ "type": "Feature", "properties": { "amenity": "clinic", "healthcare": "clinic", "operator": "Municipal", "operator_type": "public", "name": "Unidad Sanitaria Eva Peron De Lomas De Zamora", "addr_full": "Gaspar Nuñez De Arce 553", "addr_postcode": "1828", "phone": "011-42866631", "ref_sisa_codigo": 50064902202285, "ref_sisa_tipologia": "ESSIDT", "wikidata": "", "wikipedia": "" }, "geometry": { "type": "Point", "coordinates": [ -58.4372596, -34.7289178 ] } },
{ "type": "Feature", "properties": { "amenity": "clinic", "healthcare": "clinic", "operator": "Municipal", "operator_type": "public", "name": "Unidad Sanitaria Fonrouge", "addr_full": "Caraza 1848", "addr_postcode": "1828", "phone": "(011) 4242-1615", "ref_sisa_codigo": 50064902202298, "ref_sisa_tipologia": "ESSIDT", "wikidata": "", "wikipedia": "" }, "geometry": { "type": "Point", "coordinates": [ -58.4264731, -34.7331739 ] } },
{ "type": "Feature", "properties": { "amenity": "clinic", "healthcare": "clinic", "operator": "Municipal", "operator_type": "public", "name": "Unidad Sanitaria General Lamadrid", "addr_full": "Metan 510", "addr_postcode": "1832", "phone": "(011) 4285-5337", "ref_sisa_codigo": 50064902202308, "ref_sisa_tipologia": "ESSIDT", "wikidata": "", "wikipedia": "" }, "geometry": { "type": "Point", "coordinates": [ -58.4727924, -34.7269613 ] } },
{ "type": "Feature", "properties": { "amenity": "clinic", "healthcare": "clinic", "operator": "Municipal", "operator_type": "public", "name": "Unidad Sanitaria Juan Manuel De Rosas General Paz De Ingeniero Budge", "addr_full": "General Paz Y Tacuari S\/N  Barrio Juan Manuel De Rosas", "addr_postcode": "6073", "phone": "011-46932087", "ref_sisa_codigo": 50064902202351, "ref_sisa_tipologia": "ESSIDT", "wikidata": "", "wikipedia": "" }, "geometry": { "type": "Point", "coordinates": [ -58.403641, -34.757547 ] } },
{ "type": "Feature", "properties": { "amenity": "clinic", "healthcare": "clinic", "operator": "Municipal", "operator_type": "public", "name": "Unidad Sanitaria La Cortada", "addr_full": "Paris 80", "addr_postcode": "7240", "phone": "(011) 42863941", "ref_sisa_codigo": 50064902202360, "ref_sisa_tipologia": "ESSIDT", "wikidata": "", "wikipedia": "" }, "geometry": { "type": "Point", "coordinates": [ -58.4233031, -34.7212675 ] } },
{ "type": "Feature", "properties": { "amenity": "clinic", "healthcare": "clinic", "operator": "Municipal", "operator_type": "public", "name": "Unidad Sanitaria Las Casuarinas", "addr_full": "Las Casuarinas 347", "addr_postcode": "1834", "phone": "011-42600103", "ref_sisa_codigo": 50064902202394, "ref_sisa_tipologia": "ESSIDT", "wikidata": "", "wikipedia": "" }, "geometry": { "type": "Point", "coordinates": [ -58.3549869, -34.7498927 ] } },
{ "type": "Feature", "properties": { "amenity": "clinic", "healthcare": "clinic", "operator": "Municipal", "operator_type": "public", "name": "Unidad Sanitaria Lavallol", "addr_full": "Gral. Necochea Y Germán Kurth", "addr_postcode": "1836", "phone": "(011) 4231-0955", "ref_sisa_codigo": 50064902202407, "ref_sisa_tipologia": "ESSIDT", "wikidata": "", "wikipedia": "" }, "geometry": { "type": "Point", "coordinates": [ -58.42567, -34.804656 ] } },
{ "type": "Feature", "properties": { "amenity": "clinic", "healthcare": "clinic", "operator": "Municipal", "operator_type": "public", "name": "Unidad Sanitaria Luis Agote De Villa Elvira", "addr_full": "Ginebra 432", "addr_postcode": "6073", "phone": "011-42866633", "ref_sisa_codigo": 50064902202429, "ref_sisa_tipologia": "ESSIDT", "wikidata": "", "wikipedia": "" }, "geometry": { "type": "Point", "coordinates": [ -58.432487, -34.7171909 ] } },
{ "type": "Feature", "properties": { "amenity": "clinic", "healthcare": "clinic", "operator": "Municipal", "operator_type": "public", "name": "Unidad Sanitaria Mariano Moreno", "addr_full": "Timoteo Gordillo 1523", "addr_postcode": "1828", "phone": "(011) 4285-5320", "ref_sisa_codigo": 50064902202442, "ref_sisa_tipologia": "ESSIDT", "wikidata": "", "wikipedia": "" }, "geometry": { "type": "Point", "coordinates": [ -58.432161, -34.740737 ] } },
{ "type": "Feature", "properties": { "amenity": "clinic", "healthcare": "clinic", "operator": "Municipal", "operator_type": "public", "name": "Unidad Sanitaria Nestor Kirchner", "addr_full": "Avenida General Martín Rodríguez 1847", "addr_postcode": "1832", "phone": "", "ref_sisa_codigo": 50064902215000, "ref_sisa_tipologia": "ESSIDT", "wikidata": "", "wikipedia": "" }, "geometry": { "type": "Point", "coordinates": [ -58.439268, -34.738309 ] } },
{ "type": "Feature", "properties": { "amenity": "clinic", "healthcare": "clinic", "operator": "Municipal", "operator_type": "public", "name": "Unidad Sanitaria Nuevo Fiorito", "addr_full": "Larrazabal 2669", "addr_postcode": "1832", "phone": "011-42676307", "ref_sisa_codigo": 50064902202696, "ref_sisa_tipologia": "ESSIDT", "wikidata": "", "wikipedia": "" }, "geometry": { "type": "Point", "coordinates": [ -58.4423372, -34.7003613 ] } },
{ "type": "Feature", "properties": { "amenity": "clinic", "healthcare": "clinic", "operator": "Municipal", "operator_type": "public", "name": "Unidad Sanitaria 17 De Ingeniero Budge", "addr_full": "Quesada Y Campoamor", "addr_postcode": "6073", "phone": "(011) 4285-5316", "ref_sisa_codigo": 50064902202526, "ref_sisa_tipologia": "ESSIDT", "wikidata": "", "wikipedia": "" }, "geometry": { "type": "Point", "coordinates": [ -58.4520829, -34.7187536 ] } },
{ "type": "Feature", "properties": { "amenity": "clinic", "healthcare": "clinic", "operator": "Municipal", "operator_type": "public", "name": "Unidad Sanitaria Prosperidad", "addr_full": "Araguaya 937", "addr_postcode": "1836", "phone": "011-42989011", "ref_sisa_codigo": 50064902202736, "ref_sisa_tipologia": "ESSIDT", "wikidata": "", "wikipedia": "" }, "geometry": { "type": "Point", "coordinates": [ -58.4218519, -34.787012 ] } },
{ "type": "Feature", "properties": { "amenity": "clinic", "healthcare": "clinic", "operator": "Municipal", "operator_type": "public", "name": "Unidad Sanitaria Provincias Unidas", "addr_full": "Paris 1947", "addr_postcode": "1828", "phone": "(011) 4285-5329", "ref_sisa_codigo": 50064902202737, "ref_sisa_tipologia": "ESSIDT", "wikidata": "", "wikipedia": "" }, "geometry": { "type": "Point", "coordinates": [ -58.4443181, -34.731952 ] } },
{ "type": "Feature", "properties": { "amenity": "clinic", "healthcare": "clinic", "operator": "Municipal", "operator_type": "public", "name": "Unidad Sanitaria Salon Usos Multiples Arroyo Del Rey", "addr_full": "Luis Dávila S\/N Entre Bouchard Y Arroyo Del Rey", "addr_postcode": "1836", "phone": "(011) 4293-8257", "ref_sisa_codigo": 50064902202766, "ref_sisa_tipologia": "ESSIDT", "wikidata": "", "wikipedia": "" }, "geometry": { "type": "Point", "coordinates": [ -58.415169, -34.806716 ] } },
{ "type": "Feature", "properties": { "amenity": "clinic", "healthcare": "clinic", "operator": "Municipal", "operator_type": "public", "name": "Unidad Sanitaria Santa Marta", "addr_full": "Voltaire 1650 Barrio Santa Marta", "addr_postcode": "1832", "phone": "011-42856493", "ref_sisa_codigo": 50064902202821, "ref_sisa_tipologia": "ESSIDT", "wikidata": "", "wikipedia": "" }, "geometry": { "type": "Point", "coordinates": [ -58.4500902, -34.7499725 ] } },
{ "type": "Feature", "properties": { "amenity": "clinic", "healthcare": "clinic", "operator": "Municipal", "operator_type": "public", "name": "Unidad Sanitaria Santa Rosa De Lomas De Zamora", "addr_full": "Monteros 37", "addr_postcode": "1834", "phone": "(011) 4270-6895", "ref_sisa_codigo": 50064902202825, "ref_sisa_tipologia": "ESSIDT", "wikidata": "", "wikipedia": "" }, "geometry": { "type": "Point", "coordinates": [ -58.339866, -34.7526245 ] } },
{ "type": "Feature", "properties": { "amenity": "clinic", "healthcare": "clinic", "operator": "Municipal", "operator_type": "public", "name": "Unidad Sanitaria Solidaridad", "addr_full": "Capitán Martel 911 Entre Colón Y Diagonal 59 - Barrio Santa Catalina 3", "addr_postcode": "6073", "phone": "(011) 4693-4400", "ref_sisa_codigo": 50064902202845, "ref_sisa_tipologia": "ESSIDT", "wikidata": "", "wikipedia": "" }, "geometry": { "type": "Point", "coordinates": [ -58.477696, -34.752033 ] } },
{ "type": "Feature", "properties": { "amenity": "clinic", "healthcare": "clinic", "operator": "Municipal", "operator_type": "public", "name": "Unidad Sanitaria Temperley Oeste", "addr_full": "General Paz  1405", "addr_postcode": "1834", "phone": "", "ref_sisa_codigo": 50064902206880, "ref_sisa_tipologia": "ESSIDT", "wikidata": "", "wikipedia": "" }, "geometry": { "type": "Point", "coordinates": [ -58.4156612, -34.7820084 ] } },
{ "type": "Feature", "properties": { "amenity": "clinic", "healthcare": "clinic", "operator": "Municipal", "operator_type": "public", "name": "Unidad Sanitaria Vicente Lopez", "addr_full": "Vicente López 963", "addr_postcode": "1834", "phone": "011-42317016", "ref_sisa_codigo": 50064902202864, "ref_sisa_tipologia": "ESSIDT", "wikidata": "", "wikipedia": "" }, "geometry": { "type": "Point", "coordinates": [ -58.4019221, -34.7822274 ] } },
{ "type": "Feature", "properties": { "amenity": "clinic", "healthcare": "clinic", "operator": "Municipal", "operator_type": "public", "name": "Unidad Sanitaria Villa Albertina", "addr_full": "Bustos 2172 Villa Albertina", "addr_postcode": "1832", "phone": "011-42855326", "ref_sisa_codigo": 50064902202865, "ref_sisa_tipologia": "ESSIDT", "wikidata": "", "wikipedia": "" }, "geometry": { "type": "Point", "coordinates": [ -58.4584587, -34.745935 ] } },
{ "type": "Feature", "properties": { "amenity": "clinic", "healthcare": "clinic", "operator": "Municipal", "operator_type": "public", "name": "Unidad Sanitaria Villa El Faro", "addr_full": "Jose Ingenieros 1845 Villa El Faro", "addr_postcode": "1832", "phone": "011-42855323", "ref_sisa_codigo": 50064902202880, "ref_sisa_tipologia": "ESSIDT", "wikidata": "", "wikipedia": "" }, "geometry": { "type": "Point", "coordinates": [ -58.4434168, -34.7432514 ] } },
{ "type": "Feature", "properties": { "amenity": "clinic", "healthcare": "clinic", "operator": "Municipal", "operator_type": "public", "name": "Unidad Sanitaria Villa General San Martin", "addr_full": "Anchoris 3338", "addr_postcode": "1834", "phone": "011-42605623", "ref_sisa_codigo": 50064902202884, "ref_sisa_tipologia": "ESSIDT", "wikidata": "", "wikipedia": "" }, "geometry": { "type": "Point", "coordinates": [ -58.3592305, -34.7531133 ] } },
{ "type": "Feature", "properties": { "amenity": "clinic", "healthcare": "clinic", "operator": "Municipal", "operator_type": "public", "name": "Unidad Sanitaria Villa Urbana", "addr_full": "Fallieres 2328", "addr_postcode": "6073", "phone": "(011) 42673873", "ref_sisa_codigo": 50064902202908, "ref_sisa_tipologia": "ESSIDT", "wikidata": "", "wikipedia": "" }, "geometry": { "type": "Point", "coordinates": [ -58.4527215, -34.7115741 ] } },
{ "type": "Feature", "properties": { "amenity": "clinic", "healthcare": "clinic", "operator": "Municipal", "operator_type": "public", "name": "Unidad Sanitaria V° Independencia", "addr_full": "Bustos 775", "addr_postcode": "1832", "phone": "(011) 4283-0343", "ref_sisa_codigo": 50064902207474, "ref_sisa_tipologia": "ESSIDT", "wikidata": "", "wikipedia": "" }, "geometry": { "type": "Point", "coordinates": [ -58.4465159, -34.7616554 ] } }
]
}
