{
"type": "FeatureCollection",
"name": "003-comuna_6",
"features": [
{ "type": "Feature", "properties": { "amenity": "hospital", "healthcare": "hospital", "operator": "Privado", "operator_type": "private", "name": "Clinica De La Ciudad", "addr_full": "Antonio Machado 66", "addr_postcode": "1405", "phone": "(011) 4862-8445", "ref_sisa_codigo": 10020012315187, "ref_sisa_tipologia": "ESCIG", "wikidata": "Q90410307", "wikipedia": "" }, "geometry": { "type": "Point", "coordinates": [ -58.4326744, -34.6042478 ] } },
{ "type": "Feature", "properties": { "amenity": "hospital", "healthcare": "hospital", "operator": "Privado", "operator_type": "private", "name": "Clinica San Camilo", "addr_full": "Avenida √Ångel Gallardo 899", "addr_postcode": "1414", "phone": "(011) 4858-8100", "ref_sisa_codigo": 10020012315197, "ref_sisa_tipologia": "ESCIG", "wikidata": "Q90410171", "wikipedia": "" }, "geometry": { "type": "Point", "coordinates": [ -58.4424591, -34.6066144 ] } },
{ "type": "Feature", "properties": { "amenity": "hospital", "healthcare": "hospital", "operator": "Municipal", "operator_type": "public", "name": "Hospital General De Agudos Doctor Carlos G. Durand", "addr_full": "Ambrosetti 743", "addr_postcode": "", "phone": "(011) 4883-8340\/4982-5655", "ref_sisa_codigo": 10020012215218, "ref_sisa_tipologia": "ESCIG", "wikidata": "Q5908419", "wikipedia": "ES:Hospital Durand" }, "geometry": { "type": "Point", "coordinates": [ -58.4392834, -34.6101113 ] } },
{ "type": "Feature", "properties": { "amenity": "hospital", "healthcare": "hospital", "operator": "FFAA\/Seguridad", "operator_type": "public", "name": "Hospital Naval Buenos Aires Cirujano Mayor Doctor Pedro Mallo", "addr_full": "Avenida Patricias Argentinas 351", "addr_postcode": "1405", "phone": "(011) 4103-5300", "ref_sisa_codigo": 10020012415225, "ref_sisa_tipologia": "ESCIG", "wikidata": "Q9004899", "wikipedia": "ES:Hospital Naval Central" }, "geometry": { "type": "Point", "coordinates": [ -58.433411, -34.6051579 ] } },
{ "type": "Feature", "properties": { "amenity": "clinic", "healthcare": "clinic", "operator": "Municipal", "operator_type": "public", "name": "Instituto Luis Pasteur", "addr_full": "Diaz Velez 4821", "addr_postcode": "1405", "phone": "4958-9900", "ref_sisa_codigo": 50020062218983, "ref_sisa_tipologia": "ESSIDT", "wikidata": "Q89819676", "wikipedia": "" }, "geometry": { "type": "Point", "coordinates": [ -58.4352369, -34.608582 ] } },
{ "type": "Feature", "properties": { "amenity": "hospital", "healthcare": "hospital", "operator": "Obra social", "operator_type": "private", "name": "Policlinica Bancaria 9 De Julio - Osba", "addr_full": "Av. Gaona 2197", "addr_postcode": "1416", "phone": "(011) 4586-8888", "ref_sisa_codigo": 10020012715231, "ref_sisa_tipologia": "ESCIG", "wikidata": "Q90410234", "wikipedia": "" }, "geometry": { "type": "Point", "coordinates": [ -58.457546, -34.6128292 ] } },
{ "type": "Feature", "properties": { "amenity": "hospital", "healthcare": "hospital", "operator": "Obra social", "operator_type": "private", "name": "Sanatorio Julio Mendez", "addr_full": "Avellaneda 551", "addr_postcode": "1405", "phone": "(011) 4903-4728", "ref_sisa_codigo": 10020012715245, "ref_sisa_tipologia": "ESCIG", "wikidata": "Q93141580", "wikipedia": "" }, "geometry": { "type": "Point", "coordinates": [ -58.4384465, -34.6143143 ] } }
]
}
