{
"type": "FeatureCollection",
"name": "004-comuna_13",
"features": [
{ "type": "Feature", "properties": { "amenity": "hospital", "healthcare": "hospital", "operator": "Privado", "operator_type": "private", "name": "Clinica De Los Virreyes", "addr_full": "Ciudad De La Paz 1157", "addr_postcode": "1428", "phone": "(011) 4788-5335", "ref_sisa_codigo": 10020012315188, "ref_sisa_tipologia": "ESCIG", "wikidata": "Q93139825", "wikipedia": "" }, "geometry": { "type": "Point", "coordinates": [ -58.449626, -34.5694116 ] } },
{ "type": "Feature", "properties": { "amenity": "hospital", "healthcare": "hospital", "operator": "Privado", "operator_type": "private", "name": "Clinica La Sagrada Familia", "addr_full": "José Hernández 1642", "addr_postcode": "1426", "phone": "(011) 4788-1800", "ref_sisa_codigo": 10020012315193, "ref_sisa_tipologia": "ESCIG", "wikidata": "Q90410168", "wikipedia": "" }, "geometry": { "type": "Point", "coordinates": [ -58.4465361, -34.5616015 ] } },
{ "type": "Feature", "properties": { "amenity": "hospital", "healthcare": "hospital", "operator": "Privado", "operator_type": "private", "name": "Clinica Loiacono (mediconex)", "addr_full": "Dragones 1840", "addr_postcode": "1428", "phone": "(011) 4781-7508", "ref_sisa_codigo": 10020012315194, "ref_sisa_tipologia": "ESCIG", "wikidata": "Q93139923", "wikipedia": "" }, "geometry": { "type": "Point", "coordinates": [ -58.438983, -34.5552398 ] } },
{ "type": "Feature", "properties": { "amenity": "clinic", "healthcare": "clinic", "operator": "Municipal", "operator_type": "public", "name": "CMB 11", "addr_full": "Gregoria Perez 3434", "addr_postcode": "1426", "phone": "(011) 4551-8522", "ref_sisa_codigo": 50020012115388, "ref_sisa_tipologia": "ESSIDT", "wikidata": "", "wikipedia": "" }, "geometry": { "type": "Point", "coordinates": [ -58.4557199, -34.5784224 ] } },
{ "type": "Feature", "properties": { "amenity": "clinic", "healthcare": "clinic", "operator": "Municipal", "operator_type": "public", "name": "CMB 26", "addr_full": "Guayra 2193", "addr_postcode": "1429", "phone": "(011) 4701-6467", "ref_sisa_codigo": 50020012115404, "ref_sisa_tipologia": "ESSIDT", "wikidata": "", "wikipedia": "" }, "geometry": { "type": "Point", "coordinates": [ -58.463124, -34.55166 ] } },
{ "type": "Feature", "properties": { "amenity": "hospital", "healthcare": "hospital", "operator": "Privado", "operator_type": "private", "name": "Sanatorio Colegiales S.a.", "addr_full": "Conde 851", "addr_postcode": "1426", "phone": "(011) 4556-4800", "ref_sisa_codigo": 10020012315236, "ref_sisa_tipologia": "ESCIG", "wikidata": "Q93141476", "wikipedia": "" }, "geometry": { "type": "Point", "coordinates": [ -58.4509563, -34.5771857 ] } }
]
}
