{
"type": "FeatureCollection",
"name": "005-berisso",
"features": [
{ "type": "Feature", "properties": { "amenity": "clinic", "healthcare": "clinic", "operator": "Municipal", "operator_type": "public", "name": "CAP Doctor Pascual Guidice", "addr_full": "Estados Unidos Y San Martin", "addr_postcode": "1925", "phone": "0221-4691268", "ref_sisa_codigo": 50062452201152, "ref_sisa_tipologia": "ESSIDT", "wikidata": "", "wikipedia": "" }, "geometry": { "type": "Point", "coordinates": [ -57.8545189, -34.8781859 ] } },
{ "type": "Feature", "properties": { "amenity": "hospital", "healthcare": "hospital", "operator": "Privado", "operator_type": "private", "name": "Clinica Privada Enrique Mosconi", "addr_full": "Calle 8 3419", "addr_postcode": "1923", "phone": "0221-4611172", "ref_sisa_codigo": 10060982300109, "ref_sisa_tipologia": "ESCIG", "wikidata": "", "wikipedia": "" }, "geometry": { "type": "Point", "coordinates": [ -57.8935542, -34.8769229 ] } },
{ "type": "Feature", "properties": { "amenity": "clinic", "healthcare": "clinic", "operator": "Municipal", "operator_type": "public", "name": "Dispensario Tetamanti", "addr_full": "Calle 166 E\/5 Y 6", "addr_postcode": "1923", "phone": "0221-4645064", "ref_sisa_codigo": 50060982201610, "ref_sisa_tipologia": "ESSIDT", "wikidata": "", "wikipedia": "" }, "geometry": { "type": "Point", "coordinates": [ -57.8891516, -34.8673768 ] } },
{ "type": "Feature", "properties": { "amenity": "hospital", "healthcare": "hospital", "operator": "Provincial", "operator_type": "public", "name": "Hospital Zonal General Agudos Doctor Larrain", "addr_full": "Londres 4435", "addr_postcode": "1923", "phone": "(0221) 4611101", "ref_sisa_codigo": 10060982100386, "ref_sisa_tipologia": "ESCIG", "wikidata": "", "wikipedia": "" }, "geometry": { "type": "Point", "coordinates": [ -57.8895026, -34.8666726 ] } },
{ "type": "Feature", "properties": { "amenity": "hospital", "healthcare": "hospital", "operator": "Privado", "operator_type": "private", "name": "Instituto Medico Argentino De Berisso Sa", "addr_full": "12 N 4295", "addr_postcode": "1923", "phone": "0221-464-5373", "ref_sisa_codigo": 10060982300414, "ref_sisa_tipologia": "ESCIG", "wikidata": "", "wikipedia": "" }, "geometry": { "type": "Point", "coordinates": [ -57.8833015, -34.871585 ] } },
{ "type": "Feature", "properties": { "amenity": "clinic", "healthcare": "clinic", "operator": "Municipal", "operator_type": "public", "name": "Unidad Sanitaria Campamento", "addr_full": "Gallino 131 Y Santa Fe Barrio Campamento", "addr_postcode": "1925", "phone": "0221-4691515", "ref_sisa_codigo": 50062452202158, "ref_sisa_tipologia": "ESSIDT", "wikidata": "", "wikipedia": "" }, "geometry": { "type": "Point", "coordinates": [ -57.9006958, -34.8814248 ] } },
{ "type": "Feature", "properties": { "amenity": "clinic", "healthcare": "clinic", "operator": "Municipal", "operator_type": "public", "name": "Unidad Sanitaria Escuela 18", "addr_full": "Calle 37 38", "addr_postcode": "1923", "phone": "0221-4620234", "ref_sisa_codigo": 50060982215020, "ref_sisa_tipologia": "ESSIDT", "wikidata": "", "wikipedia": "" }, "geometry": { "type": "Point", "coordinates": [ -57.8862119, -34.9309874 ] } },
{ "type": "Feature", "properties": { "amenity": "clinic", "healthcare": "clinic", "operator": "Municipal", "operator_type": "public", "name": "Unidad Sanitaria N 16", "addr_full": "Calle 169 Y 33", "addr_postcode": "1923", "phone": "464-4775 - Int. 331", "ref_sisa_codigo": 50060982215021, "ref_sisa_tipologia": "ESSIDT", "wikidata": "", "wikipedia": "" }, "geometry": { "type": "Point", "coordinates": [ -57.8589821, -34.8818121 ] } },
{ "type": "Feature", "properties": { "amenity": "clinic", "healthcare": "clinic", "operator": "Municipal", "operator_type": "public", "name": "Unidad Sanitaria N 17", "addr_full": "Calle 45 E\/171 Y 172 - Santa Teresita", "addr_postcode": "1923", "phone": "462-0957 - Int. 332", "ref_sisa_codigo": 50060982215022, "ref_sisa_tipologia": "ESSIDT", "wikidata": "", "wikipedia": "" }, "geometry": { "type": "Point", "coordinates": [ -57.8479233, -34.8830497 ] } },
{ "type": "Feature", "properties": { "amenity": "clinic", "healthcare": "clinic", "operator": "Municipal", "operator_type": "public", "name": "Unidad Sanitaria 19 De Berisso", "addr_full": "Calle 124 Entre 5 Y 6  (Ex 62 Y 63)", "addr_postcode": "1923", "phone": "(0221) 424-8655", "ref_sisa_codigo": 50060982202542, "ref_sisa_tipologia": "ESSIDT", "wikidata": "", "wikipedia": "" }, "geometry": { "type": "Point", "coordinates": [ -57.92338, -34.908153 ] } },
{ "type": "Feature", "properties": { "amenity": "clinic", "healthcare": "clinic", "operator": "Municipal", "operator_type": "public", "name": "Unidad Sanitaria 41", "addr_full": "Perseverancia 2981", "addr_postcode": "1923", "phone": "464-4786", "ref_sisa_codigo": 50060982215023, "ref_sisa_tipologia": "ESSIDT", "wikidata": "", "wikipedia": "" }, "geometry": { "type": "Point", "coordinates": [ -57.8912356, -34.8832998 ] } },
{ "type": "Feature", "properties": { "amenity": "clinic", "healthcare": "clinic", "operator": "Municipal", "operator_type": "public", "name": "Unidad Sanitaria 42", "addr_full": "164 Esquina  27", "addr_postcode": "1923", "phone": "464-5068", "ref_sisa_codigo": 50060982215024, "ref_sisa_tipologia": "ESSIDT", "wikidata": "", "wikipedia": "" }, "geometry": { "type": "Point", "coordinates": [ -57.869153, -34.8821553 ] } },
{ "type": "Feature", "properties": { "amenity": "clinic", "healthcare": "clinic", "operator": "Municipal", "operator_type": "public", "name": "Unidad Sanitaria 43 De Berisso", "addr_full": "Calle 145 Entre 6 Y 7 S\/N", "addr_postcode": "1923", "phone": "0221-4645066", "ref_sisa_codigo": 50060982202625, "ref_sisa_tipologia": "ESSIDT", "wikidata": "", "wikipedia": "" }, "geometry": { "type": "Point", "coordinates": [ -57.9044702, -34.8882182 ] } },
{ "type": "Feature", "properties": { "amenity": "clinic", "healthcare": "clinic", "operator": "Municipal", "operator_type": "public", "name": "Unidad Sanitaria 44 Dr Ramon Carrillo", "addr_full": "Calle 122 Bis", "addr_postcode": "1923", "phone": "457-0070", "ref_sisa_codigo": 50060982215025, "ref_sisa_tipologia": "ESSIDT", "wikidata": "", "wikipedia": "" }, "geometry": { "type": "Point", "coordinates": [ -57.9074335, -34.9204667 ] } },
{ "type": "Feature", "properties": { "amenity": "clinic", "healthcare": "clinic", "operator": "Municipal", "operator_type": "public", "name": "Unidad Sanitaria Odontologica Escolar", "addr_full": "Lisboa 342", "addr_postcode": "1923", "phone": "0221-4645069", "ref_sisa_codigo": 50060982202697, "ref_sisa_tipologia": "ESSIDT", "wikidata": "", "wikipedia": "" }, "geometry": { "type": "Point", "coordinates": [ -57.8890529, -34.8673407 ] } }
]
}
