{
"type": "FeatureCollection",
"name": "006-almirante_brown",
"features": [
{ "type": "Feature", "properties": { "amenity": "clinic", "healthcare": "clinic", "operator": "Municipal", "operator_type": "public", "name": "CAPS 21 Presidente Peron", "addr_full": "Marconi Entre Alsina Y José Hernández", "addr_postcode": "1849", "phone": "(011) 4236-8569", "ref_sisa_codigo": 50060282201663, "ref_sisa_tipologia": "ESSIDT", "wikidata": "", "wikipedia": "" }, "geometry": { "type": "Point", "coordinates": [ -58.3475046, -34.8061202 ] } },
{ "type": "Feature", "properties": { "amenity": "hospital", "healthcare": "hospital", "operator": "Privado", "operator_type": "private", "name": "Clinica Espora", "addr_full": "Avenida Tomás Espora 645", "addr_postcode": "1846", "phone": "(011) 4293011", "ref_sisa_codigo": 10060282300038, "ref_sisa_tipologia": "ESCIG", "wikidata": "", "wikipedia": "" }, "geometry": { "type": "Point", "coordinates": [ -58.3887318, -34.7966031 ] } },
{ "type": "Feature", "properties": { "amenity": "hospital", "healthcare": "hospital", "operator": "Privado", "operator_type": "private", "name": "Clinica I.m.a. Sa", "addr_full": "Francisco Seguí 593", "addr_postcode": "1846", "phone": "(011) 4214-1414", "ref_sisa_codigo": 10060282300045, "ref_sisa_tipologia": "ESCIG", "wikidata": "", "wikipedia": "" }, "geometry": { "type": "Point", "coordinates": [ -58.3978366, -34.8009168 ] } },
{ "type": "Feature", "properties": { "amenity": "hospital", "healthcare": "hospital", "operator": "Privado", "operator_type": "private", "name": "Clinica Modelo Claypole", "addr_full": "2 De Abril y Cavour", "addr_postcode": "1847", "phone": "011-42364600", "ref_sisa_codigo": 10060282300058, "ref_sisa_tipologia": "ESCIG", "wikidata": "", "wikipedia": "" }, "geometry": { "type": "Point", "coordinates": [ -58.346418, -34.810415 ] } },
{ "type": "Feature", "properties": { "amenity": "hospital", "healthcare": "hospital", "operator": "Privado", "operator_type": "private", "name": "Clinica Privada Colon", "addr_full": "Colón 3263", "addr_postcode": "1847", "phone": "011-42194000", "ref_sisa_codigo": 10060282300088, "ref_sisa_tipologia": "ESCIG", "wikidata": "", "wikipedia": "" }, "geometry": { "type": "Point", "coordinates": [ -58.3565133, -34.7950277 ] } },
{ "type": "Feature", "properties": { "amenity": "hospital", "healthcare": "hospital", "operator": "Privado", "operator_type": "private", "name": "Clinica Privada Rivadavia", "addr_full": "Rivadavia 3235", "addr_postcode": "1847", "phone": "(011) 4291-1580", "ref_sisa_codigo": 10060282300148, "ref_sisa_tipologia": "ESCIG", "wikidata": "", "wikipedia": "" }, "geometry": { "type": "Point", "coordinates": [ -58.358928, -34.795069 ] } },
{ "type": "Feature", "properties": { "amenity": "hospital", "healthcare": "hospital", "operator": "Privado", "operator_type": "private", "name": "Clinica Privada Sanatorio Modelo Burzaco", "addr_full": "Avenida Tomás Espora 3250", "addr_postcode": "1852", "phone": "4299-1242", "ref_sisa_codigo": 10060282306756, "ref_sisa_tipologia": "ESCIG", "wikidata": "", "wikipedia": "" }, "geometry": { "type": "Point", "coordinates": [ -58.3883601, -34.8275881 ] } },
{ "type": "Feature", "properties": { "amenity": "clinic", "healthcare": "clinic", "operator": "Provincial", "operator_type": "public", "name": "Hospital Subzonal Especializado En Rehabilitacion Doctor Jorge", "addr_full": "Presidente Juan Domingo Perón 870 (Ex Gorriti 300)", "addr_postcode": "1846", "phone": "(011) 4294-8308 \/ 8100 \/ 1384", "ref_sisa_codigo": 14060282100662, "ref_sisa_tipologia": "ESCIE", "wikidata": "", "wikipedia": "" }, "geometry": { "type": "Point", "coordinates": [ -58.386177, -34.812174 ] } },
{ "type": "Feature", "properties": { "amenity": "hospital", "healthcare": "hospital", "operator": "Privado", "operator_type": "private", "name": "Hospital Vecinal Emilio Burgwardt", "addr_full": "Rivadavia 1256", "addr_postcode": "1854", "phone": "(011) 4297-1000", "ref_sisa_codigo": 10060282300218, "ref_sisa_tipologia": "ESCIG", "wikidata": "", "wikipedia": "" }, "geometry": { "type": "Point", "coordinates": [ -58.3866048, -34.857253 ] } },
{ "type": "Feature", "properties": { "amenity": "hospital", "healthcare": "hospital", "operator": "Provincial", "operator_type": "public", "name": "Hospital Zonal General Agudos Doctor Lucio V. Melendez", "addr_full": "Presidente Juan Domingo Perón 859", "addr_postcode": "1846", "phone": "(011) 4294-5555", "ref_sisa_codigo": 10060282100389, "ref_sisa_tipologia": "ESCIG", "wikidata": "", "wikipedia": "" }, "geometry": { "type": "Point", "coordinates": [ -58.3856679, -34.8120484 ] } },
{ "type": "Feature", "properties": { "amenity": "hospital", "healthcare": "hospital", "operator": "Provincial", "operator_type": "public", "name": "Hospital Zonal General De Agudos Doctor Arturo Ońativia", "addr_full": "Doctor Ramón Carrillo 1339", "addr_postcode": "1847", "phone": "011-42195049", "ref_sisa_codigo": 10060282100397, "ref_sisa_tipologia": "ESCIG", "wikidata": "", "wikipedia": "" }, "geometry": { "type": "Point", "coordinates": [ -58.3517027, -34.7862357 ] } },
{ "type": "Feature", "properties": { "amenity": "clinic", "healthcare": "clinic", "operator": "Municipal", "operator_type": "public", "name": "22 Loma Verde", "addr_full": "Portugal 1802", "addr_postcode": "1846", "phone": "(011) 297-6700", "ref_sisa_codigo": 50060282201664, "ref_sisa_tipologia": "ESSIDT", "wikidata": "", "wikipedia": "" }, "geometry": { "type": "Point", "coordinates": [ -58.4248293, -34.816889 ] } },
{ "type": "Feature", "properties": { "amenity": "clinic", "healthcare": "clinic", "operator": "Municipal", "operator_type": "public", "name": "Posta 15 De Enero", "addr_full": "Provincia De Santa Fe 550", "addr_postcode": "1856", "phone": "", "ref_sisa_codigo": 50060282206815, "ref_sisa_tipologia": "ESSIDT", "wikidata": "", "wikipedia": "" }, "geometry": { "type": "Point", "coordinates": [ -58.366653, -34.871109 ] } },
{ "type": "Feature", "properties": { "amenity": "clinic", "healthcare": "clinic", "operator": "Municipal", "operator_type": "public", "name": "Posta El Hornero", "addr_full": "Tómas Guido Esq. Isaac Newton", "addr_postcode": "1852", "phone": "", "ref_sisa_codigo": 50060282206812, "ref_sisa_tipologia": "ESSIDT", "wikidata": "", "wikipedia": "" }, "geometry": { "type": "Point", "coordinates": [ -58.408452, -34.839133 ] } },
{ "type": "Feature", "properties": { "amenity": "clinic", "healthcare": "clinic", "operator": "Municipal", "operator_type": "public", "name": "Posta El Progreso", "addr_full": "Capilla Del Señor 1740", "addr_postcode": "1847", "phone": "", "ref_sisa_codigo": 50060282206811, "ref_sisa_tipologia": "ESSIDT", "wikidata": "", "wikipedia": "" }, "geometry": { "type": "Point", "coordinates": [ -58.370665, -34.802739 ] } },
{ "type": "Feature", "properties": { "amenity": "clinic", "healthcare": "clinic", "operator": "Municipal", "operator_type": "public", "name": "Posta Juan Glew", "addr_full": "Miguel Cané 300", "addr_postcode": "1856", "phone": "", "ref_sisa_codigo": 50060282206817, "ref_sisa_tipologia": "ESSIDT", "wikidata": "", "wikipedia": "" }, "geometry": { "type": "Point", "coordinates": [ -58.354164, -34.881585 ] } },
{ "type": "Feature", "properties": { "amenity": "clinic", "healthcare": "clinic", "operator": "Municipal", "operator_type": "public", "name": "Posta La Casona", "addr_full": "Los Sauces Esq Belgrano", "addr_postcode": "1846", "phone": "011-1540386144", "ref_sisa_codigo": 50060282206814, "ref_sisa_tipologia": "ESSIDT", "wikidata": "", "wikipedia": "" }, "geometry": { "type": "Point", "coordinates": [ -58.336076, -34.757903 ] } },
{ "type": "Feature", "properties": { "amenity": "clinic", "healthcare": "clinic", "operator": "Municipal", "operator_type": "public", "name": "Posta La Cumbre", "addr_full": "Florida 1050", "addr_postcode": "1852", "phone": "", "ref_sisa_codigo": 50060282206807, "ref_sisa_tipologia": "ESSIDT", "wikidata": "", "wikipedia": "" }, "geometry": { "type": "Point", "coordinates": [ -58.4160337, -34.8267861 ] } },
{ "type": "Feature", "properties": { "amenity": "clinic", "healthcare": "clinic", "operator": "Municipal", "operator_type": "public", "name": "Posta Mater Dei", "addr_full": "Caléndula Y Rawson", "addr_postcode": "1881", "phone": "", "ref_sisa_codigo": 50060282206808, "ref_sisa_tipologia": "ESSIDT", "wikidata": "", "wikipedia": "" }, "geometry": { "type": "Point", "coordinates": [ -58.326205, -34.789788 ] } },
{ "type": "Feature", "properties": { "amenity": "clinic", "healthcare": "clinic", "operator": "Municipal", "operator_type": "public", "name": "Posta Plaza Los Aviadores (Ex Dr Rene Favaloro)", "addr_full": "Burgos Pérez 78", "addr_postcode": "1854", "phone": "", "ref_sisa_codigo": 50060282206810, "ref_sisa_tipologia": "ESSIDT", "wikidata": "", "wikipedia": "" }, "geometry": { "type": "Point", "coordinates": [ -58.403732, -34.859524 ] } },
{ "type": "Feature", "properties": { "amenity": "clinic", "healthcare": "clinic", "operator": "Municipal", "operator_type": "public", "name": "Posta Villa Paris", "addr_full": "Juan De Garay 2379", "addr_postcode": "1856", "phone": "", "ref_sisa_codigo": 50060282206805, "ref_sisa_tipologia": "ESSIDT", "wikidata": "", "wikipedia": "" }, "geometry": { "type": "Point", "coordinates": [ -58.38133, -34.877799 ] } },
{ "type": "Feature", "properties": { "amenity": "hospital", "healthcare": "hospital", "operator": "Privado", "operator_type": "private", "name": "Sanatorio Modelo Adrogue", "addr_full": "Avenida Tomás Espora 2250", "addr_postcode": "1852", "phone": "011-4238550", "ref_sisa_codigo": 10060282300456, "ref_sisa_tipologia": "ESCIG", "wikidata": "", "wikipedia": "" }, "geometry": { "type": "Point", "coordinates": [ -58.3890951, -34.8168512 ] } },
{ "type": "Feature", "properties": { "amenity": "clinic", "healthcare": "clinic", "operator": "Provincial", "operator_type": "public", "name": "U.S.  Nestor Kirchner", "addr_full": "Martin Rodriguez 1861", "addr_postcode": "1828", "phone": "", "ref_sisa_codigo": 50064902106703, "ref_sisa_tipologia": "ESSIDT", "wikidata": "", "wikipedia": "" }, "geometry": { "type": "Point", "coordinates": [ -58.391182, -34.813698 ] } },
{ "type": "Feature", "properties": { "amenity": "clinic", "healthcare": "clinic", "operator": "Municipal", "operator_type": "public", "name": "Unidad Sanitaria Cristo Redentor", "addr_full": "Corrientes 630 - José Mármol", "addr_postcode": "1846", "phone": "", "ref_sisa_codigo": 50060282202192, "ref_sisa_tipologia": "ESSIDT", "wikidata": "", "wikipedia": "" }, "geometry": { "type": "Point", "coordinates": [ -58.3591583, -34.7799268 ] } },
{ "type": "Feature", "properties": { "amenity": "clinic", "healthcare": "clinic", "operator": "Municipal", "operator_type": "public", "name": "Unidad Sanitaria De Medicina Preventiva", "addr_full": "Coronel De Marina Leonardo Rosale 1394", "addr_postcode": "1846", "phone": "(011) 4214-0500 INT.621-INT 2", "ref_sisa_codigo": 50060282202202, "ref_sisa_tipologia": "ESSIDT", "wikidata": "", "wikipedia": "" }, "geometry": { "type": "Point", "coordinates": [ -58.387638, -34.799862 ] } },
{ "type": "Feature", "properties": { "amenity": "clinic", "healthcare": "clinic", "operator": "Municipal", "operator_type": "public", "name": "Unidad Sanitaria Glew I", "addr_full": "Bonifacio Y Franklin S\/N Bo. Gorriti - Glew", "addr_postcode": "1856", "phone": "02224-423219", "ref_sisa_codigo": 50060282202312, "ref_sisa_tipologia": "ESSIDT", "wikidata": "", "wikipedia": "" }, "geometry": { "type": "Point", "coordinates": [ -58.3957629, -34.9066084 ] } },
{ "type": "Feature", "properties": { "amenity": "clinic", "healthcare": "clinic", "operator": "Municipal", "operator_type": "public", "name": "Unidad Sanitaria Glew Ii", "addr_full": "De Navazio Y Di Carlo S\/N Bo. Almafuerte - Glew", "addr_postcode": "1856", "phone": "02224-421779", "ref_sisa_codigo": 50060282202313, "ref_sisa_tipologia": "ESSIDT", "wikidata": "", "wikipedia": "" }, "geometry": { "type": "Point", "coordinates": [ -58.3624134, -34.8903629 ] } },
{ "type": "Feature", "properties": { "amenity": "clinic", "healthcare": "clinic", "operator": "Municipal", "operator_type": "public", "name": "Unidad Sanitaria 1 Ministro Rivadavia De Burzaco", "addr_full": "25 De Mayo Entre Cardenas Y Sandoval - Barrio Ministro Rivadavia", "addr_postcode": "1852", "phone": "(011) 4279-2242", "ref_sisa_codigo": 50060282202467, "ref_sisa_tipologia": "ESSIDT", "wikidata": "", "wikipedia": "" }, "geometry": { "type": "Point", "coordinates": [ -58.370121, -34.8419663 ] } },
{ "type": "Feature", "properties": { "amenity": "clinic", "healthcare": "clinic", "operator": "Municipal", "operator_type": "public", "name": "Unidad Sanitaria 10 28 De Diciembre De Rafael Calzada", "addr_full": "Gorrion Entre Jorge Y Arroyo Rafael Calzada", "addr_postcode": "1847", "phone": "011-42112562", "ref_sisa_codigo": 50060282202478, "ref_sisa_tipologia": "ESSIDT", "wikidata": "", "wikipedia": "" }, "geometry": { "type": "Point", "coordinates": [ -58.3362919, -34.7742326 ] } },
{ "type": "Feature", "properties": { "amenity": "clinic", "healthcare": "clinic", "operator": "Municipal", "operator_type": "public", "name": "Unidad Sanitaria 11 La Gloria De San Jose", "addr_full": "La Calandria Entre Bynon Y Mitre S\/N La Tablada San Jose", "addr_postcode": "1846", "phone": "011-42110035", "ref_sisa_codigo": 50060282202483, "ref_sisa_tipologia": "ESSIDT", "wikidata": "", "wikipedia": "" }, "geometry": { "type": "Point", "coordinates": [ -58.3340292, -34.7661867 ] } },
{ "type": "Feature", "properties": { "amenity": "clinic", "healthcare": "clinic", "operator": "Municipal", "operator_type": "public", "name": "Unidad Sanitaria 12 Don Orione De Claypole", "addr_full": "Calle 11 Y Av. Eva Perón - Barrio Don Orione", "addr_postcode": "1849", "phone": "(011) 4268-4911", "ref_sisa_codigo": 50060282202494, "ref_sisa_tipologia": "ESSIDT", "wikidata": "", "wikipedia": "" }, "geometry": { "type": "Point", "coordinates": [ -58.3472214, -34.8182039 ] } },
{ "type": "Feature", "properties": { "amenity": "clinic", "healthcare": "clinic", "operator": "Municipal", "operator_type": "public", "name": "Unidad Sanitaria 13 De Burzaco", "addr_full": "Alsina Y Martín Fierro", "addr_postcode": "1852", "phone": "(011) 4299-7885", "ref_sisa_codigo": 50060282202497, "ref_sisa_tipologia": "ESSIDT", "wikidata": "", "wikipedia": "" }, "geometry": { "type": "Point", "coordinates": [ -58.3718183, -34.8187262 ] } },
{ "type": "Feature", "properties": { "amenity": "clinic", "healthcare": "clinic", "operator": "Municipal", "operator_type": "public", "name": "Unidad Sanitaria 16 De Rafael Calzada", "addr_full": "Av. San Martin 4900 Y San Carlos Barrio San Geronimo Rafael Calzada", "addr_postcode": "1847", "phone": "011-42368122", "ref_sisa_codigo": 50060282202520, "ref_sisa_tipologia": "ESSIDT", "wikidata": "", "wikipedia": "" }, "geometry": { "type": "Point", "coordinates": [ -58.3380434, -34.7813211 ] } },
{ "type": "Feature", "properties": { "amenity": "clinic", "healthcare": "clinic", "operator": "Municipal", "operator_type": "public", "name": "Unidad Sanitaria 17 San Agustin De Rafael Calzada", "addr_full": "Presidente Perón (Gorritti)  Y Charcas", "addr_postcode": "1847", "phone": "(011) 4211-0022", "ref_sisa_codigo": 50060282202530, "ref_sisa_tipologia": "ESSIDT", "wikidata": "", "wikipedia": "" }, "geometry": { "type": "Point", "coordinates": [ -58.323715, -34.7801293 ] } },
{ "type": "Feature", "properties": { "amenity": "clinic", "healthcare": "clinic", "operator": "Municipal", "operator_type": "public", "name": "Unidad Sanitaria 18 Vias Respiratorias De Burzaco", "addr_full": "Presidente Perón (Ex Gorriti) 888 Entre Brasil E Italia", "addr_postcode": "1852", "phone": "(011) 4214-0699", "ref_sisa_codigo": 50060282202539, "ref_sisa_tipologia": "ESSIDT", "wikidata": "", "wikipedia": "" }, "geometry": { "type": "Point", "coordinates": [ -58.3852916, -34.8119517 ] } },
{ "type": "Feature", "properties": { "amenity": "clinic", "healthcare": "clinic", "operator": "Municipal", "operator_type": "public", "name": "Unidad Sanitaria 2 Mi Horizonte De Claypole", "addr_full": "Begonia  546 Entre Glicina Y Bervena", "addr_postcode": "1849", "phone": "(011) 4277-0055", "ref_sisa_codigo": 50060282202554, "ref_sisa_tipologia": "ESSIDT", "wikidata": "", "wikipedia": "" }, "geometry": { "type": "Point", "coordinates": [ -58.3246737, -34.794403 ] } },
{ "type": "Feature", "properties": { "amenity": "clinic", "healthcare": "clinic", "operator": "Municipal", "operator_type": "public", "name": "Unidad Sanitaria 3 Barrio Lindo De Malvinas Argentinas", "addr_full": "Portugal Entre Yatay Y Robles Barrio Lindo", "addr_postcode": "1846", "phone": "011-42965839", "ref_sisa_codigo": 50060282202586, "ref_sisa_tipologia": "ESSIDT", "wikidata": "", "wikipedia": "" }, "geometry": { "type": "Point", "coordinates": [ -58.4370046, -34.8230323 ] } },
{ "type": "Feature", "properties": { "amenity": "clinic", "healthcare": "clinic", "operator": "Municipal", "operator_type": "public", "name": "Unidad Sanitaria 4 San Jose De Almirante Brown", "addr_full": "San Luis 166 San Jose", "addr_postcode": "1846", "phone": "011-42365016", "ref_sisa_codigo": 50060282202623, "ref_sisa_tipologia": "ESSIDT", "wikidata": "", "wikipedia": "" }, "geometry": { "type": "Point", "coordinates": [ -58.3591797, -34.7731852 ] } },
{ "type": "Feature", "properties": { "amenity": "clinic", "healthcare": "clinic", "operator": "Municipal", "operator_type": "public", "name": "Unidad Sanitaria 5 Rayo De Sol De Longchamps", "addr_full": "Granaderos Y C. Dihel S\/N- Barrio Rayo De Sol", "addr_postcode": "1854", "phone": "(011) 4397-1350", "ref_sisa_codigo": 50060282202639, "ref_sisa_tipologia": "ESSIDT", "wikidata": "", "wikipedia": "" }, "geometry": { "type": "Point", "coordinates": [ -58.4060723, -34.8709583 ] } },
{ "type": "Feature", "properties": { "amenity": "clinic", "healthcare": "clinic", "operator": "Municipal", "operator_type": "public", "name": "Unidad Sanitaria 6 Los Alamos De Glew", "addr_full": "Julian Aguirre Y Santaclara S\/N Barrio Los Alamos Glew", "addr_postcode": "1856", "phone": "02224-423357", "ref_sisa_codigo": 50060282202650, "ref_sisa_tipologia": "ESSIDT", "wikidata": "", "wikipedia": "" }, "geometry": { "type": "Point", "coordinates": [ -58.4003109, -34.8813654 ] } },
{ "type": "Feature", "properties": { "amenity": "clinic", "healthcare": "clinic", "operator": "Municipal", "operator_type": "public", "name": "Unidad Sanitaria 7 13 De Julio De Claypole", "addr_full": "Anemonas 6545 Entre Clavel Y Camelia", "addr_postcode": "1849", "phone": "(011) 4277-5279", "ref_sisa_codigo": 50060282202661, "ref_sisa_tipologia": "ESSIDT", "wikidata": "", "wikipedia": "" }, "geometry": { "type": "Point", "coordinates": [ -58.3164039, -34.7887913 ] } },
{ "type": "Feature", "properties": { "amenity": "clinic", "healthcare": "clinic", "operator": "Municipal", "operator_type": "public", "name": "Unidad Sanitaria 8 El Encuentro De Malvinas Argentinas", "addr_full": "Ituzaingo Entre Serrano Y Policastro S\/N Barrio El Encuentro", "addr_postcode": "1846", "phone": "011-42931110", "ref_sisa_codigo": 50060282202666, "ref_sisa_tipologia": "ESSIDT", "wikidata": "", "wikipedia": "" }, "geometry": { "type": "Point", "coordinates": [ -58.4081612, -34.8121085 ] } },
{ "type": "Feature", "properties": { "amenity": "clinic", "healthcare": "clinic", "operator": "Municipal", "operator_type": "public", "name": "Unidad Sanitaria 9 Vendramini De Burzaco", "addr_full": "Constitución 1247 Entre Vidal Y Juan Xxiii - Barrio San Pablo", "addr_postcode": "1852", "phone": "(011) 5083-1279", "ref_sisa_codigo": 50060282202685, "ref_sisa_tipologia": "ESSIDT", "wikidata": "", "wikipedia": "" }, "geometry": { "type": "Point", "coordinates": [ -58.4106545, -34.8271365 ] } },
{ "type": "Feature", "properties": { "amenity": "clinic", "healthcare": "clinic", "operator": "Municipal", "operator_type": "public", "name": "Unidad Sanitaria 23 Ramon Carrillo", "addr_full": "Zufriategui 3550", "addr_postcode": "1856", "phone": "02224-430948", "ref_sisa_codigo": 50060282215009, "ref_sisa_tipologia": "ESSIDT", "wikidata": "", "wikipedia": "" }, "geometry": { "type": "Point", "coordinates": [ -58.3545195, -34.8825061 ] } }
]
}
