{
"type": "FeatureCollection",
"name": "007-vicente_lopez",
"features": [
{ "type": "Feature", "properties": { "amenity": "clinic", "healthcare": "clinic", "operator": "Municipal", "operator_type": "public", "name": "CAPS UAP Angel Scalise", "addr_full": "Cajaraville  4042", "addr_postcode": "1607", "phone": "011-45128140", "ref_sisa_codigo": 50068612201996, "ref_sisa_tipologia": "ESSIDT", "wikidata": "", "wikipedia": "" }, "geometry": { "type": "Point", "coordinates": [ -58.5476593, -34.5260357 ] } },
{ "type": "Feature", "properties": { "amenity": "clinic", "healthcare": "clinic", "operator": "Municipal", "operator_type": "public", "name": "CAPS UAP Doctor Negrete", "addr_full": "Rivera 6001", "addr_postcode": "1605", "phone": "011-45806233", "ref_sisa_codigo": 50068612202002, "ref_sisa_tipologia": "ESSIDT", "wikidata": "", "wikipedia": "" }, "geometry": { "type": "Point", "coordinates": [ -58.5365348, -34.5407549 ] } },
{ "type": "Feature", "properties": { "amenity": "clinic", "healthcare": "clinic", "operator": "Municipal", "operator_type": "public", "name": "CAPS UAP Marcelino", "addr_full": "General Lavalle 1583", "addr_postcode": "1602", "phone": "011-47969644", "ref_sisa_codigo": 50068612202004, "ref_sisa_tipologia": "ESSIDT", "wikidata": "", "wikipedia": "" }, "geometry": { "type": "Point", "coordinates": [ -58.4797955, -34.53297 ] } },
{ "type": "Feature", "properties": { "amenity": "clinic", "healthcare": "clinic", "operator": "Municipal", "operator_type": "public", "name": "CAPS UAP Padre Barbero", "addr_full": "Eduardo Sivori 5050", "addr_postcode": "1605", "phone": "(011) 4580-6230", "ref_sisa_codigo": 50068612202701, "ref_sisa_tipologia": "ESSIDT", "wikidata": "", "wikipedia": "" }, "geometry": { "type": "Point", "coordinates": [ -58.5304542, -34.5265268 ] } },
{ "type": "Feature", "properties": { "amenity": "clinic", "healthcare": "clinic", "operator": "Municipal", "operator_type": "public", "name": "CAPS UAP Senador Bermudez", "addr_full": "Hipólito Yrigoyen 4601", "addr_postcode": "1602", "phone": "(011) 4513-1950", "ref_sisa_codigo": 50068612202005, "ref_sisa_tipologia": "ESSIDT", "wikidata": "", "wikipedia": "" }, "geometry": { "type": "Point", "coordinates": [ -58.5227108, -34.5394041 ] } },
{ "type": "Feature", "properties": { "amenity": "clinic", "healthcare": "clinic", "operator": "Municipal", "operator_type": "public", "name": "CAPS URI Doctor Jose Burman", "addr_full": "Ituzaingó 5725", "addr_postcode": "1605", "phone": "(011) 45806232", "ref_sisa_codigo": 50068612202000, "ref_sisa_tipologia": "ESSIDT", "wikidata": "", "wikipedia": "" }, "geometry": { "type": "Point", "coordinates": [ -58.5363428, -34.5280528 ] } },
{ "type": "Feature", "properties": { "amenity": "clinic", "healthcare": "clinic", "operator": "Municipal", "operator_type": "public", "name": "CAPS URI Paul Harris", "addr_full": "Sargento Cabral 2880", "addr_postcode": "1605", "phone": "011-45806240", "ref_sisa_codigo": 50068612202003, "ref_sisa_tipologia": "ESSIDT", "wikidata": "", "wikipedia": "" }, "geometry": { "type": "Point", "coordinates": [ -58.5187767, -34.5239415 ] } },
{ "type": "Feature", "properties": { "amenity": "clinic", "healthcare": "clinic", "operator": "Municipal", "operator_type": "public", "name": "CAPS URI Ramon Carrillo", "addr_full": "Florentino Ameghino 946", "addr_postcode": "1602", "phone": "", "ref_sisa_codigo": 50068612216370, "ref_sisa_tipologia": "ESSIDT", "wikidata": "", "wikipedia": "" }, "geometry": { "type": "Point", "coordinates": [ -58.511761, -34.543818 ] } },
{ "type": "Feature", "properties": { "amenity": "hospital", "healthcare": "hospital", "operator": "Privado", "operator_type": "private", "name": "Centro De Salud Norte", "addr_full": "Gervasio Mendez 3952", "addr_postcode": "1607", "phone": "(011) 4766-9027", "ref_sisa_codigo": 10067562300081, "ref_sisa_tipologia": "ESCIG", "wikidata": "", "wikipedia": "" }, "geometry": { "type": "Point", "coordinates": [ -58.5361433, -34.5194815 ] } },
{ "type": "Feature", "properties": { "amenity": "hospital", "healthcare": "hospital", "operator": "Privado", "operator_type": "private", "name": "Centro De Salud Norte", "addr_full": "Gervacio Mendez 3968", "addr_postcode": "1607", "phone": "(011) 4756440", "ref_sisa_codigo": 10068612300007, "ref_sisa_tipologia": "ESCIG", "wikidata": "", "wikipedia": "" }, "geometry": { "type": "Point", "coordinates": [ -58.5374491, -34.5183903 ] } },
{ "type": "Feature", "properties": { "amenity": "hospital", "healthcare": "hospital", "operator": "Privado", "operator_type": "private", "name": "Clinica Privada Independencia Sa", "addr_full": "Luis María Drago 5691", "addr_postcode": "7521", "phone": "", "ref_sisa_codigo": 10068612317209, "ref_sisa_tipologia": "ESCIG", "wikidata": "", "wikipedia": "" }, "geometry": { "type": "Point", "coordinates": [ -58.5331627, -34.5392198 ] } },
{ "type": "Feature", "properties": { "amenity": "hospital", "healthcare": "hospital", "operator": "Privado", "operator_type": "private", "name": "Clinica Privada Olivos", "addr_full": "Avenida Maipú 1660", "addr_postcode": "1636", "phone": "", "ref_sisa_codigo": 10068612316750, "ref_sisa_tipologia": "ESCIG", "wikidata": "Q50039667", "wikipedia": "" }, "geometry": { "type": "Point", "coordinates": [ -58.4847815, -34.5227403 ] } },
{ "type": "Feature", "properties": { "amenity": "hospital", "healthcare": "hospital", "operator": "Privado", "operator_type": "private", "name": "Clinica Privada Olivos Sa", "addr_full": "Avenida Maipú 1660", "addr_postcode": "1636", "phone": "", "ref_sisa_codigo": 10068612305020, "ref_sisa_tipologia": "ESCIG", "wikidata": "", "wikipedia": "" }, "geometry": { "type": "Point", "coordinates": [ -58.4847583, -34.5227319 ] } },
{ "type": "Feature", "properties": { "amenity": "hospital", "healthcare": "hospital", "operator": "Privado", "operator_type": "private", "name": "Hospital Privado Modelo", "addr_full": "Julio Argentino Roca 1811", "addr_postcode": "1602", "phone": "(011) 4796-3400", "ref_sisa_codigo": 10068612300348, "ref_sisa_tipologia": "ESCIG", "wikidata": "", "wikipedia": "" }, "geometry": { "type": "Point", "coordinates": [ -58.48609, -34.528506 ] } },
{ "type": "Feature", "properties": { "amenity": "hospital", "healthcare": "hospital", "operator": "Privado", "operator_type": "private", "name": "Hospital Privado Para La Comunidad", "addr_full": "Francisco Beiro 2585", "addr_postcode": "1636", "phone": "", "ref_sisa_codigo": 10068612305064, "ref_sisa_tipologia": "ESCIG", "wikidata": "", "wikipedia": "" }, "geometry": { "type": "Point", "coordinates": [ -58.5080768, -34.5214464 ] } },
{ "type": "Feature", "properties": { "amenity": "clinic", "healthcare": "clinic", "operator": "Provincial", "operator_type": "public", "name": "Hospital Zonal Esp. En Odontologia  Y Ortodoncia J. Ubaldo Carrea", "addr_full": "Juan De Garay 2478", "addr_postcode": "1636", "phone": "011-47943818\/38", "ref_sisa_codigo": 50068612116757, "ref_sisa_tipologia": "ESSIDT", "wikidata": "", "wikipedia": "" }, "geometry": { "type": "Point", "coordinates": [ -58.4911238, -34.5132371 ] } },
{ "type": "Feature", "properties": { "amenity": "clinic", "healthcare": "clinic", "operator": "Provincial", "operator_type": "public", "name": "Hospital Zonal Especializado Agudos Y Cronicos Doctor Cetrangolo", "addr_full": "Italia 1750", "addr_postcode": "1602", "phone": "(011) 4791-2090", "ref_sisa_codigo": 14068612100663, "ref_sisa_tipologia": "ESCIE", "wikidata": "", "wikipedia": "" }, "geometry": { "type": "Point", "coordinates": [ -58.4894758, -34.5215866 ] } },
{ "type": "Feature", "properties": { "amenity": "hospital", "healthcare": "hospital", "operator": "Privado", "operator_type": "private", "name": "Posada De Convalecientes Loyola", "addr_full": "Adolfo Alsina 2311", "addr_postcode": "1602", "phone": "", "ref_sisa_codigo": 10068612317461, "ref_sisa_tipologia": "ESCIG", "wikidata": "", "wikipedia": "" }, "geometry": { "type": "Point", "coordinates": [ -58.4881666, -34.5391552 ] } },
{ "type": "Feature", "properties": { "amenity": "hospital", "healthcare": "hospital", "operator": "Privado", "operator_type": "private", "name": "Sanatorio Mariano Pelliza", "addr_full": "Esteban Echeverría 3150", "addr_postcode": "1605", "phone": "011-4001-3400", "ref_sisa_codigo": 10068612305004, "ref_sisa_tipologia": "ESCIG", "wikidata": "", "wikipedia": "" }, "geometry": { "type": "Point", "coordinates": [ -58.5164345, -34.5186982 ] } },
{ "type": "Feature", "properties": { "amenity": "hospital", "healthcare": "hospital", "operator": "Privado", "operator_type": "private", "name": "Sanatorio Panamericano Munro", "addr_full": "Panamericana 3150", "addr_postcode": "1605", "phone": "4756-4440", "ref_sisa_codigo": 10068612304994, "ref_sisa_tipologia": "ESCIG", "wikidata": "", "wikipedia": "" }, "geometry": { "type": "Point", "coordinates": [ -58.5141678, -34.520092 ] } },
{ "type": "Feature", "properties": { "amenity": "hospital", "healthcare": "hospital", "operator": "Privado", "operator_type": "private", "name": "Sanatorio Vicente Lopez", "addr_full": "San Martín 2142", "addr_postcode": "1602", "phone": "", "ref_sisa_codigo": 10068612305062, "ref_sisa_tipologia": "ESCIG", "wikidata": "", "wikipedia": "" }, "geometry": { "type": "Point", "coordinates": [ -58.491654, -34.527902 ] } },
{ "type": "Feature", "properties": { "amenity": "clinic", "healthcare": "clinic", "operator": "Municipal", "operator_type": "public", "name": "UAP Blanca Eloisa Rodriguez De Acosta", "addr_full": "Mariquita Sanchez De Thompson 1141", "addr_postcode": "1602", "phone": "011-45750150", "ref_sisa_codigo": 50068612201997, "ref_sisa_tipologia": "ESSIDT", "wikidata": "", "wikipedia": "" }, "geometry": { "type": "Point", "coordinates": [ -58.5217083, -34.5462329 ] } },
{ "type": "Feature", "properties": { "amenity": "clinic", "healthcare": "clinic", "operator": "Municipal", "operator_type": "public", "name": "Unidad De Atencion Primaria Angel Chavez", "addr_full": "Bolivia 1017", "addr_postcode": "1602", "phone": "(011) 4513-1951", "ref_sisa_codigo": 50068612201995, "ref_sisa_tipologia": "ESSIDT", "wikidata": "", "wikipedia": "" }, "geometry": { "type": "Point", "coordinates": [ -58.509716, -34.5421959 ] } },
{ "type": "Feature", "properties": { "amenity": "clinic", "healthcare": "clinic", "operator": "Municipal", "operator_type": "public", "name": "Unidad De Atencion Primaria Doctor Arcuri", "addr_full": "Tucumán 3339", "addr_postcode": "1638", "phone": "", "ref_sisa_codigo": 50068612215008, "ref_sisa_tipologia": "ESSIDT", "wikidata": "", "wikipedia": "" }, "geometry": { "type": "Point", "coordinates": [ -58.4927535, -34.5032404 ] } },
{ "type": "Feature", "properties": { "amenity": "clinic", "healthcare": "clinic", "operator": "Municipal", "operator_type": "public", "name": "Unidad De Atencion Primaria Doctor B. Aguirre", "addr_full": "Sto. Baigorria 2461", "addr_postcode": "1605", "phone": "011-47979320", "ref_sisa_codigo": 50068612201999, "ref_sisa_tipologia": "ESSIDT", "wikidata": "", "wikipedia": "" }, "geometry": { "type": "Point", "coordinates": [ -58.5242157, -34.5311953 ] } },
{ "type": "Feature", "properties": { "amenity": "clinic", "healthcare": "clinic", "operator": "Municipal", "operator_type": "public", "name": "Unidad De Atencion Primaria Doctor Llobera", "addr_full": "Estados Unidos 314", "addr_postcode": "1603", "phone": "(011) 4513-1941", "ref_sisa_codigo": 50068612202001, "ref_sisa_tipologia": "ESSIDT", "wikidata": "", "wikipedia": "" }, "geometry": { "type": "Point", "coordinates": [ -58.5024263, -34.547042 ] } },
{ "type": "Feature", "properties": { "amenity": "clinic", "healthcare": "clinic", "operator": "Municipal", "operator_type": "public", "name": "Unidad Sanitaria 12 De Octubre De Vicente Lopez", "addr_full": "General José María Paz 3645", "addr_postcode": "1636", "phone": "(011) 4513-9862", "ref_sisa_codigo": 50068612202922, "ref_sisa_tipologia": "ESSIDT", "wikidata": "", "wikipedia": "" }, "geometry": { "type": "Point", "coordinates": [ -58.50469, -34.507648 ] } },
{ "type": "Feature", "properties": { "amenity": "clinic", "healthcare": "clinic", "operator": "Municipal", "operator_type": "public", "name": "Unidad Sanitaria Barrio 25 De Mayo", "addr_full": "Rafael Obligado 5280", "addr_postcode": "1638", "phone": "", "ref_sisa_codigo": 50068612215007, "ref_sisa_tipologia": "ESSIDT", "wikidata": "", "wikipedia": "" }, "geometry": { "type": "Point", "coordinates": [ -58.5343154, -34.5184688 ] } },
{ "type": "Feature", "properties": { "amenity": "clinic", "healthcare": "clinic", "operator": "Municipal", "operator_type": "public", "name": "Unidad Sanitaria Doctor Arturo Illia De Olivos", "addr_full": "Cnel. Uzal 3244", "addr_postcode": "1636", "phone": "(011) 4513-9864", "ref_sisa_codigo": 50068612202216, "ref_sisa_tipologia": "ESSIDT", "wikidata": "", "wikipedia": "" }, "geometry": { "type": "Point", "coordinates": [ -58.5126774, -34.515916 ] } },
{ "type": "Feature", "properties": { "amenity": "clinic", "healthcare": "clinic", "operator": "Municipal", "operator_type": "public", "name": "Unidad Sanitaria Doctor Rotjer", "addr_full": "Domingo Faustino Sarmiento 3551", "addr_postcode": "1638", "phone": "011-45139863", "ref_sisa_codigo": 50068612202249, "ref_sisa_tipologia": "ESSIDT", "wikidata": "", "wikipedia": "" }, "geometry": { "type": "Point", "coordinates": [ -58.4973457, -34.5055655 ] } },
{ "type": "Feature", "properties": { "amenity": "clinic", "healthcare": "clinic", "operator": "Municipal", "operator_type": "public", "name": "Unidad Sanitaria El Ceibo", "addr_full": "Capitán Justo G. De Bermúdez 200", "addr_postcode": "1636", "phone": "011-45136421", "ref_sisa_codigo": 50068612202262, "ref_sisa_tipologia": "ESSIDT", "wikidata": "", "wikipedia": "" }, "geometry": { "type": "Point", "coordinates": [ -58.4824564, -34.4967456 ] } },
{ "type": "Feature", "properties": { "amenity": "clinic", "healthcare": "clinic", "operator": "Municipal", "operator_type": "public", "name": "Unidad Sanitaria Marzano", "addr_full": "Villate 3675", "addr_postcode": "1605", "phone": "011- 45806234", "ref_sisa_codigo": 50068612202445, "ref_sisa_tipologia": "ESSIDT", "wikidata": "", "wikipedia": "" }, "geometry": { "type": "Point", "coordinates": [ -58.5115869, -34.527516 ] } },
{ "type": "Feature", "properties": { "amenity": "clinic", "healthcare": "clinic", "operator": "Municipal", "operator_type": "public", "name": "Unidad Sanitaria Sargento Cabral", "addr_full": "Sargento Cabral 3221 - Munro", "addr_postcode": "1605", "phone": "011-45806235", "ref_sisa_codigo": 50068612202837, "ref_sisa_tipologia": "ESSIDT", "wikidata": "", "wikipedia": "" }, "geometry": { "type": "Point", "coordinates": [ -58.5223356, -34.5205993 ] } }
]
}
