{
"type": "FeatureCollection",
"name": "008-quilmes",
"features": [
{ "type": "Feature", "properties": { "amenity": "clinic", "healthcare": "clinic", "operator": "Municipal", "operator_type": "public", "name": "Centro Asistencial Municipal Don Bosco", "addr_full": "Coronel Pringles 1010", "addr_postcode": "1876", "phone": "011-42516395", "ref_sisa_codigo": 50060582201095, "ref_sisa_tipologia": "ESSIDT", "wikidata": "", "wikipedia": "" }, "geometry": { "type": "Point", "coordinates": [ -58.2937561, -34.7053671 ] } },
{ "type": "Feature", "properties": { "amenity": "clinic", "healthcare": "clinic", "operator": "Municipal", "operator_type": "public", "name": "Centro Asistencial Villa Del Carmen", "addr_full": "Presidente Peron Entre Paliche Y Belgrano", "addr_postcode": "1879", "phone": "", "ref_sisa_codigo": 50060582201103, "ref_sisa_tipologia": "ESSIDT", "wikidata": "", "wikipedia": "" }, "geometry": { "type": "Point", "coordinates": [ -58.249515, -34.721286 ] } },
{ "type": "Feature", "properties": { "amenity": "clinic", "healthcare": "clinic", "operator": "Municipal", "operator_type": "public", "name": "Centro De Salud Villa Canto", "addr_full": "Anibal Troilo 1953 - Villa Canto", "addr_postcode": "2900", "phone": "", "ref_sisa_codigo": 50067632201365, "ref_sisa_tipologia": "ESSIDT", "wikidata": "", "wikipedia": "" }, "geometry": { "type": "Point", "coordinates": [ -58.2936233, -34.7559605 ] } },
{ "type": "Feature", "properties": { "amenity": "hospital", "healthcare": "hospital", "operator": "Privado", "operator_type": "private", "name": "Centro Medico San Martin", "addr_full": "Avenida San Martín 5537", "addr_postcode": "1882", "phone": "", "ref_sisa_codigo": 10060582305269, "ref_sisa_tipologia": "ESCIG", "wikidata": "", "wikipedia": "" }, "geometry": { "type": "Point", "coordinates": [ -58.232043, -34.7531028 ] } },
{ "type": "Feature", "properties": { "amenity": "clinic", "healthcare": "clinic", "operator": "Municipal", "operator_type": "public", "name": "Centro Municipal Antirrabico - Quilmes", "addr_full": "Alberdi 518 E\/ Pringles Y Belgrano", "addr_postcode": "1878", "phone": "011-42571658", "ref_sisa_codigo": 50060582201442, "ref_sisa_tipologia": "ESSIDT", "wikidata": "", "wikipedia": "" }, "geometry": { "type": "Point", "coordinates": [ -58.2550778, -34.7139832 ] } },
{ "type": "Feature", "properties": { "amenity": "clinic", "healthcare": "clinic", "operator": "Municipal", "operator_type": "public", "name": "Centro Radioenlace Para Emergencias Medicas", "addr_full": "Sarmiento 625 - Piso 13", "addr_postcode": "1879", "phone": "", "ref_sisa_codigo": 50060582201500, "ref_sisa_tipologia": "ESSIDT", "wikidata": "", "wikipedia": "" }, "geometry": { "type": "Point", "coordinates": [ -58.2534873, -34.7204081 ] } },
{ "type": "Feature", "properties": { "amenity": "clinic", "healthcare": "clinic", "operator": "Municipal", "operator_type": "public", "name": "Cic La Paz", "addr_full": "Calle 829 Y 802 (Calle Eva Peron)", "addr_postcode": "1881", "phone": "011-4270-6190", "ref_sisa_codigo": 50060582201520, "ref_sisa_tipologia": "ESSIDT", "wikidata": "", "wikipedia": "" }, "geometry": { "type": "Point", "coordinates": [ -58.329771, -34.748292 ] } },
{ "type": "Feature", "properties": { "amenity": "hospital", "healthcare": "hospital", "operator": "Privado", "operator_type": "private", "name": "Clinica Calchaqui 19 De Enero", "addr_full": "Av. Calchaquí 24", "addr_postcode": "1878", "phone": "(011) 42420532", "ref_sisa_codigo": 10060582300021, "ref_sisa_tipologia": "ESCIG", "wikidata": "", "wikipedia": "" }, "geometry": { "type": "Point", "coordinates": [ -58.2997656, -34.7288985 ] } },
{ "type": "Feature", "properties": { "amenity": "hospital", "healthcare": "hospital", "operator": "Privado", "operator_type": "private", "name": "Clinica Ceni Sa", "addr_full": "Andrés Baranda 1085", "addr_postcode": "1878", "phone": "(011) 4224-0020", "ref_sisa_codigo": 10060582300023, "ref_sisa_tipologia": "ESCIG", "wikidata": "", "wikipedia": "" }, "geometry": { "type": "Point", "coordinates": [ -58.2688023, -34.7261814 ] } },
{ "type": "Feature", "properties": { "amenity": "hospital", "healthcare": "hospital", "operator": "Privado", "operator_type": "private", "name": "Clinica Privada 24 De Septiembre", "addr_full": "Zeballos 1491", "addr_postcode": "1870", "phone": "", "ref_sisa_codigo": 10060352305215, "ref_sisa_tipologia": "ESCIG", "wikidata": "", "wikipedia": "" }, "geometry": { "type": "Point", "coordinates": [ -58.3037173, -34.7218713 ] } },
{ "type": "Feature", "properties": { "amenity": "hospital", "healthcare": "hospital", "operator": "Privado", "operator_type": "private", "name": "Clinica Privada General Belgrano", "addr_full": "Camino Gral. Belgrano 960", "addr_postcode": "1878", "phone": "(011) 42005935", "ref_sisa_codigo": 10060582300116, "ref_sisa_tipologia": "ESCIG", "wikidata": "", "wikipedia": "" }, "geometry": { "type": "Point", "coordinates": [ -58.3211374, -34.7378126 ] } },
{ "type": "Feature", "properties": { "amenity": "hospital", "healthcare": "hospital", "operator": "Privado", "operator_type": "private", "name": "Clinica Privada Instituto Medico Modelo", "addr_full": "Calle 841 2469", "addr_postcode": "1881", "phone": "(011) 4212-5555", "ref_sisa_codigo": 10060582300420, "ref_sisa_tipologia": "ESCIG", "wikidata": "", "wikipedia": "" }, "geometry": { "type": "Point", "coordinates": [ -58.3122043, -34.777726 ] } },
{ "type": "Feature", "properties": { "amenity": "hospital", "healthcare": "hospital", "operator": "Privado", "operator_type": "private", "name": "Clinica Privada Lujan", "addr_full": "Buenos Aires 50", "addr_postcode": "1888", "phone": "(011) 4255-3130", "ref_sisa_codigo": 10062742300130, "ref_sisa_tipologia": "ESCIG", "wikidata": "", "wikipedia": "" }, "geometry": { "type": "Point", "coordinates": [ -58.2405062, -34.7467416 ] } },
{ "type": "Feature", "properties": { "amenity": "hospital", "healthcare": "hospital", "operator": "Privado", "operator_type": "private", "name": "Clinica Privada Sanatorio Alberdi Sa", "addr_full": "Alberdi 233", "addr_postcode": "1878", "phone": "(011) 42549320", "ref_sisa_codigo": 10060582300437, "ref_sisa_tipologia": "ESCIG", "wikidata": "", "wikipedia": "" }, "geometry": { "type": "Point", "coordinates": [ -58.2605639, -34.7166668 ] } },
{ "type": "Feature", "properties": { "amenity": "hospital", "healthcare": "hospital", "operator": "Privado", "operator_type": "private", "name": "Clinica Privada Sanatorio Urquiza", "addr_full": "Urquiza 1537", "addr_postcode": "1878", "phone": "(011) 4257-1212", "ref_sisa_codigo": 10060582300165, "ref_sisa_tipologia": "ESCIG", "wikidata": "", "wikipedia": "" }, "geometry": { "type": "Point", "coordinates": [ -58.270014, -34.7317321 ] } },
{ "type": "Feature", "properties": { "amenity": "hospital", "healthcare": "hospital", "operator": "Privado", "operator_type": "private", "name": "Clinica Privada Santa Lucia", "addr_full": "Almirante Brown 438", "addr_postcode": "1878", "phone": "(011) 4224-1151", "ref_sisa_codigo": 10060582300166, "ref_sisa_tipologia": "ESCIG", "wikidata": "", "wikipedia": "" }, "geometry": { "type": "Point", "coordinates": [ -58.2582798, -34.7189258 ] } },
{ "type": "Feature", "properties": { "amenity": "hospital", "healthcare": "hospital", "operator": "Privado", "operator_type": "private", "name": "Clinica Solano Medical Center", "addr_full": "Calle 843 2632", "addr_postcode": "1881", "phone": "", "ref_sisa_codigo": 10060582305335, "ref_sisa_tipologia": "ESCIG", "wikidata": "", "wikipedia": "" }, "geometry": { "type": "Point", "coordinates": [ -58.3151722, -34.7813024 ] } },
{ "type": "Feature", "properties": { "amenity": "hospital", "healthcare": "hospital", "operator": "Mixta", "operator_type": "private", "name": "Hospital De Alta Complejidad El Cruce", "addr_full": "Avenida Calchaquí 5401", "addr_postcode": "1888", "phone": "(011) 4210-9000", "ref_sisa_codigo": 10062742100205, "ref_sisa_tipologia": "ESCIG", "wikidata": "Q50036667", "wikipedia": "" }, "geometry": { "type": "Point", "coordinates": [ -58.2697571, -34.7708411 ] } },
{ "type": "Feature", "properties": { "amenity": "hospital", "healthcare": "hospital", "operator": "Provincial", "operator_type": "public", "name": "Hospital Zonal General Agudos Doctor Isidoro Iriarte", "addr_full": "Allison Bell 770", "addr_postcode": "1878", "phone": "4253-6021", "ref_sisa_codigo": 10060582100385, "ref_sisa_tipologia": "ESCIG", "wikidata": "", "wikipedia": "" }, "geometry": { "type": "Point", "coordinates": [ -58.2469613, -34.7204471 ] } },
{ "type": "Feature", "properties": { "amenity": "clinic", "healthcare": "clinic", "operator": "Municipal", "operator_type": "public", "name": "Instituto Municipal De Salud Publica San Francisco Solano", "addr_full": "Jose Andres Lopez 2250", "addr_postcode": "1881", "phone": "(011) 4212-2481\/9721", "ref_sisa_codigo": 50060582201651, "ref_sisa_tipologia": "ESSIDT", "wikidata": "", "wikipedia": "" }, "geometry": { "type": "Point", "coordinates": [ -58.3089709, -34.7783544 ] } },
{ "type": "Feature", "properties": { "amenity": "hospital", "healthcare": "hospital", "operator": "Obra social", "operator_type": "private", "name": "Policlinica Felipe Vallese", "addr_full": "José De San Martín 401", "addr_postcode": "1878", "phone": "", "ref_sisa_codigo": 10060582700431, "ref_sisa_tipologia": "ESCIG", "wikidata": "", "wikipedia": "" }, "geometry": { "type": "Point", "coordinates": [ -58.2614317, -34.7201901 ] } },
{ "type": "Feature", "properties": { "amenity": "clinic", "healthcare": "clinic", "operator": "Municipal", "operator_type": "public", "name": "Posta Sanitaria Municipal Quilmes Gral. Belgrano", "addr_full": "Avenida General Mosconi 4975", "addr_postcode": "1879", "phone": "", "ref_sisa_codigo": 50060582201752, "ref_sisa_tipologia": "ESSIDT", "wikidata": "", "wikipedia": "" }, "geometry": { "type": "Point", "coordinates": [ -58.2831531, -34.7703286 ] } },
{ "type": "Feature", "properties": { "amenity": "clinic", "healthcare": "clinic", "operator": "Municipal", "operator_type": "public", "name": "Sala De Primeros Auxilios Doctor Elias Tanus", "addr_full": "Ricardo Rojas 3820", "addr_postcode": "1879", "phone": "011-42500012", "ref_sisa_codigo": 50060582201817, "ref_sisa_tipologia": "ESSIDT", "wikidata": "", "wikipedia": "" }, "geometry": { "type": "Point", "coordinates": [ -58.2684245, -34.7561747 ] } },
{ "type": "Feature", "properties": { "amenity": "hospital", "healthcare": "hospital", "operator": "Privado", "operator_type": "private", "name": "Sanatorio Bernal", "addr_full": "Avenida San Martín 572", "addr_postcode": "1876", "phone": "(011) 4251-3737", "ref_sisa_codigo": 10060582300441, "ref_sisa_tipologia": "ESCIG", "wikidata": "", "wikipedia": "" }, "geometry": { "type": "Point", "coordinates": [ -58.2832108, -34.7087494 ] } },
{ "type": "Feature", "properties": { "amenity": "hospital", "healthcare": "hospital", "operator": "Privado", "operator_type": "private", "name": "Sanatorio De La Trinidad Quilmes", "addr_full": "Avenida Carlos Pellegrini 499", "addr_postcode": "1878", "phone": "(011) 4365-0500", "ref_sisa_codigo": 10060582300448, "ref_sisa_tipologia": "ESCIG", "wikidata": "", "wikipedia": "" }, "geometry": { "type": "Point", "coordinates": [ -58.2659, -34.7259614 ] } },
{ "type": "Feature", "properties": { "amenity": "hospital", "healthcare": "hospital", "operator": "Privado", "operator_type": "private", "name": "Sanatorio Modelo Quilmes", "addr_full": "Andrés Baranda 282", "addr_postcode": "1878", "phone": "011-42574404", "ref_sisa_codigo": 10060582300459, "ref_sisa_tipologia": "ESCIG", "wikidata": "", "wikipedia": "" }, "geometry": { "type": "Point", "coordinates": [ -58.2737969, -34.7189749 ] } },
{ "type": "Feature", "properties": { "amenity": "hospital", "healthcare": "hospital", "operator": "Obra social", "operator_type": "private", "name": "Sanatorio Policlinico De La Obra Social Para El Personal De La Industria Del Vidrio Y Afines", "addr_full": "Calle Ayacucho y Formosa", "addr_postcode": "1876", "phone": "(011) 42522091", "ref_sisa_codigo": 10060582700463, "ref_sisa_tipologia": "ESCIG", "wikidata": "", "wikipedia": "" }, "geometry": { "type": "Point", "coordinates": [ -58.2980758, -34.7074184 ] } },
{ "type": "Feature", "properties": { "amenity": "clinic", "healthcare": "clinic", "operator": "Municipal", "operator_type": "public", "name": "Subsecretaria De Transporte Y Educacion Vial", "addr_full": "Hipolito Yrigoyen 280", "addr_postcode": "1878", "phone": "", "ref_sisa_codigo": 50060582206895, "ref_sisa_tipologia": "ESSIDT", "wikidata": "", "wikipedia": "" }, "geometry": { "type": "Point", "coordinates": [ -58.2639398, -34.718065 ] } },
{ "type": "Feature", "properties": { "amenity": "clinic", "healthcare": "clinic", "operator": "Municipal", "operator_type": "public", "name": "Unidad Sanitaria 2 Avenidas", "addr_full": "Calle 885 Esq. 803", "addr_postcode": "1881", "phone": "", "ref_sisa_codigo": 50060582202925, "ref_sisa_tipologia": "ESSIDT", "wikidata": "", "wikipedia": "" }, "geometry": { "type": "Point", "coordinates": [ -58.3210688, -34.7442556 ] } },
{ "type": "Feature", "properties": { "amenity": "clinic", "healthcare": "clinic", "operator": "Municipal", "operator_type": "public", "name": "Unidad Sanitaria 2 De Abril De Ezpeleta", "addr_full": "Florida E\/Martín  Rodriguez Y Necochea", "addr_postcode": "1882", "phone": "", "ref_sisa_codigo": 50060582202926, "ref_sisa_tipologia": "ESSIDT", "wikidata": "", "wikipedia": "" }, "geometry": { "type": "Point", "coordinates": [ -58.2540135, -34.763331 ] } },
{ "type": "Feature", "properties": { "amenity": "clinic", "healthcare": "clinic", "operator": "Municipal", "operator_type": "public", "name": "Unidad Sanitaria 8 De Octubre I De Quilmes", "addr_full": "Calle 829 1900", "addr_postcode": "1881", "phone": "", "ref_sisa_codigo": 50060582202939, "ref_sisa_tipologia": "ESSIDT", "wikidata": "", "wikipedia": "" }, "geometry": { "type": "Point", "coordinates": [ -58.3108978, -34.7670504 ] } },
{ "type": "Feature", "properties": { "amenity": "clinic", "healthcare": "clinic", "operator": "Municipal", "operator_type": "public", "name": "Unidad Sanitaria 8 De Octubre Ii De Quilmes", "addr_full": "Calle 815 2680", "addr_postcode": "1881", "phone": "", "ref_sisa_codigo": 50060582202940, "ref_sisa_tipologia": "ESSIDT", "wikidata": "", "wikipedia": "" }, "geometry": { "type": "Point", "coordinates": [ -58.3278372, -34.7615392 ] } },
{ "type": "Feature", "properties": { "amenity": "clinic", "healthcare": "clinic", "operator": "Municipal", "operator_type": "public", "name": "Unidad Sanitaria Alicia Franco", "addr_full": "Calle 132 Entre 194 Y 194 Bis", "addr_postcode": "1876", "phone": "011-42707285", "ref_sisa_codigo": 50060582202049, "ref_sisa_tipologia": "ESSIDT", "wikidata": "", "wikipedia": "" }, "geometry": { "type": "Point", "coordinates": [ -58.3355978, -34.7454289 ] } },
{ "type": "Feature", "properties": { "amenity": "clinic", "healthcare": "clinic", "operator": "Municipal", "operator_type": "public", "name": "Unidad Sanitaria Arturo Illia", "addr_full": "Concordia Y Panama", "addr_postcode": "1882", "phone": "011-42268179", "ref_sisa_codigo": 50060582202063, "ref_sisa_tipologia": "ESSIDT", "wikidata": "", "wikipedia": "" }, "geometry": { "type": "Point", "coordinates": [ -58.2501962, -34.7566507 ] } },
{ "type": "Feature", "properties": { "amenity": "clinic", "healthcare": "clinic", "operator": "Municipal", "operator_type": "public", "name": "Unidad Sanitaria Barrio La Paz De Quilmes", "addr_full": "Calle 888 809", "addr_postcode": "1881", "phone": "", "ref_sisa_codigo": 50060582202097, "ref_sisa_tipologia": "ESSIDT", "wikidata": "", "wikipedia": "" }, "geometry": { "type": "Point", "coordinates": [ -58.3218842, -34.7510788 ] } },
{ "type": "Feature", "properties": { "amenity": "clinic", "healthcare": "clinic", "operator": "Municipal", "operator_type": "public", "name": "Unidad Sanitaria Bernal Oeste", "addr_full": "Alem 1695", "addr_postcode": "1883", "phone": "", "ref_sisa_codigo": 50060582202152, "ref_sisa_tipologia": "ESSIDT", "wikidata": "", "wikipedia": "" }, "geometry": { "type": "Point", "coordinates": [ -58.2451172, -34.7306656 ] } },
{ "type": "Feature", "properties": { "amenity": "clinic", "healthcare": "clinic", "operator": "Municipal", "operator_type": "public", "name": "Unidad Sanitaria Cañada Gaete", "addr_full": "Calle 179 E\/Boedo Y Liniers", "addr_postcode": "1876", "phone": "", "ref_sisa_codigo": 50060582202159, "ref_sisa_tipologia": "ESSIDT", "wikidata": "", "wikipedia": "" }, "geometry": { "type": "Point", "coordinates": [ -58.31991, -34.7374141 ] } },
{ "type": "Feature", "properties": { "amenity": "clinic", "healthcare": "clinic", "operator": "Municipal", "operator_type": "public", "name": "Unidad Sanitaria Diego Paroissien", "addr_full": "Luis Agote E\/ Marcelo. T. De Alvear Y Larrea", "addr_postcode": "1879", "phone": "", "ref_sisa_codigo": 50060582202209, "ref_sisa_tipologia": "ESSIDT", "wikidata": "", "wikipedia": "" }, "geometry": { "type": "Point", "coordinates": [ -58.2545414, -34.7475976 ] } },
{ "type": "Feature", "properties": { "amenity": "clinic", "healthcare": "clinic", "operator": "Municipal", "operator_type": "public", "name": "Unidad Sanitaria Doctor Houssay", "addr_full": "Gral. Paz Y Alberdi", "addr_postcode": "1878", "phone": "", "ref_sisa_codigo": 50060582202233, "ref_sisa_tipologia": "ESSIDT", "wikidata": "", "wikipedia": "" }, "geometry": { "type": "Point", "coordinates": [ -58.256507, -34.714623 ] } },
{ "type": "Feature", "properties": { "amenity": "clinic", "healthcare": "clinic", "operator": "Municipal", "operator_type": "public", "name": "Unidad Sanitaria Dreymar", "addr_full": "Calle 895 E\/819 Y 820", "addr_postcode": "1881", "phone": "", "ref_sisa_codigo": 50060582202256, "ref_sisa_tipologia": "ESSIDT", "wikidata": "", "wikipedia": "" }, "geometry": { "type": "Point", "coordinates": [ -58.3234077, -34.7634015 ] } },
{ "type": "Feature", "properties": { "amenity": "clinic", "healthcare": "clinic", "operator": "Municipal", "operator_type": "public", "name": "Unidad Sanitaria El Hornero", "addr_full": "Mozart 1250", "addr_postcode": "1878", "phone": "", "ref_sisa_codigo": 50060582202265, "ref_sisa_tipologia": "ESSIDT", "wikidata": "", "wikipedia": "" }, "geometry": { "type": "Point", "coordinates": [ -58.2356758, -34.7242533 ] } },
{ "type": "Feature", "properties": { "amenity": "clinic", "healthcare": "clinic", "operator": "Municipal", "operator_type": "public", "name": "Unidad Sanitaria Eva Peron De Quilmes Oeste", "addr_full": "Blas Parera 2800", "addr_postcode": "1879", "phone": "", "ref_sisa_codigo": 50060582202287, "ref_sisa_tipologia": "ESSIDT", "wikidata": "", "wikipedia": "" }, "geometry": { "type": "Point", "coordinates": [ -58.2648411, -34.7428371 ] } },
{ "type": "Feature", "properties": { "amenity": "clinic", "healthcare": "clinic", "operator": "Municipal", "operator_type": "public", "name": "Unidad Sanitaria Isidoro Iriarte De Quilmes", "addr_full": "Calle 392 2288 E\/ Irala Y Ayolas", "addr_postcode": "1881", "phone": "", "ref_sisa_codigo": 50060582202333, "ref_sisa_tipologia": "ESSIDT", "wikidata": "", "wikipedia": "" }, "geometry": { "type": "Point", "coordinates": [ -58.2961586, -34.7535655 ] } },
{ "type": "Feature", "properties": { "amenity": "clinic", "healthcare": "clinic", "operator": "Municipal", "operator_type": "public", "name": "Unidad Sanitaria Islas Malvinas De San Francisco Solano", "addr_full": "Calle 879 4963", "addr_postcode": "1881", "phone": "", "ref_sisa_codigo": 50060582202336, "ref_sisa_tipologia": "ESSIDT", "wikidata": "", "wikipedia": "" }, "geometry": { "type": "Point", "coordinates": [ -58.290998, -34.7744719 ] } },
{ "type": "Feature", "properties": { "amenity": "clinic", "healthcare": "clinic", "operator": "Municipal", "operator_type": "public", "name": "Unidad Sanitaria La Florida", "addr_full": "Calle 880 Entre 832 Y 833", "addr_postcode": "1881", "phone": "", "ref_sisa_codigo": 50060582202365, "ref_sisa_tipologia": "ESSIDT", "wikidata": "", "wikipedia": "" }, "geometry": { "type": "Point", "coordinates": [ -58.3007, -34.764017 ] } },
{ "type": "Feature", "properties": { "amenity": "clinic", "healthcare": "clinic", "operator": "Municipal", "operator_type": "public", "name": "Unidad Sanitaria La Loma", "addr_full": "Misiones E\/178 Y 179", "addr_postcode": "1876", "phone": "011-1551021543", "ref_sisa_codigo": 50060582202367, "ref_sisa_tipologia": "ESSIDT", "wikidata": "", "wikipedia": "" }, "geometry": { "type": "Point", "coordinates": [ -58.3250084, -34.7322835 ] } },
{ "type": "Feature", "properties": { "amenity": "clinic", "healthcare": "clinic", "operator": "Municipal", "operator_type": "public", "name": "Unidad Sanitaria La Primavera", "addr_full": "Calle 390 Entre San Luis Y Intendente Pedro Oliveri", "addr_postcode": "1879", "phone": "", "ref_sisa_codigo": 50060582202377, "ref_sisa_tipologia": "ESSIDT", "wikidata": "", "wikipedia": "" }, "geometry": { "type": "Point", "coordinates": [ -58.3045807, -34.7382614 ] } },
{ "type": "Feature", "properties": { "amenity": "clinic", "healthcare": "clinic", "operator": "Municipal", "operator_type": "public", "name": "Unidad Sanitaria La Rivera (7 De Quilmes)", "addr_full": "De La Merced Entre 19 Bis Y 18 Bis", "addr_postcode": "1878", "phone": "", "ref_sisa_codigo": 50060582202656, "ref_sisa_tipologia": "ESSIDT", "wikidata": "", "wikipedia": "" }, "geometry": { "type": "Point", "coordinates": [ -58.2264748, -34.709779 ] } },
{ "type": "Feature", "properties": { "amenity": "clinic", "healthcare": "clinic", "operator": "Municipal", "operator_type": "public", "name": "Unidad Sanitaria La Sarita", "addr_full": "Catamarca E\/399 Y 399 Bis 4926 Barrio La Sarita", "addr_postcode": "1878", "phone": "", "ref_sisa_codigo": 50060582202380, "ref_sisa_tipologia": "ESSIDT", "wikidata": "", "wikipedia": "" }, "geometry": { "type": "Point", "coordinates": [ -58.315331, -34.7404743 ] } },
{ "type": "Feature", "properties": { "amenity": "clinic", "healthcare": "clinic", "operator": "Municipal", "operator_type": "public", "name": "Unidad Sanitaria La Vera", "addr_full": "Lavalleja E\/L. De La Torre Y Miguel Cané", "addr_postcode": "1879", "phone": "", "ref_sisa_codigo": 50060582202383, "ref_sisa_tipologia": "ESSIDT", "wikidata": "", "wikipedia": "" }, "geometry": { "type": "Point", "coordinates": [ -58.277102, -34.7486281 ] } },
{ "type": "Feature", "properties": { "amenity": "clinic", "healthcare": "clinic", "operator": "Municipal", "operator_type": "public", "name": "Unidad Sanitaria Los Eucaliptos", "addr_full": "Calle 864 E\/899 Y 898", "addr_postcode": "1881", "phone": "", "ref_sisa_codigo": 50060582202421, "ref_sisa_tipologia": "ESSIDT", "wikidata": "", "wikipedia": "" }, "geometry": { "type": "Point", "coordinates": [ -58.3061771, -34.7941739 ] } },
{ "type": "Feature", "properties": { "amenity": "clinic", "healthcare": "clinic", "operator": "Municipal", "operator_type": "public", "name": "Unidad Sanitaria Los Fresnos", "addr_full": "Marconi 1660", "addr_postcode": "1879", "phone": "011-42806093", "ref_sisa_codigo": 50060582202422, "ref_sisa_tipologia": "ESSIDT", "wikidata": "", "wikipedia": "" }, "geometry": { "type": "Point", "coordinates": [ -58.2790976, -34.7381547 ] } },
{ "type": "Feature", "properties": { "amenity": "clinic", "healthcare": "clinic", "operator": "Municipal", "operator_type": "public", "name": "Unidad Sanitaria Monteverde", "addr_full": "Calle 888 E\/855 Y 856", "addr_postcode": "1881", "phone": "", "ref_sisa_codigo": 50060582202457, "ref_sisa_tipologia": "ESSIDT", "wikidata": "", "wikipedia": "" }, "geometry": { "type": "Point", "coordinates": [ -58.2968988, -34.780949 ] } },
{ "type": "Feature", "properties": { "amenity": "clinic", "healthcare": "clinic", "operator": "Municipal", "operator_type": "public", "name": "Unidad Sanitaria 11 Antartida Argentina De Ezpeleta", "addr_full": "Antártida Argentina 1275", "addr_postcode": "1882", "phone": "011-42787243", "ref_sisa_codigo": 50060582202480, "ref_sisa_tipologia": "ESSIDT", "wikidata": "", "wikipedia": "" }, "geometry": { "type": "Point", "coordinates": [ -58.2298153, -34.7373397 ] } },
{ "type": "Feature", "properties": { "amenity": "clinic", "healthcare": "clinic", "operator": "Municipal", "operator_type": "public", "name": "Unidad Sanitaria 3 Santa Maria De Quilmes", "addr_full": "Los Andes Y Malvinas Argentinas", "addr_postcode": "1876", "phone": "011-4270-1900", "ref_sisa_codigo": 50060582202595, "ref_sisa_tipologia": "ESSIDT", "wikidata": "", "wikipedia": "" }, "geometry": { "type": "Point", "coordinates": [ -58.3223562, -34.7245408 ] } },
{ "type": "Feature", "properties": { "amenity": "clinic", "healthcare": "clinic", "operator": "Municipal", "operator_type": "public", "name": "Unidad Sanitaria 9 Pedro Elustordo De Quilmes", "addr_full": "Avellaneda 1147", "addr_postcode": "1876", "phone": "011-42520101", "ref_sisa_codigo": 50060582202683, "ref_sisa_tipologia": "ESSIDT", "wikidata": "", "wikipedia": "" }, "geometry": { "type": "Point", "coordinates": [ -58.2972937, -34.7211899 ] } },
{ "type": "Feature", "properties": { "amenity": "clinic", "healthcare": "clinic", "operator": "Municipal", "operator_type": "public", "name": "Unidad Sanitaria Rene Favaloro", "addr_full": "Guido Entre Toledo (Calle 72) Y  Sardou (Calle 73)", "addr_postcode": "1878", "phone": "", "ref_sisa_codigo": 50060582202752, "ref_sisa_tipologia": "ESSIDT", "wikidata": "", "wikipedia": "" }, "geometry": { "type": "Point", "coordinates": [ -58.2347574, -34.7195241 ] } },
{ "type": "Feature", "properties": { "amenity": "clinic", "healthcare": "clinic", "operator": "Municipal", "operator_type": "public", "name": "Unidad Sanitaria San Martin De Quilmes", "addr_full": "Calle 826 Entre 895 Y 896", "addr_postcode": "1881", "phone": "", "ref_sisa_codigo": 50060582202799, "ref_sisa_tipologia": "ESSIDT", "wikidata": "", "wikipedia": "" }, "geometry": { "type": "Point", "coordinates": [ -58.321128, -34.769472 ] } },
{ "type": "Feature", "properties": { "amenity": "clinic", "healthcare": "clinic", "operator": "Municipal", "operator_type": "public", "name": "Unidad Sanitaria Va. Alcira", "addr_full": "Lago Alumine E\/Ramella Y Tacuari", "addr_postcode": "1883", "phone": "", "ref_sisa_codigo": 50060582202856, "ref_sisa_tipologia": "ESSIDT", "wikidata": "", "wikipedia": "" }, "geometry": { "type": "Point", "coordinates": [ -58.2822475, -34.7006563 ] } },
{ "type": "Feature", "properties": { "amenity": "clinic", "healthcare": "clinic", "operator": "Municipal", "operator_type": "public", "name": "Unidad Sanitaria Villa Augusta", "addr_full": "Bahia Blanca 4735", "addr_postcode": "1882", "phone": "", "ref_sisa_codigo": 50060582202870, "ref_sisa_tipologia": "ESSIDT", "wikidata": "", "wikipedia": "" }, "geometry": { "type": "Point", "coordinates": [ -58.2470312, -34.7552315 ] } },
{ "type": "Feature", "properties": { "amenity": "clinic", "healthcare": "clinic", "operator": "Municipal", "operator_type": "public", "name": "Unidad Sanitaria Villa Azul", "addr_full": "Sargento Cabral Entre Chubut Y Dr. Caviglia", "addr_postcode": "1883", "phone": "", "ref_sisa_codigo": 50060582202872, "ref_sisa_tipologia": "ESSIDT", "wikidata": "", "wikipedia": "" }, "geometry": { "type": "Point", "coordinates": [ -58.308567, -34.704306 ] } },
{ "type": "Feature", "properties": { "amenity": "clinic", "healthcare": "clinic", "operator": "Municipal", "operator_type": "public", "name": "Unidad Sanitaria Villa Itati Ii", "addr_full": "Falucho 1146", "addr_postcode": "1883", "phone": "011-1561915412", "ref_sisa_codigo": 50060582202890, "ref_sisa_tipologia": "ESSIDT", "wikidata": "", "wikipedia": "" }, "geometry": { "type": "Point", "coordinates": [ -58.2490962, -34.7309468 ] } },
{ "type": "Feature", "properties": { "amenity": "clinic", "healthcare": "clinic", "operator": "Municipal", "operator_type": "public", "name": "Unidad Sanitaria Villa Lujan", "addr_full": "Mozart 620", "addr_postcode": "1878", "phone": "011-4254-7303", "ref_sisa_codigo": 50060582202894, "ref_sisa_tipologia": "ESSIDT", "wikidata": "", "wikipedia": "" }, "geometry": { "type": "Point", "coordinates": [ -58.2443168, -34.7155591 ] } },
{ "type": "Feature", "properties": { "amenity": "clinic", "healthcare": "clinic", "operator": "Municipal", "operator_type": "public", "name": "Unidada Sanitaria 25 De Mayo De Quilmes", "addr_full": "Suboficial Pte.  Roque Cisterna Entre 186 Y 187", "addr_postcode": "1883", "phone": "", "ref_sisa_codigo": 50060582202945, "ref_sisa_tipologia": "ESSIDT", "wikidata": "", "wikipedia": "" }, "geometry": { "type": "Point", "coordinates": [ -58.3292871, -34.7388071 ] } }
]
}
