{
"type": "FeatureCollection",
"name": "009-exaltacion_de_la_cruz",
"features": [
{ "type": "Feature", "properties": { "amenity": "clinic", "healthcare": "clinic", "operator": "Municipal", "operator_type": "public", "name": "Centro Asistencial Barrio Chenaut Sala Los Ombues", "addr_full": "Ruta 193 Km. 22.500", "addr_postcode": "2812", "phone": "02323-478999", "ref_sisa_codigo": 50062662201089, "ref_sisa_tipologia": "ESSIDT", "wikidata": "", "wikipedia": "" }, "geometry": { "type": "Point", "coordinates": [ -59.0980339, -34.2909774 ] } },
{ "type": "Feature", "properties": { "amenity": "hospital", "healthcare": "hospital", "operator": "Municipal", "operator_type": "public", "name": "Hospital Municipal San Jose", "addr_full": "Luis Mar√≠a Migliaro 966", "addr_postcode": "2812", "phone": "", "ref_sisa_codigo": 10062662207080, "ref_sisa_tipologia": "ESCIG", "wikidata": "", "wikipedia": "" }, "geometry": { "type": "Point", "coordinates": [ -59.1038758, -34.2877531 ] } },
{ "type": "Feature", "properties": { "amenity": "clinic", "healthcare": "clinic", "operator": "Municipal", "operator_type": "public", "name": "Sala De Primeros Auxilios Cruz Parada Robles", "addr_full": "Ruta 39 Km. 1", "addr_postcode": "6703", "phone": "02323-473100", "ref_sisa_codigo": 50062662201809, "ref_sisa_tipologia": "ESSIDT", "wikidata": "", "wikipedia": "" }, "geometry": { "type": "Point", "coordinates": [ -59.0500717, -34.3723168 ] } },
{ "type": "Feature", "properties": { "amenity": "clinic", "healthcare": "clinic", "operator": "Municipal", "operator_type": "public", "name": "Sala De Primeros Auxilios Diego Gaynor", "addr_full": "Formosa S\/N", "addr_postcode": "2812", "phone": "02326-451041", "ref_sisa_codigo": 50062662201815, "ref_sisa_tipologia": "ESSIDT", "wikidata": "", "wikipedia": "" }, "geometry": { "type": "Point", "coordinates": [ -59.2366333, -34.2718573 ] } },
{ "type": "Feature", "properties": { "amenity": "clinic", "healthcare": "clinic", "operator": "Municipal", "operator_type": "public", "name": "Sala De Primeros Auxilios Los Cardales", "addr_full": "9 De Julio 74", "addr_postcode": "2814", "phone": "02322-492255", "ref_sisa_codigo": 50062662201852, "ref_sisa_tipologia": "ESSIDT", "wikidata": "", "wikipedia": "" }, "geometry": { "type": "Point", "coordinates": [ -58.9854198, -34.3303227 ] } },
{ "type": "Feature", "properties": { "amenity": "clinic", "healthcare": "clinic", "operator": "Municipal", "operator_type": "public", "name": "Sala De Primeros Auxilios Pavon", "addr_full": "Ruta 39 Km. 1", "addr_postcode": "2812", "phone": "02323-473100", "ref_sisa_codigo": 50062662201874, "ref_sisa_tipologia": "ESSIDT", "wikidata": "", "wikipedia": "" }, "geometry": { "type": "Point", "coordinates": [ -59.0497799, -34.3730465 ] } },
{ "type": "Feature", "properties": { "amenity": "clinic", "healthcare": "clinic", "operator": "Municipal", "operator_type": "public", "name": "Sala Primeros Auxilios Barrio Esperanza", "addr_full": "Peru Y Republica Argentina Barrio Esperanza", "addr_postcode": "2812", "phone": "", "ref_sisa_codigo": 50062662201960, "ref_sisa_tipologia": "ESSIDT", "wikidata": "", "wikipedia": "" }, "geometry": { "type": "Point", "coordinates": [ -59.1119385, -34.2833186 ] } }
]
}
