{
"type": "FeatureCollection",
"name": "010-comuna_14",
"features": [
{ "type": "Feature", "properties": { "amenity": "clinic", "healthcare": "clinic", "operator": "Municipal", "operator_type": "public", "name": "CESAC 17", "addr_full": "El Salvador 4037", "addr_postcode": "1425", "phone": "4862-1886", "ref_sisa_codigo": 50020012117479, "ref_sisa_tipologia": "ESSIDT", "wikidata": "Q90206223", "wikipedia": "" }, "geometry": { "type": "Point", "coordinates": [ -58.4199286, -34.5928022 ] } },
{ "type": "Feature", "properties": { "amenity": "clinic", "healthcare": "clinic", "operator": "Municipal", "operator_type": "public", "name": "CESAC 26", "addr_full": "Gurruchaga 1939", "addr_postcode": "1414", "phone": "(011) 4778-0365", "ref_sisa_codigo": 50020012115359, "ref_sisa_tipologia": "ESSIDT", "wikidata": "Q90206204", "wikipedia": "" }, "geometry": { "type": "Point", "coordinates": [ -58.4258331, -34.587182 ] } },
{ "type": "Feature", "properties": { "amenity": "clinic", "healthcare": "clinic", "operator": "Municipal", "operator_type": "public", "name": "CESAC 33", "addr_full": "Cordoba 5741", "addr_postcode": "1414", "phone": "(011) 5197-5078\/79", "ref_sisa_codigo": 50020012115367, "ref_sisa_tipologia": "ESSIDT", "wikidata": "Q90206193", "wikipedia": "" }, "geometry": { "type": "Point", "coordinates": [ -58.4417039, -34.5862205 ] } },
{ "type": "Feature", "properties": { "amenity": "hospital", "healthcare": "hospital", "operator": "Privado", "operator_type": "private", "name": "Clinica Zabala", "addr_full": "Cabildo 1295", "addr_postcode": "1426", "phone": "5236-8500", "ref_sisa_codigo": 10020132318936, "ref_sisa_tipologia": "ESCIG", "wikidata": "Q93140081", "wikipedia": "" }, "geometry": { "type": "Point", "coordinates": [ -58.4486163, -34.5675971 ] } },
{ "type": "Feature", "properties": { "amenity": "clinic", "healthcare": "clinic", "operator": "Municipal", "operator_type": "public", "name": "CMB 22", "addr_full": "Araoz 2637", "addr_postcode": "1425", "phone": "(011) 4831-7642", "ref_sisa_codigo": 50020012115400, "ref_sisa_tipologia": "ESSIDT", "wikidata": "", "wikipedia": "" }, "geometry": { "type": "Point", "coordinates": [ -58.4138255, -34.5849632 ] } },
{ "type": "Feature", "properties": { "amenity": "hospital", "healthcare": "hospital", "operator": "Municipal", "operator_type": "public", "name": "Hospital General De Agudos Doctor Juan A. Fernandez", "addr_full": "Cervińo 3356", "addr_postcode": "", "phone": "(011) 4808-2600", "ref_sisa_codigo": 10020012215220, "ref_sisa_tipologia": "ESCIG", "wikidata": "Q13360048", "wikipedia": "ES:Hospital Fernández" }, "geometry": { "type": "Point", "coordinates": [ -58.407011, -34.5814611 ] } },
{ "type": "Feature", "properties": { "amenity": "hospital", "healthcare": "hospital", "operator": "FFAA\/Seguridad", "operator_type": "public", "name": "Hospital Militar Central Cirujano Mayor Doctor Cosme Argerich", "addr_full": "Avenida Luis María Campos 726", "addr_postcode": "1426", "phone": "011- 4576-5657", "ref_sisa_codigo": 10020012415224, "ref_sisa_tipologia": "ESCIG", "wikidata": "Q2836718", "wikipedia": "ES:Hospital Militar Central (Argentina)" }, "geometry": { "type": "Point", "coordinates": [ -58.4362267, -34.5701705 ] } },
{ "type": "Feature", "properties": { "amenity": "hospital", "healthcare": "hospital", "operator": "Privado", "operator_type": "private", "name": "Sanatorio De La Trinidad Palermo", "addr_full": "Cervińo 4720", "addr_postcode": "1425", "phone": "(011) 4127-5500", "ref_sisa_codigo": 10020012315239, "ref_sisa_tipologia": "ESCIG", "wikidata": "Q93141487", "wikipedia": "" }, "geometry": { "type": "Point", "coordinates": [ -58.4239411, -34.5749242 ] } },
{ "type": "Feature", "properties": { "amenity": "hospital", "healthcare": "hospital", "operator": "Privado", "operator_type": "private", "name": "Sanatorio De Los Arcos", "addr_full": "Av. Juan B. Justo 909", "addr_postcode": "1425", "phone": "(011) 4778-4500", "ref_sisa_codigo": 10020012315240, "ref_sisa_tipologia": "ESCIG", "wikidata": "Q90410249", "wikipedia": "" }, "geometry": { "type": "Point", "coordinates": [ -58.429327, -34.5807898 ] } },
{ "type": "Feature", "properties": { "amenity": "hospital", "healthcare": "hospital", "operator": "Privado", "operator_type": "private", "name": "Sanatorio Guemes", "addr_full": "Francisco Acuńa De Figueroa 1240", "addr_postcode": "1180", "phone": "(011) 4959-8200", "ref_sisa_codigo": 10020012315445, "ref_sisa_tipologia": "ESCIG", "wikidata": "Q90410257", "wikipedia": "" }, "geometry": { "type": "Point", "coordinates": [ -58.4215593, -34.5969532 ] } },
{ "type": "Feature", "properties": { "amenity": "hospital", "healthcare": "hospital", "operator": "Privado", "operator_type": "private", "name": "Sanatorio Mater Dei", "addr_full": "San Martín De Tours 2952", "addr_postcode": "1425", "phone": "(011) 4809-5555", "ref_sisa_codigo": 10020012315246, "ref_sisa_tipologia": "ESCIG", "wikidata": "Q90410263", "wikipedia": "" }, "geometry": { "type": "Point", "coordinates": [ -58.4040091, -34.5780408 ] } }
]
}
