{
"type": "FeatureCollection",
"name": "011-la_matanza",
"features": [
{ "type": "Feature", "properties": { "amenity": "clinic", "healthcare": "clinic", "operator": "Provincial", "operator_type": "public", "name": "Ambulancia  Jefatura Provincial", "addr_full": "", "addr_postcode": "1754", "phone": "", "ref_sisa_codigo": 53064272104175, "ref_sisa_tipologia": "ESCL", "wikidata": "", "wikipedia": "" }, "geometry": { "type": "Point", "coordinates": [ -58.567308, -34.671401 ] } },
{ "type": "Feature", "properties": { "amenity": "clinic", "healthcare": "clinic", "operator": "Municipal", "operator_type": "public", "name": "CAPS Unidad Sanitaria Saturnino Segurola", "addr_full": "Necochea 4226", "addr_postcode": "1766", "phone": "011-4652-4116", "ref_sisa_codigo": 50064272202838, "ref_sisa_tipologia": "ESSIDT", "wikidata": "", "wikipedia": "" }, "geometry": { "type": "Point", "coordinates": [ -58.5314015, -34.6791606 ] } },
{ "type": "Feature", "properties": { "amenity": "hospital", "healthcare": "hospital", "operator": "Privado", "operator_type": "private", "name": "Casa Hospital San Juan De Dios", "addr_full": "Doctor Gabriel Ardoino 714", "addr_postcode": "1704", "phone": "(011) 4480-8700", "ref_sisa_codigo": 10064272305839, "ref_sisa_tipologia": "ESCIG", "wikidata": "", "wikipedia": "" }, "geometry": { "type": "Point", "coordinates": [ -58.5547429, -34.6394555 ] } },
{ "type": "Feature", "properties": { "amenity": "clinic", "healthcare": "clinic", "operator": "Municipal", "operator_type": "public", "name": "Cemetri", "addr_full": "Pringles 2750", "addr_postcode": "1704", "phone": "", "ref_sisa_codigo": 52064272215001, "ref_sisa_tipologia": "ESSIDT", "wikidata": "", "wikipedia": "" }, "geometry": { "type": "Point", "coordinates": [ -58.5447699, -34.6660632 ] } },
{ "type": "Feature", "properties": { "amenity": "clinic", "healthcare": "clinic", "operator": "Municipal", "operator_type": "public", "name": "Centro De Salud Domingo Roca", "addr_full": "Miller Entre Hortiguera Y California S\/N - Barrio Oro Verde", "addr_postcode": "1763", "phone": "02202-440840", "ref_sisa_codigo": 50064272202210, "ref_sisa_tipologia": "ESSIDT", "wikidata": "", "wikipedia": "" }, "geometry": { "type": "Point", "coordinates": [ -58.6477232, -34.8195693 ] } },
{ "type": "Feature", "properties": { "amenity": "clinic", "healthcare": "clinic", "operator": "Municipal", "operator_type": "public", "name": "Centro De Salud F. Giovinazzo", "addr_full": "Francisco Segui 6164", "addr_postcode": "1765", "phone": "011-4625-3967", "ref_sisa_codigo": 50064272202289, "ref_sisa_tipologia": "ESSIDT", "wikidata": "", "wikipedia": "" }, "geometry": { "type": "Point", "coordinates": [ -58.587124, -34.7028771 ] } },
{ "type": "Feature", "properties": { "amenity": "clinic", "healthcare": "clinic", "operator": "Municipal", "operator_type": "public", "name": "Centro De Salud 1 Ignacio Ezcurra De La Matanza", "addr_full": "Monseñor Lopez May Y Atalco", "addr_postcode": "1759", "phone": "02202-451255", "ref_sisa_codigo": 50064272201274, "ref_sisa_tipologia": "ESSIDT", "wikidata": "", "wikipedia": "" }, "geometry": { "type": "Point", "coordinates": [ -58.6130991, -34.7733263 ] } },
{ "type": "Feature", "properties": { "amenity": "clinic", "healthcare": "clinic", "operator": "Municipal", "operator_type": "public", "name": "Centro De Salud 7 Eizaguirre De Villa Celina", "addr_full": "Gonzalez Chavez Y Juarez Celman S\/N Barrio J. M. De Rosas", "addr_postcode": "8136", "phone": "011-4622-3117", "ref_sisa_codigo": 50064272202657, "ref_sisa_tipologia": "ESSIDT", "wikidata": "", "wikipedia": "" }, "geometry": { "type": "Point", "coordinates": [ -58.4904385, -34.6961083 ] } },
{ "type": "Feature", "properties": { "amenity": "clinic", "healthcare": "clinic", "operator": "Municipal", "operator_type": "public", "name": "Centro De Salud Ramon Carrillo De La Matanza", "addr_full": "Av. Central Y Doscientos", "addr_postcode": "1778", "phone": "011-4695-3917", "ref_sisa_codigo": 50064272202746, "ref_sisa_tipologia": "ESSIDT", "wikidata": "", "wikipedia": "" }, "geometry": { "type": "Point", "coordinates": [ -58.5556483, -34.7141366 ] } },
{ "type": "Feature", "properties": { "amenity": "clinic", "healthcare": "clinic", "operator": "Municipal", "operator_type": "public", "name": "Centro De Salud Sakamoto", "addr_full": "Nicolás Davila 2110", "addr_postcode": "1755", "phone": "011-4690-3136", "ref_sisa_codigo": 50064272202763, "ref_sisa_tipologia": "ESSIDT", "wikidata": "", "wikipedia": "" }, "geometry": { "type": "Point", "coordinates": [ -58.6312012, -34.7003392 ] } },
{ "type": "Feature", "properties": { "amenity": "hospital", "healthcare": "hospital", "operator": "Privado", "operator_type": "private", "name": "Centro De Traumatologia Y Ortopedia", "addr_full": "Avenida Del Libertador General San Martín 16664", "addr_postcode": "1642", "phone": "011 4743-1425", "ref_sisa_codigo": 10067562316331, "ref_sisa_tipologia": "ESCIG", "wikidata": "", "wikipedia": "" }, "geometry": { "type": "Point", "coordinates": [ -58.5820185, -34.6908607 ] } },
{ "type": "Feature", "properties": { "amenity": "clinic", "healthcare": "clinic", "operator": "Municipal", "operator_type": "public", "name": "Centro Integrador Comunitario", "addr_full": "Avenida San Martín  Y Colombia", "addr_postcode": "6634", "phone": "02346-471124", "ref_sisa_codigo": 50060212215003, "ref_sisa_tipologia": "ESSIDT", "wikidata": "", "wikipedia": "" }, "geometry": { "type": "Point", "coordinates": [ -58.5472906, -34.6567879 ] } },
{ "type": "Feature", "properties": { "amenity": "hospital", "healthcare": "hospital", "operator": "Privado", "operator_type": "private", "name": "Centro Quirurgico Ramos", "addr_full": "25 De Mayo 1001\/09", "addr_postcode": "1704", "phone": "", "ref_sisa_codigo": 10064272300015, "ref_sisa_tipologia": "ESCIG", "wikidata": "", "wikipedia": "" }, "geometry": { "type": "Point", "coordinates": [ -58.566273, -34.656116 ] } },
{ "type": "Feature", "properties": { "amenity": "clinic", "healthcare": "clinic", "operator": "Municipal", "operator_type": "public", "name": "Cic  Villa Palito La Matanza", "addr_full": "Peribebuy Y Alcorta", "addr_postcode": "7163", "phone": "", "ref_sisa_codigo": 50064272201508, "ref_sisa_tipologia": "ESSIDT", "wikidata": "", "wikipedia": "" }, "geometry": { "type": "Point", "coordinates": [ -58.5284057, -34.6711842 ] } },
{ "type": "Feature", "properties": { "amenity": "clinic", "healthcare": "clinic", "operator": "Municipal", "operator_type": "public", "name": "Cic 2 De Abril", "addr_full": "Pedro De Mendoza 1425", "addr_postcode": "1768", "phone": "011-4622-6358", "ref_sisa_codigo": 50064272201918, "ref_sisa_tipologia": "ESSIDT", "wikidata": "", "wikipedia": "" }, "geometry": { "type": "Point", "coordinates": [ -58.491713, -34.6843305 ] } },
{ "type": "Feature", "properties": { "amenity": "clinic", "healthcare": "clinic", "operator": "Municipal", "operator_type": "public", "name": "Cic 2 De Abril La Matanza", "addr_full": "Sanchez De Thompson Y Colectora Aut.Richieri", "addr_postcode": "1763", "phone": "", "ref_sisa_codigo": 50064272201532, "ref_sisa_tipologia": "ESSIDT", "wikidata": "", "wikipedia": "" }, "geometry": { "type": "Point", "coordinates": [ -58.4902325, -34.6923469 ] } },
{ "type": "Feature", "properties": { "amenity": "clinic", "healthcare": "clinic", "operator": "Municipal", "operator_type": "public", "name": "Cic Almafuerte (Ex Unidad Sanitaria Barrio Almafuerte)", "addr_full": "Monseñor Bufano 4500", "addr_postcode": "1754", "phone": "011-4691-3053", "ref_sisa_codigo": 50064272201510, "ref_sisa_tipologia": "ESSIDT", "wikidata": "", "wikipedia": "" }, "geometry": { "type": "Point", "coordinates": [ -58.5514204, -34.6925463 ] } },
{ "type": "Feature", "properties": { "amenity": "clinic", "healthcare": "clinic", "operator": "Municipal", "operator_type": "public", "name": "Cic Las Antenas", "addr_full": "Avda San Martin 4300 - Villa Insuperalbe", "addr_postcode": "1752", "phone": "", "ref_sisa_codigo": 50064272201521, "ref_sisa_tipologia": "ESSIDT", "wikidata": "", "wikipedia": "" }, "geometry": { "type": "Point", "coordinates": [ -58.5220922, -34.6735982 ] } },
{ "type": "Feature", "properties": { "amenity": "hospital", "healthcare": "hospital", "operator": "Privado", "operator_type": "private", "name": "Clinica Cruz Celeste", "addr_full": "Bermúdez 2895", "addr_postcode": "1754", "phone": "(011) 4659-9462", "ref_sisa_codigo": 10064272306569, "ref_sisa_tipologia": "ESCIG", "wikidata": "", "wikipedia": "" }, "geometry": { "type": "Point", "coordinates": [ -58.5852202, -34.665999 ] } },
{ "type": "Feature", "properties": { "amenity": "hospital", "healthcare": "hospital", "operator": "Privado", "operator_type": "private", "name": "Clinica Cyrene", "addr_full": "Miralla 2376", "addr_postcode": "1766", "phone": "", "ref_sisa_codigo": 10064272305625, "ref_sisa_tipologia": "ESCIG", "wikidata": "", "wikipedia": "" }, "geometry": { "type": "Point", "coordinates": [ -58.5378492, -34.6943838 ] } },
{ "type": "Feature", "properties": { "amenity": "hospital", "healthcare": "hospital", "operator": "Privado", "operator_type": "private", "name": "Clinica Dim Rivadavia", "addr_full": "Avenida Rivadavia 14252", "addr_postcode": "1704", "phone": "011-5901-2129", "ref_sisa_codigo": 10064272316509, "ref_sisa_tipologia": "ESCIG", "wikidata": "", "wikipedia": "" }, "geometry": { "type": "Point", "coordinates": [ -58.5680229, -34.6412254 ] } },
{ "type": "Feature", "properties": { "amenity": "hospital", "healthcare": "hospital", "operator": "Privado", "operator_type": "private", "name": "Clinica Modelo Los Cedros Sa", "addr_full": "Avenida Illia 2275\/79 (ex Catamarca)", "addr_postcode": "1754", "phone": "(011) 4441-5600", "ref_sisa_codigo": 10064272300063, "ref_sisa_tipologia": "ESCIG", "wikidata": "", "wikipedia": "" }, "geometry": { "type": "Point", "coordinates": [ -58.5625792, -34.6744983 ] } },
{ "type": "Feature", "properties": { "amenity": "hospital", "healthcare": "hospital", "operator": "Privado", "operator_type": "private", "name": "Clinica Privada Arzepa", "addr_full": "Ignacio Arrieta 2215", "addr_postcode": "1754", "phone": "", "ref_sisa_codigo": 10064272305629, "ref_sisa_tipologia": "ESCIG", "wikidata": "", "wikipedia": "" }, "geometry": { "type": "Point", "coordinates": [ -58.5705721, -34.6710748 ] } },
{ "type": "Feature", "properties": { "amenity": "hospital", "healthcare": "hospital", "operator": "Privado", "operator_type": "private", "name": "Clinica Privada Centro Medico Arbet", "addr_full": "Avenida San Martín 2964", "addr_postcode": "1752", "phone": "(011) 4699-3900", "ref_sisa_codigo": 10064272305815, "ref_sisa_tipologia": "ESCIG", "wikidata": "", "wikipedia": "" }, "geometry": { "type": "Point", "coordinates": [ -58.538035, -34.665171 ] } },
{ "type": "Feature", "properties": { "amenity": "hospital", "healthcare": "hospital", "operator": "Privado", "operator_type": "private", "name": "Clinica Privada De Traumatologia Y Rehabilitacion Alfa Sa", "addr_full": "Av. Provincias Unidas 3784", "addr_postcode": "1754", "phone": "(011) 4651-1261", "ref_sisa_codigo": 10064272300033, "ref_sisa_tipologia": "ESCIG", "wikidata": "", "wikipedia": "" }, "geometry": { "type": "Point", "coordinates": [ -58.5563, -34.684015 ] } },
{ "type": "Feature", "properties": { "amenity": "hospital", "healthcare": "hospital", "operator": "Privado", "operator_type": "private", "name": "Clinica Privada Del Buen Pastor", "addr_full": "Avenida Gral. Enrique Mosconi 1716", "addr_postcode": "1752", "phone": "(011) 4651-2891", "ref_sisa_codigo": 10064272300096, "ref_sisa_tipologia": "ESCIG", "wikidata": "", "wikipedia": "" }, "geometry": { "type": "Point", "coordinates": [ -58.5473442, -34.6662172 ] } },
{ "type": "Feature", "properties": { "amenity": "hospital", "healthcare": "hospital", "operator": "Privado", "operator_type": "private", "name": "Clinica Privada Del Salvador", "addr_full": "Avenida Crovara 3286", "addr_postcode": "1766", "phone": "", "ref_sisa_codigo": 10064272305807, "ref_sisa_tipologia": "ESCIG", "wikidata": "", "wikipedia": "" }, "geometry": { "type": "Point", "coordinates": [ -58.5301563, -34.6932935 ] } },
{ "type": "Feature", "properties": { "amenity": "hospital", "healthcare": "hospital", "operator": "Privado", "operator_type": "private", "name": "Clinica Privada Ferreyra Araya", "addr_full": "Avenida General Paz Nş 13049", "addr_postcode": "1752", "phone": "", "ref_sisa_codigo": 10064272305623, "ref_sisa_tipologia": "ESCIG", "wikidata": "", "wikipedia": "" }, "geometry": { "type": "Point", "coordinates": [ -58.5143101, -34.6657804 ] } },
{ "type": "Feature", "properties": { "amenity": "hospital", "healthcare": "hospital", "operator": "Privado", "operator_type": "private", "name": "Clinica Privada Isidro Casanova", "addr_full": "Islas Malvinas 2722", "addr_postcode": "1765", "phone": "", "ref_sisa_codigo": 10064272305635, "ref_sisa_tipologia": "ESCIG", "wikidata": "", "wikipedia": "" }, "geometry": { "type": "Point", "coordinates": [ -58.5883812, -34.7030351 ] } },
{ "type": "Feature", "properties": { "amenity": "hospital", "healthcare": "hospital", "operator": "Privado", "operator_type": "private", "name": "Clinica Privada Los Cedros De Tapiales", "addr_full": "Domingo Millán 20", "addr_postcode": "1768", "phone": "(011) 4622-8188", "ref_sisa_codigo": 10064272305809, "ref_sisa_tipologia": "ESCIG", "wikidata": "", "wikipedia": "" }, "geometry": { "type": "Point", "coordinates": [ -58.50396, -34.699508 ] } },
{ "type": "Feature", "properties": { "amenity": "hospital", "healthcare": "hospital", "operator": "Privado", "operator_type": "private", "name": "Clinica Privada Mitre", "addr_full": "Bartolomé Mitre 164", "addr_postcode": "1704", "phone": "(011) 4464-1942", "ref_sisa_codigo": 10064272300057, "ref_sisa_tipologia": "ESCIG", "wikidata": "", "wikipedia": "" }, "geometry": { "type": "Point", "coordinates": [ -58.5618975, -34.6414277 ] } },
{ "type": "Feature", "properties": { "amenity": "hospital", "healthcare": "hospital", "operator": "Privado", "operator_type": "private", "name": "Clinica San Jeronimo", "addr_full": "Tomás Justo Villegas 2154", "addr_postcode": "1754", "phone": "(011) 4651-3821", "ref_sisa_codigo": 10064272306559, "ref_sisa_tipologia": "ESCIG", "wikidata": "", "wikipedia": "" }, "geometry": { "type": "Point", "coordinates": [ -58.5593488, -34.6752447 ] } },
{ "type": "Feature", "properties": { "amenity": "hospital", "healthcare": "hospital", "operator": "Privado", "operator_type": "private", "name": "Clinica San Nicolas", "addr_full": "Figueroa Alcorta Nş 2662 - Barrio Almafuerte", "addr_postcode": "1754", "phone": "", "ref_sisa_codigo": 10064272307361, "ref_sisa_tipologia": "ESCIG", "wikidata": "", "wikipedia": "" }, "geometry": { "type": "Point", "coordinates": [ -58.575457, -34.683087 ] } },
{ "type": "Feature", "properties": { "amenity": "hospital", "healthcare": "hospital", "operator": "Privado", "operator_type": "private", "name": "Clinica Solis", "addr_full": "Paraguay 2167", "addr_postcode": "1754", "phone": "", "ref_sisa_codigo": 10064272318093, "ref_sisa_tipologia": "ESCIG", "wikidata": "", "wikipedia": "" }, "geometry": { "type": "Point", "coordinates": [ -58.5528867, -34.6802007 ] } },
{ "type": "Feature", "properties": { "amenity": "hospital", "healthcare": "hospital", "operator": "Provincial", "operator_type": "public", "name": "Hospital Interzonal General Agudos Doctor Luis A. Guemes", "addr_full": "Rivadavia 15000", "addr_postcode": "1706", "phone": "011-46591535", "ref_sisa_codigo": 10065682100228, "ref_sisa_tipologia": "ESCIG", "wikidata": "", "wikipedia": "" }, "geometry": { "type": "Point", "coordinates": [ -58.5786724, -34.6425427 ] } },
{ "type": "Feature", "properties": { "amenity": "hospital", "healthcare": "hospital", "operator": "Privado", "operator_type": "private", "name": "Hospital Italiano De San Justo", "addr_full": "Calle Presidente Perón 2231", "addr_postcode": "1754", "phone": "", "ref_sisa_codigo": 10064272300238, "ref_sisa_tipologia": "ESCIG", "wikidata": "", "wikipedia": "" }, "geometry": { "type": "Point", "coordinates": [ -58.5697348, -34.6717671 ] } },
{ "type": "Feature", "properties": { "amenity": "hospital", "healthcare": "hospital", "operator": "Privado", "operator_type": "private", "name": "Hospital Vecinal De La Tablada", "addr_full": "Alberti 1758", "addr_postcode": "1766", "phone": "(011) 4699-6897", "ref_sisa_codigo": 10064272300376, "ref_sisa_tipologia": "ESCIG", "wikidata": "", "wikipedia": "" }, "geometry": { "type": "Point", "coordinates": [ -58.5352496, -34.6888825 ] } },
{ "type": "Feature", "properties": { "amenity": "hospital", "healthcare": "hospital", "operator": "Provincial", "operator_type": "public", "name": "Hospital Zonal General Agudos Doctor Paroissien", "addr_full": "Brigadier General Juan Manuel De Rosas 5975", "addr_postcode": "1765", "phone": "011-46693390", "ref_sisa_codigo": 10064272100387, "ref_sisa_tipologia": "ESCIG", "wikidata": "", "wikipedia": "" }, "geometry": { "type": "Point", "coordinates": [ -58.5876823, -34.709062 ] } },
{ "type": "Feature", "properties": { "amenity": "clinic", "healthcare": "clinic", "operator": "Provincial", "operator_type": "public", "name": "Hospital Zonal General De Agudos Doctor Alberto Edgardo Balestrini", "addr_full": "Camino De Cintura Y Ruta 21", "addr_postcode": "1778", "phone": "011  46202682", "ref_sisa_codigo": 12064272116387, "ref_sisa_tipologia": "ESCIEM", "wikidata": "Q87729502", "wikipedia": "" }, "geometry": { "type": "Point", "coordinates": [ -58.5323238, -34.707522 ] } },
{ "type": "Feature", "properties": { "amenity": "hospital", "healthcare": "hospital", "operator": "Provincial", "operator_type": "public", "name": "Hospital Zonal General De Agudos Gonzalez Catan Km. 32 Simplemente Evita", "addr_full": "Av José Equiza 6463", "addr_postcode": "1759", "phone": "02202-422232", "ref_sisa_codigo": 10064272100401, "ref_sisa_tipologia": "ESCIG", "wikidata": "Q87729511", "wikipedia": "" }, "geometry": { "type": "Point", "coordinates": [ -58.623494, -34.787973 ] } },
{ "type": "Feature", "properties": { "amenity": "hospital", "healthcare": "hospital", "operator": "Privado", "operator_type": "private", "name": "Maternidad Ramos Mejia", "addr_full": "Mitre 175", "addr_postcode": "1704", "phone": "011-4658-9107", "ref_sisa_codigo": 10064272305633, "ref_sisa_tipologia": "ESCIG", "wikidata": "", "wikipedia": "" }, "geometry": { "type": "Point", "coordinates": [ -58.5467219, -34.6543433 ] } },
{ "type": "Feature", "properties": { "amenity": "clinic", "healthcare": "clinic", "operator": "Municipal", "operator_type": "public", "name": "Policlinica Cristo Caminante", "addr_full": "Barragán Bastilla 5651", "addr_postcode": "1759", "phone": "02202-430284", "ref_sisa_codigo": 50064272201682, "ref_sisa_tipologia": "ESSIDT", "wikidata": "", "wikipedia": "" }, "geometry": { "type": "Point", "coordinates": [ -58.6288379, -34.776224 ] } },
{ "type": "Feature", "properties": { "amenity": "hospital", "healthcare": "hospital", "operator": "Municipal", "operator_type": "public", "name": "Policlinico Central San Justo", "addr_full": "Almafuerte 3016", "addr_postcode": "1754", "phone": "011-46510164", "ref_sisa_codigo": 10064272200433, "ref_sisa_tipologia": "ESCIG", "wikidata": "", "wikipedia": "" }, "geometry": { "type": "Point", "coordinates": [ -58.5610284, -34.6770025 ] } },
{ "type": "Feature", "properties": { "amenity": "hospital", "healthcare": "hospital", "operator": "Privado", "operator_type": "private", "name": "Policlinico Regional Eva Peron", "addr_full": "Avenida De Mayo 980", "addr_postcode": "1704", "phone": "", "ref_sisa_codigo": 10064272305643, "ref_sisa_tipologia": "ESCIG", "wikidata": "", "wikipedia": "" }, "geometry": { "type": "Point", "coordinates": [ -58.5635869, -34.6498231 ] } },
{ "type": "Feature", "properties": { "amenity": "clinic", "healthcare": "clinic", "operator": "Municipal", "operator_type": "public", "name": "Puesto Fijo Aldo Bonzi", "addr_full": "Pilcomayo (Y Cuchacucha) 1217", "addr_postcode": "1770", "phone": "011-4442-1245", "ref_sisa_codigo": 50064272201764, "ref_sisa_tipologia": "ESSIDT", "wikidata": "", "wikipedia": "" }, "geometry": { "type": "Point", "coordinates": [ -58.5173872, -34.7124954 ] } },
{ "type": "Feature", "properties": { "amenity": "clinic", "healthcare": "clinic", "operator": "Municipal", "operator_type": "public", "name": "Puesto Fijo La Floresta", "addr_full": "California Y Colorado", "addr_postcode": "1763", "phone": "02202-445155", "ref_sisa_codigo": 50064272201766, "ref_sisa_tipologia": "ESSIDT", "wikidata": "", "wikipedia": "" }, "geometry": { "type": "Point", "coordinates": [ -58.6368313, -34.8269172 ] } },
{ "type": "Feature", "properties": { "amenity": "clinic", "healthcare": "clinic", "operator": "Municipal", "operator_type": "public", "name": "Sala De Salud Fourniers", "addr_full": "Aguero 1037", "addr_postcode": "1768", "phone": "011-4462-2916", "ref_sisa_codigo": 50064272201909, "ref_sisa_tipologia": "ESSIDT", "wikidata": "", "wikipedia": "" }, "geometry": { "type": "Point", "coordinates": [ -58.5088899, -34.6917233 ] } },
{ "type": "Feature", "properties": { "amenity": "clinic", "healthcare": "clinic", "operator": "Municipal", "operator_type": "public", "name": "Sala De Salud G. Del Guidice", "addr_full": "Atenas E\/Algarrobos Y Granaderos", "addr_postcode": "1754", "phone": "011-4669-4924", "ref_sisa_codigo": 50064272201910, "ref_sisa_tipologia": "ESSIDT", "wikidata": "", "wikipedia": "" }, "geometry": { "type": "Point", "coordinates": [ -58.6103418, -34.6815691 ] } },
{ "type": "Feature", "properties": { "amenity": "hospital", "healthcare": "hospital", "operator": "Privado", "operator_type": "private", "name": "Sanatorio Clinica Indarte", "addr_full": "Almafuerte 3240", "addr_postcode": "1754", "phone": "(011) 4441-0890", "ref_sisa_codigo": 10064272300122, "ref_sisa_tipologia": "ESCIG", "wikidata": "", "wikipedia": "" }, "geometry": { "type": "Point", "coordinates": [ -58.5577533, -34.678152 ] } },
{ "type": "Feature", "properties": { "amenity": "hospital", "healthcare": "hospital", "operator": "Privado", "operator_type": "private", "name": "Sanatorio Clinica Modelo Laferrere Sa", "addr_full": "Avenida Luro 6055", "addr_postcode": "1757", "phone": "(011) 4626-1189", "ref_sisa_codigo": 10064272300447, "ref_sisa_tipologia": "ESCIG", "wikidata": "", "wikipedia": "" }, "geometry": { "type": "Point", "coordinates": [ -58.585927, -34.7495433 ] } },
{ "type": "Feature", "properties": { "amenity": "hospital", "healthcare": "hospital", "operator": "Privado", "operator_type": "private", "name": "Sanatorio Clinica Privada Catan", "addr_full": "José León Larre 250", "addr_postcode": "1759", "phone": "(011) 42-1015", "ref_sisa_codigo": 10064272300079, "ref_sisa_tipologia": "ESCIG", "wikidata": "", "wikipedia": "" }, "geometry": { "type": "Point", "coordinates": [ -58.645881, -34.768087 ] } },
{ "type": "Feature", "properties": { "amenity": "hospital", "healthcare": "hospital", "operator": "Privado", "operator_type": "private", "name": "Sanatorio De La Trinidad De Ramos Mejia", "addr_full": "Avenida Rivadavia 13280", "addr_postcode": "1704", "phone": "8107772583", "ref_sisa_codigo": 10064272317039, "ref_sisa_tipologia": "ESCIG", "wikidata": "", "wikipedia": "" }, "geometry": { "type": "Point", "coordinates": [ -58.5633585, -34.6404655 ] } },
{ "type": "Feature", "properties": { "amenity": "hospital", "healthcare": "hospital", "operator": "Privado", "operator_type": "private", "name": "Sanatorio Privado Figueroa Paredes Laferrere De Sicomed Sa", "addr_full": "Ruta Nacional 3 10841", "addr_postcode": "1757", "phone": "011-44577173", "ref_sisa_codigo": 10064272300473, "ref_sisa_tipologia": "ESCIG", "wikidata": "", "wikipedia": "" }, "geometry": { "type": "Point", "coordinates": [ -58.6037886, -34.734881 ] } },
{ "type": "Feature", "properties": { "amenity": "hospital", "healthcare": "hospital", "operator": "Privado", "operator_type": "private", "name": "Sanatorio Privado Figueroa Paredes Sa", "addr_full": "Dante Alighieri 3637", "addr_postcode": "1765", "phone": "(011) 4625-1927", "ref_sisa_codigo": 10064272300472, "ref_sisa_tipologia": "ESCIG", "wikidata": "", "wikipedia": "" }, "geometry": { "type": "Point", "coordinates": [ -58.5930466, -34.7140233 ] } },
{ "type": "Feature", "properties": { "amenity": "hospital", "healthcare": "hospital", "operator": "Privado", "operator_type": "private", "name": "Sanatorio Privado Madero", "addr_full": "Domingo Millan 20", "addr_postcode": "1768", "phone": "", "ref_sisa_codigo": 10064272318519, "ref_sisa_tipologia": "ESCIG", "wikidata": "", "wikipedia": "" }, "geometry": { "type": "Point", "coordinates": [ -58.5039464, -34.6994319 ] } },
{ "type": "Feature", "properties": { "amenity": "hospital", "healthcare": "hospital", "operator": "Privado", "operator_type": "private", "name": "Sanatorio Privado Salud", "addr_full": "Reinaldo Rodriguez Nş 3784", "addr_postcode": "1778", "phone": "(011) 4487-2009", "ref_sisa_codigo": 10064272305841, "ref_sisa_tipologia": "ESCIG", "wikidata": "", "wikipedia": "" }, "geometry": { "type": "Point", "coordinates": [ -58.5326242, -34.7322139 ] } },
{ "type": "Feature", "properties": { "amenity": "hospital", "healthcare": "hospital", "operator": "Privado", "operator_type": "private", "name": "Sanatorio San Justo", "addr_full": "Avda. Juan Manuel De Rosas 3235 \/3239", "addr_postcode": "1754", "phone": "011 5296-2200", "ref_sisa_codigo": 10064272306834, "ref_sisa_tipologia": "ESCIG", "wikidata": "", "wikipedia": "" }, "geometry": { "type": "Point", "coordinates": [ -58.551897, -34.680564 ] } },
{ "type": "Feature", "properties": { "amenity": "hospital", "healthcare": "hospital", "operator": "Privado", "operator_type": "private", "name": "Sanatorio San Mauricio", "addr_full": "Av. Sáenz 456", "addr_postcode": "1759", "phone": "011-421400", "ref_sisa_codigo": 10064272300475, "ref_sisa_tipologia": "ESCIG", "wikidata": "", "wikipedia": "" }, "geometry": { "type": "Point", "coordinates": [ -58.6450684, -34.7709116 ] } },
{ "type": "Feature", "properties": { "amenity": "clinic", "healthcare": "clinic", "operator": "Municipal", "operator_type": "public", "name": "Servicio Medico Corp. Mercado Central Bs. As.", "addr_full": "Aut.Richieri Y Boulogne Sur Mer", "addr_postcode": "1770", "phone": "011-4480-5596\/98", "ref_sisa_codigo": 50064272201978, "ref_sisa_tipologia": "ESSIDT", "wikidata": "", "wikipedia": "" }, "geometry": { "type": "Point", "coordinates": [ -58.498837, -34.7034727 ] } },
{ "type": "Feature", "properties": { "amenity": "clinic", "healthcare": "clinic", "operator": "Municipal", "operator_type": "public", "name": "Unidad De Salud  Barrio Independencia", "addr_full": "Juan Cobo E\/ Jose Hernandez Y Esteban De Luca", "addr_postcode": "1759", "phone": "02202-455414", "ref_sisa_codigo": 50064272202008, "ref_sisa_tipologia": "ESSIDT", "wikidata": "", "wikipedia": "" }, "geometry": { "type": "Point", "coordinates": [ -58.6100199, -34.7625651 ] } },
{ "type": "Feature", "properties": { "amenity": "clinic", "healthcare": "clinic", "operator": "Municipal", "operator_type": "public", "name": "Unidad De Salud  Las Casitas", "addr_full": "Scarlatti  Y Clay Barrio Lasalle", "addr_postcode": "1759", "phone": "02202-429571", "ref_sisa_codigo": 50064272202007, "ref_sisa_tipologia": "ESSIDT", "wikidata": "", "wikipedia": "" }, "geometry": { "type": "Point", "coordinates": [ -58.6454036, -34.7858924 ] } },
{ "type": "Feature", "properties": { "amenity": "clinic", "healthcare": "clinic", "operator": "Municipal", "operator_type": "public", "name": "Unidad De Salud  Santos Vega", "addr_full": "Formosa  3550", "addr_postcode": "1752", "phone": "011-4482-1083", "ref_sisa_codigo": 50064272201917, "ref_sisa_tipologia": "ESSIDT", "wikidata": "", "wikipedia": "" }, "geometry": { "type": "Point", "coordinates": [ -58.5407598, -34.6756137 ] } },
{ "type": "Feature", "properties": { "amenity": "clinic", "healthcare": "clinic", "operator": "Municipal", "operator_type": "public", "name": "Unidad De Salud 17 De Agosto", "addr_full": "Edison Y Lafayette", "addr_postcode": "1765", "phone": "011-4669-4840", "ref_sisa_codigo": 50064272201919, "ref_sisa_tipologia": "ESSIDT", "wikidata": "", "wikipedia": "" }, "geometry": { "type": "Point", "coordinates": [ -58.6068764, -34.7071419 ] } },
{ "type": "Feature", "properties": { "amenity": "clinic", "healthcare": "clinic", "operator": "Municipal", "operator_type": "public", "name": "Unidad De Salud Arcos Del Mirador", "addr_full": "Soldado Osvaldo Sosa 3071", "addr_postcode": "1755", "phone": "011-4457-6165", "ref_sisa_codigo": 50064272201765, "ref_sisa_tipologia": "ESSIDT", "wikidata": "", "wikipedia": "" }, "geometry": { "type": "Point", "coordinates": [ -58.6033251, -34.7202207 ] } },
{ "type": "Feature", "properties": { "amenity": "clinic", "healthcare": "clinic", "operator": "Municipal", "operator_type": "public", "name": "Unidad De Salud Barrio 17 De Marzo M6 L 17", "addr_full": "Gavilan Y S. Sombra", "addr_postcode": "1765", "phone": "011-4640-0292", "ref_sisa_codigo": 50064272202009, "ref_sisa_tipologia": "ESSIDT", "wikidata": "", "wikipedia": "" }, "geometry": { "type": "Point", "coordinates": [ -58.5622337, -34.7120368 ] } },
{ "type": "Feature", "properties": { "amenity": "clinic", "healthcare": "clinic", "operator": "Municipal", "operator_type": "public", "name": "Unidad De Salud Doctor Roque Perez", "addr_full": "B. Carbajal 1428", "addr_postcode": "1761", "phone": "02202-4922605", "ref_sisa_codigo": 50064272202010, "ref_sisa_tipologia": "ESSIDT", "wikidata": "", "wikipedia": "" }, "geometry": { "type": "Point", "coordinates": [ -58.727653, -34.7737325 ] } },
{ "type": "Feature", "properties": { "amenity": "clinic", "healthcare": "clinic", "operator": "Municipal", "operator_type": "public", "name": "Unidad De Salud El Tambo", "addr_full": "Juan Sebastian Bach Y Obligado", "addr_postcode": "1765", "phone": "011-4467-4887", "ref_sisa_codigo": 50064272202273, "ref_sisa_tipologia": "ESSIDT", "wikidata": "", "wikipedia": "" }, "geometry": { "type": "Point", "coordinates": [ -58.6479356, -34.8197127 ] } },
{ "type": "Feature", "properties": { "amenity": "clinic", "healthcare": "clinic", "operator": "Municipal", "operator_type": "public", "name": "Unidad De Salud El Torero", "addr_full": "El Poncho E Itaú", "addr_postcode": "1755", "phone": "", "ref_sisa_codigo": 50064272217928, "ref_sisa_tipologia": "ESSIDT", "wikidata": "", "wikipedia": "" }, "geometry": { "type": "Point", "coordinates": [ -58.6329942, -34.707089 ] } },
{ "type": "Feature", "properties": { "amenity": "clinic", "healthcare": "clinic", "operator": "Municipal", "operator_type": "public", "name": "Unidad De Salud Esperanza", "addr_full": "Schubert Y Apeninos Barrio Esperanza", "addr_postcode": "1759", "phone": "02202-492900", "ref_sisa_codigo": 50064272201908, "ref_sisa_tipologia": "ESSIDT", "wikidata": "", "wikipedia": "" }, "geometry": { "type": "Point", "coordinates": [ -58.6397495, -34.840981 ] } },
{ "type": "Feature", "properties": { "amenity": "clinic", "healthcare": "clinic", "operator": "Municipal", "operator_type": "public", "name": "Unidad De Salud Eva Peron  ( La Matanza)", "addr_full": "Federico .P. Russo 4200", "addr_postcode": "1757", "phone": "011-46983875", "ref_sisa_codigo": 50064272201913, "ref_sisa_tipologia": "ESSIDT", "wikidata": "", "wikipedia": "" }, "geometry": { "type": "Point", "coordinates": [ -58.6221006, -34.7483117 ] } },
{ "type": "Feature", "properties": { "amenity": "clinic", "healthcare": "clinic", "operator": "Municipal", "operator_type": "public", "name": "Unidad De Salud J. Hernandez", "addr_full": "Vieytes 3832", "addr_postcode": "8136", "phone": "011-4442-9522", "ref_sisa_codigo": 50064272201911, "ref_sisa_tipologia": "ESSIDT", "wikidata": "", "wikipedia": "" }, "geometry": { "type": "Point", "coordinates": [ -58.4905651, -34.7197445 ] } },
{ "type": "Feature", "properties": { "amenity": "clinic", "healthcare": "clinic", "operator": "Municipal", "operator_type": "public", "name": "Unidad De Salud Juan Xxiii", "addr_full": "Los Claveles Y Los Crisantemos", "addr_postcode": "1778", "phone": "011-4695-1520", "ref_sisa_codigo": 50064272201659, "ref_sisa_tipologia": "ESSIDT", "wikidata": "", "wikipedia": "" }, "geometry": { "type": "Point", "coordinates": [ -58.555378, -34.7222137 ] } },
{ "type": "Feature", "properties": { "amenity": "clinic", "healthcare": "clinic", "operator": "Municipal", "operator_type": "public", "name": "Unidad De Salud Justo Villegas", "addr_full": "Guatemala  4905 E\/ Ibarrola Y Asamblea", "addr_postcode": "1754", "phone": "011-4691-4147", "ref_sisa_codigo": 50064272202011, "ref_sisa_tipologia": "ESSIDT", "wikidata": "", "wikipedia": "" }, "geometry": { "type": "Point", "coordinates": [ -58.5560946, -34.7052094 ] } },
{ "type": "Feature", "properties": { "amenity": "clinic", "healthcare": "clinic", "operator": "Municipal", "operator_type": "public", "name": "Unidad De Salud Las Antenas", "addr_full": "Alte. Brown 4207", "addr_postcode": "1752", "phone": "", "ref_sisa_codigo": 50064272202012, "ref_sisa_tipologia": "ESSIDT", "wikidata": "", "wikipedia": "" }, "geometry": { "type": "Point", "coordinates": [ -58.5228803, -34.6733636 ] } },
{ "type": "Feature", "properties": { "amenity": "clinic", "healthcare": "clinic", "operator": "Municipal", "operator_type": "public", "name": "Unidad De Salud Los Alamos", "addr_full": "Cordoba E\/Camarones Y Cachimayo Km 35", "addr_postcode": "1763", "phone": "02202-444773", "ref_sisa_codigo": 50064272201795, "ref_sisa_tipologia": "ESSIDT", "wikidata": "", "wikipedia": "" }, "geometry": { "type": "Point", "coordinates": [ -58.6267247, -34.8108427 ] } },
{ "type": "Feature", "properties": { "amenity": "clinic", "healthcare": "clinic", "operator": "Municipal", "operator_type": "public", "name": "Unidad De Salud Los Ceibos", "addr_full": "Bordoy E\/M. Acosta Y Dragones", "addr_postcode": "1759", "phone": "02202-438068", "ref_sisa_codigo": 50064272201767, "ref_sisa_tipologia": "ESSIDT", "wikidata": "", "wikipedia": "" }, "geometry": { "type": "Point", "coordinates": [ -58.6216285, -34.7965095 ] } },
{ "type": "Feature", "properties": { "amenity": "clinic", "healthcare": "clinic", "operator": "Municipal", "operator_type": "public", "name": "Unidad De Salud Malvinas Argentinas", "addr_full": "San Petesburgo Y Gaboto", "addr_postcode": "1778", "phone": "011-4694-9286", "ref_sisa_codigo": 50064272201912, "ref_sisa_tipologia": "ESSIDT", "wikidata": "", "wikipedia": "" }, "geometry": { "type": "Point", "coordinates": [ -58.5587168, -34.702177 ] } },
{ "type": "Feature", "properties": { "amenity": "clinic", "healthcare": "clinic", "operator": "Municipal", "operator_type": "public", "name": "Unidad De Salud Monseñor Bufano", "addr_full": "Alagón Y Las Flores", "addr_postcode": "1755", "phone": "011-4698-2615", "ref_sisa_codigo": 50064272201769, "ref_sisa_tipologia": "ESSIDT", "wikidata": "", "wikipedia": "" }, "geometry": { "type": "Point", "coordinates": [ -58.6283555, -34.7355723 ] } },
{ "type": "Feature", "properties": { "amenity": "clinic", "healthcare": "clinic", "operator": "Municipal", "operator_type": "public", "name": "Unidad De Salud Sabin", "addr_full": "Manuel Arias 4241", "addr_postcode": "1759", "phone": "02202-425617", "ref_sisa_codigo": 50064272201915, "ref_sisa_tipologia": "ESSIDT", "wikidata": "", "wikipedia": "" }, "geometry": { "type": "Point", "coordinates": [ -58.6322823, -34.7598592 ] } },
{ "type": "Feature", "properties": { "amenity": "clinic", "healthcare": "clinic", "operator": "Municipal", "operator_type": "public", "name": "Unidad De Salud San Pedro", "addr_full": "Bedoya Elias 6367", "addr_postcode": "1765", "phone": "011-4626-4248", "ref_sisa_codigo": 50064272201916, "ref_sisa_tipologia": "ESSIDT", "wikidata": "", "wikipedia": "" }, "geometry": { "type": "Point", "coordinates": [ -58.5735419, -34.7314106 ] } },
{ "type": "Feature", "properties": { "amenity": "clinic", "healthcare": "clinic", "operator": "Municipal", "operator_type": "public", "name": "Unidad De Salud San Pedro  ( La Matanza)", "addr_full": "Martin Garcia Y Santiago Del Estero", "addr_postcode": "1763", "phone": "02202-445226", "ref_sisa_codigo": 50064272202801, "ref_sisa_tipologia": "ESSIDT", "wikidata": "", "wikipedia": "" }, "geometry": { "type": "Point", "coordinates": [ -58.6353078, -34.821351 ] } },
{ "type": "Feature", "properties": { "amenity": "clinic", "healthcare": "clinic", "operator": "Municipal", "operator_type": "public", "name": "Unidad De Salud Villa Giardino", "addr_full": "Recuero Entre Ruiz De Los Llanos Y Martinez - Gregorio De Laferrere", "addr_postcode": "1765", "phone": "(011) 4467-5232", "ref_sisa_codigo": 50064272202885, "ref_sisa_tipologia": "ESSIDT", "wikidata": "", "wikipedia": "" }, "geometry": { "type": "Point", "coordinates": [ -58.602492, -34.749042 ] } },
{ "type": "Feature", "properties": { "amenity": "clinic", "healthcare": "clinic", "operator": "Municipal", "operator_type": "public", "name": "Unidad De Salud Villa Rebassa", "addr_full": "Balcarce 1909", "addr_postcode": "1752", "phone": "011-4657-5017", "ref_sisa_codigo": 50064272202899, "ref_sisa_tipologia": "ESSIDT", "wikidata": "", "wikipedia": "" }, "geometry": { "type": "Point", "coordinates": [ -58.5378936, -34.6539311 ] } },
{ "type": "Feature", "properties": { "amenity": "clinic", "healthcare": "clinic", "operator": "Municipal", "operator_type": "public", "name": "Unidad De Salud Virrey Del Pino (Km 41)", "addr_full": "Arengreen Y Manzanares 5165", "addr_postcode": "1763", "phone": "02202-494585", "ref_sisa_codigo": 50064272202013, "ref_sisa_tipologia": "ESSIDT", "wikidata": "", "wikipedia": "" }, "geometry": { "type": "Point", "coordinates": [ -58.6631062, -34.8545053 ] } },
{ "type": "Feature", "properties": { "amenity": "clinic", "healthcare": "clinic", "operator": "Municipal", "operator_type": "public", "name": "Unidad Sanitaria  Maria Elena", "addr_full": "Risso Patron Y Ortega Ruta Nac 3 Km 27", "addr_postcode": "1757", "phone": "011-4467-4542", "ref_sisa_codigo": 50064272201768, "ref_sisa_tipologia": "ESSIDT", "wikidata": "", "wikipedia": "" }, "geometry": { "type": "Point", "coordinates": [ -58.6168113, -34.7354136 ] } },
{ "type": "Feature", "properties": { "amenity": "clinic", "healthcare": "clinic", "operator": "Municipal", "operator_type": "public", "name": "Unidad Sanitaria Barrio Nicolle De La Matanza", "addr_full": "Calle 8 Entre 102 Y 103 Ruta 3 Km 35", "addr_postcode": "1763", "phone": "02202-444641", "ref_sisa_codigo": 50064272202110, "ref_sisa_tipologia": "ESSIDT", "wikidata": "", "wikipedia": "" }, "geometry": { "type": "Point", "coordinates": [ -58.6551476, -34.8493115 ] } },
{ "type": "Feature", "properties": { "amenity": "clinic", "healthcare": "clinic", "operator": "Municipal", "operator_type": "public", "name": "Unidad Sanitaria Barrio San Jose Obrero De La Matanza", "addr_full": "Los Toldos Y Castaños Mz 19", "addr_postcode": "1757", "phone": "011-44860751", "ref_sisa_codigo": 50064272202130, "ref_sisa_tipologia": "ESSIDT", "wikidata": "", "wikipedia": "" }, "geometry": { "type": "Point", "coordinates": [ -58.5792732, -34.7496525 ] } },
{ "type": "Feature", "properties": { "amenity": "clinic", "healthcare": "clinic", "operator": "Municipal", "operator_type": "public", "name": "Unidad Sanitaria Doctor Arturo Illia America Unida", "addr_full": "Petrone 3500", "addr_postcode": "1862", "phone": "02224 471472", "ref_sisa_codigo": 50066482202056, "ref_sisa_tipologia": "ESSIDT", "wikidata": "", "wikipedia": "" }, "geometry": { "type": "Point", "coordinates": [ -58.6743629, -34.8689711 ] } },
{ "type": "Feature", "properties": { "amenity": "clinic", "healthcare": "clinic", "operator": "Municipal", "operator_type": "public", "name": "Unidad Sanitaria Francisco Caputto", "addr_full": "San Carlos Y N. York", "addr_postcode": "1763", "phone": "02202-496100", "ref_sisa_codigo": 50064272202300, "ref_sisa_tipologia": "ESSIDT", "wikidata": "", "wikipedia": "" }, "geometry": { "type": "Point", "coordinates": [ -58.6992731, -34.9008988 ] } },
{ "type": "Feature", "properties": { "amenity": "clinic", "healthcare": "clinic", "operator": "Municipal", "operator_type": "public", "name": "Unidad Sanitaria Ignacio Ezcurra De Villa Dorrego", "addr_full": "Monseñor Lopez May 6560", "addr_postcode": "1759", "phone": "02202-451255", "ref_sisa_codigo": 50064272202325, "ref_sisa_tipologia": "ESSIDT", "wikidata": "", "wikipedia": "" }, "geometry": { "type": "Point", "coordinates": [ -58.6132171, -34.7733791 ] } },
{ "type": "Feature", "properties": { "amenity": "clinic", "healthcare": "clinic", "operator": "Municipal", "operator_type": "public", "name": "Unidad Sanitaria Juan Manuel De Rosas De Isidro Casanova", "addr_full": "Ruiz De Los Llanos 267", "addr_postcode": "1765", "phone": "011-46943877", "ref_sisa_codigo": 50064272202350, "ref_sisa_tipologia": "ESSIDT", "wikidata": "", "wikipedia": "" }, "geometry": { "type": "Point", "coordinates": [ -58.5729947, -34.7226281 ] } },
{ "type": "Feature", "properties": { "amenity": "clinic", "healthcare": "clinic", "operator": "Municipal", "operator_type": "public", "name": "Unidad Sanitaria La Quila", "addr_full": "La Quila Y El Zorro Edificio 2 Acc. 2 Nh 19", "addr_postcode": "1778", "phone": "011-44873949", "ref_sisa_codigo": 50064272202689, "ref_sisa_tipologia": "ESSIDT", "wikidata": "", "wikipedia": "" }, "geometry": { "type": "Point", "coordinates": [ -58.5381796, -34.7075652 ] } },
{ "type": "Feature", "properties": { "amenity": "clinic", "healthcare": "clinic", "operator": "Municipal", "operator_type": "public", "name": "Unidad Sanitaria La Tablada", "addr_full": "Gral. Nazar 548", "addr_postcode": "1766", "phone": "011-4699-6081", "ref_sisa_codigo": 50064272202381, "ref_sisa_tipologia": "ESSIDT", "wikidata": "", "wikipedia": "" }, "geometry": { "type": "Point", "coordinates": [ -58.5263243, -34.6997064 ] } },
{ "type": "Feature", "properties": { "amenity": "clinic", "healthcare": "clinic", "operator": "Municipal", "operator_type": "public", "name": "Unidad Sanitaria Laferrere", "addr_full": "Estanislao Del Campo 3067", "addr_postcode": "1757", "phone": "011-4457-6239", "ref_sisa_codigo": 50064272202386, "ref_sisa_tipologia": "ESSIDT", "wikidata": "", "wikipedia": "" }, "geometry": { "type": "Point", "coordinates": [ -58.6106958, -34.7263934 ] } },
{ "type": "Feature", "properties": { "amenity": "clinic", "healthcare": "clinic", "operator": "Municipal", "operator_type": "public", "name": "Unidad Sanitaria Nucleo Habitacional 17 De Ciudad Evita", "addr_full": "Camino De Cintura Y Crovara S\/N", "addr_postcode": "1778", "phone": "011-46204083", "ref_sisa_codigo": 50064272202687, "ref_sisa_tipologia": "ESSIDT", "wikidata": "", "wikipedia": "" }, "geometry": { "type": "Point", "coordinates": [ -58.5422781, -34.7003856 ] } },
{ "type": "Feature", "properties": { "amenity": "clinic", "healthcare": "clinic", "operator": "Municipal", "operator_type": "public", "name": "Unidad Sanitaria Nucleo Habitacional 18 De Ciudad Evita", "addr_full": "Avenida Monseñor R. Bufano Y Avenida Int. Esteban Crovara S\/Nº", "addr_postcode": "1778", "phone": "(011) 4620-4037", "ref_sisa_codigo": 50064272202688, "ref_sisa_tipologia": "ESSIDT", "wikidata": "", "wikipedia": "" }, "geometry": { "type": "Point", "coordinates": [ -58.542455, -34.700637 ] } },
{ "type": "Feature", "properties": { "amenity": "clinic", "healthcare": "clinic", "operator": "Municipal", "operator_type": "public", "name": "Unidad Sanitaria 19", "addr_full": "Cnel. Diaz 500", "addr_postcode": "1778", "phone": "", "ref_sisa_codigo": 50064272206503, "ref_sisa_tipologia": "ESSIDT", "wikidata": "", "wikipedia": "" }, "geometry": { "type": "Point", "coordinates": [ -58.5636969, -34.6505653 ] } },
{ "type": "Feature", "properties": { "amenity": "clinic", "healthcare": "clinic", "operator": "Municipal", "operator_type": "public", "name": "Unidad Sanitaria Padre Mario", "addr_full": "Montgolfier E\/Santa Rosa Y Soldado Sosa 1939", "addr_postcode": "1757", "phone": "011-4626-1258", "ref_sisa_codigo": 50064272202702, "ref_sisa_tipologia": "ESSIDT", "wikidata": "", "wikipedia": "" }, "geometry": { "type": "Point", "coordinates": [ -58.5947528, -34.7264111 ] } },
{ "type": "Feature", "properties": { "amenity": "clinic", "healthcare": "clinic", "operator": "Municipal", "operator_type": "public", "name": "Unidad Sanitaria San Carlos De La Matanza", "addr_full": "Lavallol Y Edison 1095", "addr_postcode": "1765", "phone": "011-4625-3003\/06", "ref_sisa_codigo": 50064272202776, "ref_sisa_tipologia": "ESSIDT", "wikidata": "", "wikipedia": "" }, "geometry": { "type": "Point", "coordinates": [ -58.5973277, -34.7143474 ] } }
]
}
