{
"type": "FeatureCollection",
"name": "012-malvinas_argentinas",
"features": [
{ "type": "Feature", "properties": { "amenity": "clinic", "healthcare": "clinic", "operator": "Municipal", "operator_type": "public", "name": "CAPS Grand Bourg Sur", "addr_full": "Chacabuco Y Luis Vernet", "addr_postcode": "5807", "phone": "", "ref_sisa_codigo": 50065152206747, "ref_sisa_tipologia": "ESSIDT", "wikidata": "", "wikipedia": "" }, "geometry": { "type": "Point", "coordinates": [ -58.7322342, -34.4866659 ] } },
{ "type": "Feature", "properties": { "amenity": "clinic", "healthcare": "clinic", "operator": "Municipal", "operator_type": "public", "name": "Centro Asistencial Barrio Peech", "addr_full": "Uruguay Y Benito Lynch 260", "addr_postcode": "1667", "phone": "02320-558763", "ref_sisa_codigo": 50065152201090, "ref_sisa_tipologia": "ESSIDT", "wikidata": "", "wikipedia": "" }, "geometry": { "type": "Point", "coordinates": [ -58.7471559, -34.4823361 ] } },
{ "type": "Feature", "properties": { "amenity": "clinic", "healthcare": "clinic", "operator": "Municipal", "operator_type": "public", "name": "Centro Asistencial Los Angeles", "addr_full": "Soldado Baigorria Y El Salvador", "addr_postcode": "1667", "phone": "02320-493938", "ref_sisa_codigo": 50065152201093, "ref_sisa_tipologia": "ESSIDT", "wikidata": "", "wikipedia": "" }, "geometry": { "type": "Point", "coordinates": [ -58.7382009, -34.4663848 ] } },
{ "type": "Feature", "properties": { "amenity": "clinic", "healthcare": "clinic", "operator": "Municipal", "operator_type": "public", "name": "Centro Asistencial San Jorge", "addr_full": "Paso De Los Andes 1152", "addr_postcode": "1614", "phone": "02320-481980", "ref_sisa_codigo": 50065152201099, "ref_sisa_tipologia": "ESSIDT", "wikidata": "", "wikipedia": "" }, "geometry": { "type": "Point", "coordinates": [ -58.7303116, -34.4933901 ] } },
{ "type": "Feature", "properties": { "amenity": "clinic", "healthcare": "clinic", "operator": "Municipal", "operator_type": "public", "name": "Centro Asistencial Union Y Progreso", "addr_full": "Cerrito 506 Y Dante Alighieri", "addr_postcode": "1613", "phone": "", "ref_sisa_codigo": 50065152201102, "ref_sisa_tipologia": "ESSIDT", "wikidata": "", "wikipedia": "" }, "geometry": { "type": "Point", "coordinates": [ -58.7213763, -34.5113323 ] } },
{ "type": "Feature", "properties": { "amenity": "clinic", "healthcare": "clinic", "operator": "Municipal", "operator_type": "public", "name": "CAPS La Loma", "addr_full": "Pelagio Luna 2075 Entre Eva Perón  Y Pellegrini", "addr_postcode": "1613", "phone": "", "ref_sisa_codigo": 50065152218381, "ref_sisa_tipologia": "ESSIDT", "wikidata": "", "wikipedia": "" }, "geometry": { "type": "Point", "coordinates": [ -58.6677056, -34.4939722 ] } },
{ "type": "Feature", "properties": { "amenity": "clinic", "healthcare": "clinic", "operator": "Municipal", "operator_type": "public", "name": "CAPS San Eduardo", "addr_full": "Le Corbusier 1536", "addr_postcode": "1615", "phone": "", "ref_sisa_codigo": 50065152217983, "ref_sisa_tipologia": "ESSIDT", "wikidata": "", "wikipedia": "" }, "geometry": { "type": "Point", "coordinates": [ -58.6891024, -34.4640924 ] } },
{ "type": "Feature", "properties": { "amenity": "clinic", "healthcare": "clinic", "operator": "Municipal", "operator_type": "public", "name": "Centro De Diabetes Y Enfermedades Metabolicas Doctor Alberto Maggio", "addr_full": "San Martín 1675", "addr_postcode": "1613", "phone": "", "ref_sisa_codigo": 50065152206983, "ref_sisa_tipologia": "ESSIDT", "wikidata": "", "wikipedia": "" }, "geometry": { "type": "Point", "coordinates": [ -58.7058601, -34.5072153 ] } },
{ "type": "Feature", "properties": { "amenity": "clinic", "healthcare": "clinic", "operator": "Municipal", "operator_type": "public", "name": "Centro De Medicina Del Deporte - Unidad Funcional Pueblo Chico Tortuguitas", "addr_full": "Directorio 297", "addr_postcode": "1667", "phone": "", "ref_sisa_codigo": 50065152207074, "ref_sisa_tipologia": "ESSIDT", "wikidata": "", "wikipedia": "" }, "geometry": { "type": "Point", "coordinates": [ -58.7571117, -34.4695861 ] } },
{ "type": "Feature", "properties": { "amenity": "clinic", "healthcare": "clinic", "operator": "Provincial", "operator_type": "public", "name": "Centro De Recepcion Malvinas Argentinas", "addr_full": "Pasco E\/ Yatasto Y Segui", "addr_postcode": "1613", "phone": "", "ref_sisa_codigo": 50065152106689, "ref_sisa_tipologia": "ESSIDT", "wikidata": "", "wikipedia": "" }, "geometry": { "type": "Point", "coordinates": [ -58.715766, -34.490795 ] } },
{ "type": "Feature", "properties": { "amenity": "clinic", "healthcare": "clinic", "operator": "Municipal", "operator_type": "public", "name": "Centro De Salud Barrio La Loma", "addr_full": "Colpayo 2068 Barrio La Loma", "addr_postcode": "1614", "phone": "011-47410030", "ref_sisa_codigo": 50065152201197, "ref_sisa_tipologia": "ESSIDT", "wikidata": "", "wikipedia": "" }, "geometry": { "type": "Point", "coordinates": [ -58.6657884, -34.4915774 ] } },
{ "type": "Feature", "properties": { "amenity": "clinic", "healthcare": "clinic", "operator": "Municipal", "operator_type": "public", "name": "Centro De Salud Villa De Mayo", "addr_full": "Eva Peron E\/ Arquimedes Y Sucre", "addr_postcode": "1614", "phone": "011-46634004", "ref_sisa_codigo": 50065152201369, "ref_sisa_tipologia": "ESSIDT", "wikidata": "", "wikipedia": "" }, "geometry": { "type": "Point", "coordinates": [ -58.6807659, -34.5018344 ] } },
{ "type": "Feature", "properties": { "amenity": "clinic", "healthcare": "clinic", "operator": "Municipal", "operator_type": "public", "name": "Centro Malvinas Argentinas", "addr_full": "San Martin 2993", "addr_postcode": "1613", "phone": "", "ref_sisa_codigo": 50065152201402, "ref_sisa_tipologia": "ESSIDT", "wikidata": "", "wikipedia": "" }, "geometry": { "type": "Point", "coordinates": [ -58.6936961, -34.498271 ] } },
{ "type": "Feature", "properties": { "amenity": "clinic", "healthcare": "clinic", "operator": "Municipal", "operator_type": "public", "name": "Consultorio Dominguez R.", "addr_full": "Directorio 595", "addr_postcode": "1667", "phone": "02320-4456\/1487", "ref_sisa_codigo": 50065152201558, "ref_sisa_tipologia": "ESSIDT", "wikidata": "", "wikipedia": "" }, "geometry": { "type": "Point", "coordinates": [ -58.748703, -34.4663017 ] } },
{ "type": "Feature", "properties": { "amenity": "clinic", "healthcare": "clinic", "operator": "Municipal", "operator_type": "public", "name": "Consultorio Medico Los Polvorines Centro", "addr_full": "Remedios De Escalada Y Rivadavia", "addr_postcode": "1613", "phone": "011-46606028", "ref_sisa_codigo": 50065152201564, "ref_sisa_tipologia": "ESSIDT", "wikidata": "", "wikipedia": "" }, "geometry": { "type": "Point", "coordinates": [ -58.6916769, -34.4998094 ] } },
{ "type": "Feature", "properties": { "amenity": "clinic", "healthcare": "clinic", "operator": "Municipal", "operator_type": "public", "name": "CPA Centro Provincial De Adicciones", "addr_full": "Buenos Aires 60 Entre Ruta 8 Km 38 Y Labarden", "addr_postcode": "1667", "phone": "02320-46888", "ref_sisa_codigo": 50065152201584, "ref_sisa_tipologia": "ESSIDT", "wikidata": "", "wikipedia": "" }, "geometry": { "type": "Point", "coordinates": [ -58.7617793, -34.4936908 ] } },
{ "type": "Feature", "properties": { "amenity": "clinic", "healthcare": "clinic", "operator": "Municipal", "operator_type": "public", "name": "El Camino", "addr_full": "Wilde Y Asamblea", "addr_postcode": "1615", "phone": "", "ref_sisa_codigo": 50065152201615, "ref_sisa_tipologia": "ESSIDT", "wikidata": "", "wikipedia": "" }, "geometry": { "type": "Point", "coordinates": [ -58.7439373, -34.5006761 ] } },
{ "type": "Feature", "properties": { "amenity": "clinic", "healthcare": "clinic", "operator": "Municipal", "operator_type": "public", "name": "Hospital De Salud Mental Evita  - (Hospital De Dia)", "addr_full": "Los Eucaliptos 501", "addr_postcode": "1614", "phone": "011-44636525\/6525", "ref_sisa_codigo": 50065152201632, "ref_sisa_tipologia": "ESSIDT", "wikidata": "", "wikipedia": "" }, "geometry": { "type": "Point", "coordinates": [ -58.6830297, -34.5229811 ] } },
{ "type": "Feature", "properties": { "amenity": "hospital", "healthcare": "hospital", "operator": "Municipal", "operator_type": "public", "name": "Hospital Municipal Doctor Ramon Carrillo", "addr_full": "General San Martín 2993", "addr_postcode": "1613", "phone": "011-46601616", "ref_sisa_codigo": 10065152200224, "ref_sisa_tipologia": "ESCIG", "wikidata": "", "wikipedia": "" }, "geometry": { "type": "Point", "coordinates": [ -58.693825, -34.4982406 ] } },
{ "type": "Feature", "properties": { "amenity": "clinic", "healthcare": "clinic", "operator": "Municipal", "operator_type": "public", "name": "Hospital Odontologico Municipal - (Ruta 8)", "addr_full": "Ruta 8 Km. 32.5 - 1° Piso", "addr_postcode": "1613", "phone": "", "ref_sisa_codigo": 50065152206818, "ref_sisa_tipologia": "ESSIDT", "wikidata": "", "wikipedia": "" }, "geometry": { "type": "Point", "coordinates": [ -58.7022324, -34.5317688 ] } },
{ "type": "Feature", "properties": { "amenity": "clinic", "healthcare": "clinic", "operator": "Municipal", "operator_type": "public", "name": "Providencia Asociacion Civil", "addr_full": "Av. Olivos 871", "addr_postcode": "1613", "phone": "02320-410126", "ref_sisa_codigo": 50065152201762, "ref_sisa_tipologia": "ESSIDT", "wikidata": "", "wikipedia": "" }, "geometry": { "type": "Point", "coordinates": [ -58.7007966, -34.4801163 ] } },
{ "type": "Feature", "properties": { "amenity": "clinic", "healthcare": "clinic", "operator": "Municipal", "operator_type": "public", "name": "Unidad Funcional  Ampliacion Devoto", "addr_full": "Paso De Los Patos Y Mario Bravo", "addr_postcode": "1615", "phone": "02320-411475", "ref_sisa_codigo": 50065152201087, "ref_sisa_tipologia": "ESSIDT", "wikidata": "", "wikipedia": "" }, "geometry": { "type": "Point", "coordinates": [ -58.7248721, -34.50299 ] } },
{ "type": "Feature", "properties": { "amenity": "clinic", "healthcare": "clinic", "operator": "Municipal", "operator_type": "public", "name": "Unidad Funcional 25 De Mayo  - ( Grand Bourg)", "addr_full": "Paso De Uspallata Y Peru", "addr_postcode": "1615", "phone": "02320-493827", "ref_sisa_codigo": 50065152202932, "ref_sisa_tipologia": "ESSIDT", "wikidata": "", "wikipedia": "" }, "geometry": { "type": "Point", "coordinates": [ -58.7343515, -34.4780165 ] } },
{ "type": "Feature", "properties": { "amenity": "clinic", "healthcare": "clinic", "operator": "Municipal", "operator_type": "public", "name": "Unidad Funcional 8 De Octubre", "addr_full": "Marañon 2164 Y Esteban De Lucas", "addr_postcode": "1614", "phone": "", "ref_sisa_codigo": 50065152201393, "ref_sisa_tipologia": "ESSIDT", "wikidata": "", "wikipedia": "" }, "geometry": { "type": "Point", "coordinates": [ -58.6831964, -34.5176647 ] } },
{ "type": "Feature", "properties": { "amenity": "clinic", "healthcare": "clinic", "operator": "Municipal", "operator_type": "public", "name": "Unidad Funcional Ara Gral. Belgrano", "addr_full": "Valparaiso E\/  Cangallo Y San Martin", "addr_postcode": "1613", "phone": "02320-484893", "ref_sisa_codigo": 50065152201191, "ref_sisa_tipologia": "ESSIDT", "wikidata": "", "wikipedia": "" }, "geometry": { "type": "Point", "coordinates": [ -58.7099268, -34.4907992 ] } },
{ "type": "Feature", "properties": { "amenity": "clinic", "healthcare": "clinic", "operator": "Municipal", "operator_type": "public", "name": "Unidad Funcional Barrio Panamericano", "addr_full": "Capitan Giacchino 1022", "addr_postcode": "1613", "phone": "", "ref_sisa_codigo": 50065152202014, "ref_sisa_tipologia": "ESSIDT", "wikidata": "", "wikipedia": "" }, "geometry": { "type": "Point", "coordinates": [ -58.6897433, -34.4717509 ] } },
{ "type": "Feature", "properties": { "amenity": "clinic", "healthcare": "clinic", "operator": "Municipal", "operator_type": "public", "name": "Unidad Funcional Barrio Santa Monica", "addr_full": "Wilde Y Asamblea", "addr_postcode": "1615", "phone": "", "ref_sisa_codigo": 50065152207073, "ref_sisa_tipologia": "ESSIDT", "wikidata": "", "wikipedia": "" }, "geometry": { "type": "Point", "coordinates": [ -58.7440896, -34.5005576 ] } },
{ "type": "Feature", "properties": { "amenity": "clinic", "healthcare": "clinic", "operator": "Municipal", "operator_type": "public", "name": "Unidad Funcional Chico  Quesada Pacheco", "addr_full": "Morse E\/ Rio De La Plata Y Soler", "addr_postcode": "1613", "phone": "011-46631298", "ref_sisa_codigo": 50065152202743, "ref_sisa_tipologia": "ESSIDT", "wikidata": "", "wikipedia": "" }, "geometry": { "type": "Point", "coordinates": [ -58.6936619, -34.4762691 ] } },
{ "type": "Feature", "properties": { "amenity": "clinic", "healthcare": "clinic", "operator": "Municipal", "operator_type": "public", "name": "Unidad Funcional Delegacion Villa De Mayo", "addr_full": "Eva Peron 464", "addr_postcode": "1614", "phone": "011-46634004", "ref_sisa_codigo": 50065152201586, "ref_sisa_tipologia": "ESSIDT", "wikidata": "", "wikipedia": "" }, "geometry": { "type": "Point", "coordinates": [ -58.7078261, -34.5237245 ] } },
{ "type": "Feature", "properties": { "amenity": "clinic", "healthcare": "clinic", "operator": "Municipal", "operator_type": "public", "name": "Unidad Funcional El Chelito", "addr_full": "Einstein Y Magallanes  - Barrio El Palenque", "addr_postcode": "1667", "phone": "02320-624006", "ref_sisa_codigo": 50065152202015, "ref_sisa_tipologia": "ESSIDT", "wikidata": "", "wikipedia": "" }, "geometry": { "type": "Point", "coordinates": [ -58.7779906, -34.4762956 ] } },
{ "type": "Feature", "properties": { "amenity": "clinic", "healthcare": "clinic", "operator": "Municipal", "operator_type": "public", "name": "Unidad Funcional El Primaveral", "addr_full": "Japon E\/ Costa Rica Y Uruguay", "addr_postcode": "1615", "phone": "02320-498974", "ref_sisa_codigo": 50065152202272, "ref_sisa_tipologia": "ESSIDT", "wikidata": "", "wikipedia": "" }, "geometry": { "type": "Point", "coordinates": [ -58.7191966, -34.4672384 ] } },
{ "type": "Feature", "properties": { "amenity": "clinic", "healthcare": "clinic", "operator": "Municipal", "operator_type": "public", "name": "Unidad Funcional Km 30", "addr_full": "Rosario 4472", "addr_postcode": "1612", "phone": "", "ref_sisa_codigo": 50065152218030, "ref_sisa_tipologia": "ESSIDT", "wikidata": "", "wikipedia": "" }, "geometry": { "type": "Point", "coordinates": [ -58.6686084, -34.5023979 ] } },
{ "type": "Feature", "properties": { "amenity": "clinic", "healthcare": "clinic", "operator": "Municipal", "operator_type": "public", "name": "Unidad Funcional Libertad", "addr_full": "San Martin Y Daguerre - Barrio Olivos", "addr_postcode": "1613", "phone": "", "ref_sisa_codigo": 50065152202016, "ref_sisa_tipologia": "ESSIDT", "wikidata": "", "wikipedia": "" }, "geometry": { "type": "Point", "coordinates": [ -58.6963034, -34.4831329 ] } },
{ "type": "Feature", "properties": { "amenity": "clinic", "healthcare": "clinic", "operator": "Municipal", "operator_type": "public", "name": "Unidad Funcional Magdalena", "addr_full": "San Ignacio Y Cerrito Bo. Magdalena 1461", "addr_postcode": "1613", "phone": "", "ref_sisa_codigo": 50065152201984, "ref_sisa_tipologia": "ESSIDT", "wikidata": "", "wikipedia": "" }, "geometry": { "type": "Point", "coordinates": [ -58.7129524, -34.5065381 ] } },
{ "type": "Feature", "properties": { "amenity": "clinic", "healthcare": "clinic", "operator": "Municipal", "operator_type": "public", "name": "Unidad Funcional Malvinas Argentinas", "addr_full": "Av. Rivadavia 2910 Esq. Escalada", "addr_postcode": "1613", "phone": "", "ref_sisa_codigo": 50065152207108, "ref_sisa_tipologia": "ESSIDT", "wikidata": "", "wikipedia": "" }, "geometry": { "type": "Point", "coordinates": [ -58.6916631, -34.4998923 ] } },
{ "type": "Feature", "properties": { "amenity": "clinic", "healthcare": "clinic", "operator": "Municipal", "operator_type": "public", "name": "Unidad Funcional Parque Alvear", "addr_full": "Colpayo  Y Darragueira", "addr_postcode": "1614", "phone": "", "ref_sisa_codigo": 50065152202017, "ref_sisa_tipologia": "ESSIDT", "wikidata": "", "wikipedia": "" }, "geometry": { "type": "Point", "coordinates": [ -58.6713459, -34.4868463 ] } },
{ "type": "Feature", "properties": { "amenity": "clinic", "healthcare": "clinic", "operator": "Municipal", "operator_type": "public", "name": "Unidad Funcional Pueblo Chico 11 De Febrero   (Grand Bourg)", "addr_full": "Cabo Sosa Y  El Callao", "addr_postcode": "1615", "phone": "02320-480546", "ref_sisa_codigo": 50065152202920, "ref_sisa_tipologia": "ESSIDT", "wikidata": "", "wikipedia": "" }, "geometry": { "type": "Point", "coordinates": [ -58.717545, -34.498546 ] } },
{ "type": "Feature", "properties": { "amenity": "clinic", "healthcare": "clinic", "operator": "Municipal", "operator_type": "public", "name": "Unidad Funcional Pueblo Chico Barrio El Sol", "addr_full": "San Martin Y Mahatma Gandhy", "addr_postcode": "1613", "phone": "011-44560792", "ref_sisa_codigo": 50065152202085, "ref_sisa_tipologia": "ESSIDT", "wikidata": "", "wikipedia": "" }, "geometry": { "type": "Point", "coordinates": [ -58.705689, -34.5072453 ] } },
{ "type": "Feature", "properties": { "amenity": "clinic", "healthcare": "clinic", "operator": "Municipal", "operator_type": "public", "name": "Unidad Funcional Pueblo Chico Doctor Ferruccio Sabato", "addr_full": "Valparaiso E\/ Colombia Y Cuba", "addr_postcode": "1667", "phone": "023-20492486", "ref_sisa_codigo": 50065152206842, "ref_sisa_tipologia": "ESSIDT", "wikidata": "", "wikipedia": "" }, "geometry": { "type": "Point", "coordinates": [ -58.7307644, -34.4644529 ] } },
{ "type": "Feature", "properties": { "amenity": "clinic", "healthcare": "clinic", "operator": "Municipal", "operator_type": "public", "name": "Unidad Funcional Pueblo Chico Haiti", "addr_full": "Haiti 1056", "addr_postcode": "1613", "phone": "", "ref_sisa_codigo": 50065152207014, "ref_sisa_tipologia": "ESSIDT", "wikidata": "", "wikipedia": "" }, "geometry": { "type": "Point", "coordinates": [ -58.743603, -34.472989 ] } },
{ "type": "Feature", "properties": { "amenity": "clinic", "healthcare": "clinic", "operator": "Municipal", "operator_type": "public", "name": "Unidad Funcional Pueblo Chico Tortuguitas", "addr_full": "Avenida Directorio Entre Misones Y Moreno 297", "addr_postcode": "1667", "phone": "02320-624416", "ref_sisa_codigo": 50065152202018, "ref_sisa_tipologia": "ESSIDT", "wikidata": "", "wikipedia": "" }, "geometry": { "type": "Point", "coordinates": [ -58.7575221, -34.4679204 ] } },
{ "type": "Feature", "properties": { "amenity": "clinic", "healthcare": "clinic", "operator": "Municipal", "operator_type": "public", "name": "Unidad Funcional Pueblo Chico Villa De Mayo", "addr_full": "Eva Peron Y Rosario", "addr_postcode": "1613", "phone": "", "ref_sisa_codigo": 50065152216754, "ref_sisa_tipologia": "ESSIDT", "wikidata": "", "wikipedia": "" }, "geometry": { "type": "Point", "coordinates": [ -58.6818087, -34.5026531 ] } },
{ "type": "Feature", "properties": { "amenity": "clinic", "healthcare": "clinic", "operator": "Municipal", "operator_type": "public", "name": "Unidad Funcional Solar Del Norte", "addr_full": "Dante Alighieri 2571 Entre Acevedo Y Artigas- Los Polvorines", "addr_postcode": "1614", "phone": "011-44518485", "ref_sisa_codigo": 50065152202844, "ref_sisa_tipologia": "ESSIDT", "wikidata": "", "wikipedia": "" }, "geometry": { "type": "Point", "coordinates": [ -58.7108924, -34.522327 ] } },
{ "type": "Feature", "properties": { "amenity": "clinic", "healthcare": "clinic", "operator": "Municipal", "operator_type": "public", "name": "Unidad Funcional Teniente 1° Ibañez", "addr_full": "Colpayo 911 Entre Rawson Y Repetto", "addr_postcode": "1612", "phone": "", "ref_sisa_codigo": 50065152201203, "ref_sisa_tipologia": "ESSIDT", "wikidata": "", "wikipedia": "" }, "geometry": { "type": "Point", "coordinates": [ -58.6561882, -34.4990722 ] } },
{ "type": "Feature", "properties": { "amenity": "clinic", "healthcare": "clinic", "operator": "Municipal", "operator_type": "public", "name": "Unidad Funcional Tierras Altas", "addr_full": "Paso De Los Andes E\/ Ecuador Y Edmundo Damicis", "addr_postcode": "1667", "phone": "02320-499138", "ref_sisa_codigo": 50065152202019, "ref_sisa_tipologia": "ESSIDT", "wikidata": "", "wikipedia": "" }, "geometry": { "type": "Point", "coordinates": [ -58.740735, -34.480158 ] } },
{ "type": "Feature", "properties": { "amenity": "clinic", "healthcare": "clinic", "operator": "Municipal", "operator_type": "public", "name": "Unidad Sanitaria Km 30 De Ingeniero Adolfo Sourdeaux", "addr_full": "Rosario E\/ Portela Y Rondeau 4572", "addr_postcode": "1612", "phone": "011-47414366", "ref_sisa_codigo": 50065152202355, "ref_sisa_tipologia": "ESSIDT", "wikidata": "", "wikipedia": "" }, "geometry": { "type": "Point", "coordinates": [ -58.6704662, -34.5025683 ] } },
{ "type": "Feature", "properties": { "amenity": "clinic", "healthcare": "clinic", "operator": "Municipal", "operator_type": "public", "name": "Unidad Sanitaria San Calal", "addr_full": "Marcelo Fitte E\/ Gral. Pico Y Plus Ultra", "addr_postcode": "1612", "phone": "", "ref_sisa_codigo": 50065152202775, "ref_sisa_tipologia": "ESSIDT", "wikidata": "", "wikipedia": "" }, "geometry": { "type": "Point", "coordinates": [ -58.6598017, -34.505318 ] } },
{ "type": "Feature", "properties": { "amenity": "clinic", "healthcare": "clinic", "operator": "Municipal", "operator_type": "public", "name": "Unidad Sanitaria Santa Maria De Grand Bourg", "addr_full": "Santos Vegas E\/B Lynch Y Alte. Brown Bo. San Pascual", "addr_postcode": "1615", "phone": "02320-489966", "ref_sisa_codigo": 50065152202819, "ref_sisa_tipologia": "ESSIDT", "wikidata": "", "wikipedia": "" }, "geometry": { "type": "Point", "coordinates": [ -58.7333801, -34.5016576 ] } }
]
}
