{
"type": "FeatureCollection",
"name": "013-merlo",
"features": [
{ "type": "Feature", "properties": { "amenity": "clinic", "healthcare": "clinic", "operator": "Municipal", "operator_type": "public", "name": "Centro De Salud 26 De Merlo", "addr_full": "Forest Y Costa Rica Barrio El Ceibo", "addr_postcode": "1716", "phone": "0220-4949503", "ref_sisa_codigo": 50065392201302, "ref_sisa_tipologia": "ESSIDT", "wikidata": "", "wikipedia": "" }, "geometry": { "type": "Point", "coordinates": [ -58.6724725, -34.688865 ] } },
{ "type": "Feature", "properties": { "amenity": "clinic", "healthcare": "clinic", "operator": "Municipal", "operator_type": "public", "name": "Cic El Triangulo", "addr_full": "Vidt Y Carlos Gardel (Rp 200)", "addr_postcode": "1722", "phone": "0220-4984297", "ref_sisa_codigo": 50065392201518, "ref_sisa_tipologia": "ESSIDT", "wikidata": "", "wikipedia": "" }, "geometry": { "type": "Point", "coordinates": [ -58.7737656, -34.6976961 ] } },
{ "type": "Feature", "properties": { "amenity": "hospital", "healthcare": "hospital", "operator": "Privado", "operator_type": "private", "name": "Clinica Privada Noguera", "addr_full": "Pedro Noguera 65", "addr_postcode": "1718", "phone": "(0220) 4823590", "ref_sisa_codigo": 10065392300068, "ref_sisa_tipologia": "ESCIG", "wikidata": "", "wikipedia": "" }, "geometry": { "type": "Point", "coordinates": [ -58.6991273, -34.6667026 ] } },
{ "type": "Feature", "properties": { "amenity": "hospital", "healthcare": "hospital", "operator": "Privado", "operator_type": "private", "name": "Clinica Privada Provincial (de Merlo)", "addr_full": "Garay 2260", "addr_postcode": "1722", "phone": "(0220) 4855555", "ref_sisa_codigo": 10065392300145, "ref_sisa_tipologia": "ESCIG", "wikidata": "", "wikipedia": "" }, "geometry": { "type": "Point", "coordinates": [ -58.726269, -34.6626424 ] } },
{ "type": "Feature", "properties": { "amenity": "clinic", "healthcare": "clinic", "operator": "Municipal", "operator_type": "public", "name": "Consultorio Medico Padre Pablo Maria Gazzarri", "addr_full": "Las Marimonias 660 E\/Av. Heredia Y Jonte", "addr_postcode": "1722", "phone": "0220-4995597", "ref_sisa_codigo": 50065392201566, "ref_sisa_tipologia": "ESSIDT", "wikidata": "", "wikipedia": "" }, "geometry": { "type": "Point", "coordinates": [ -58.7708473, -34.7081041 ] } },
{ "type": "Feature", "properties": { "amenity": "clinic", "healthcare": "clinic", "operator": "Municipal", "operator_type": "public", "name": "Direccion De Medicina Preventiva", "addr_full": "Maipú E\/Colón Y Pasteur", "addr_postcode": "1722", "phone": "0220-4851817", "ref_sisa_codigo": 50065392216397, "ref_sisa_tipologia": "ESSIDT", "wikidata": "", "wikipedia": "" }, "geometry": { "type": "Point", "coordinates": [ -58.7222242, -34.6676555 ] } },
{ "type": "Feature", "properties": { "amenity": "clinic", "healthcare": "clinic", "operator": "Municipal", "operator_type": "public", "name": "Dispensario De Atencion Primaria", "addr_full": "Maipu E\/ Colon Y Pasteur", "addr_postcode": "1722", "phone": "0220-4820603", "ref_sisa_codigo": 50065392201594, "ref_sisa_tipologia": "ESSIDT", "wikidata": "", "wikipedia": "" }, "geometry": { "type": "Point", "coordinates": [ -58.7221041, -34.667787 ] } },
{ "type": "Feature", "properties": { "amenity": "hospital", "healthcare": "hospital", "operator": "Provincial", "operator_type": "public", "name": "Hospital Interzonal General De Agudos Eva Peron", "addr_full": "Avenida Doctor Ricardo Balbín 3200", "addr_postcode": "1650", "phone": "(011) 4724-3000", "ref_sisa_codigo": 10063712100230, "ref_sisa_tipologia": "ESCIG", "wikidata": "", "wikipedia": "" }, "geometry": { "type": "Point", "coordinates": [ -58.768599, -34.6917929 ] } },
{ "type": "Feature", "properties": { "amenity": "hospital", "healthcare": "hospital", "operator": "Municipal", "operator_type": "public", "name": "Hospital Municipal Eva Peron", "addr_full": "Colón 451", "addr_postcode": "1722", "phone": "(02220) 482-1308", "ref_sisa_codigo": 10065392200220, "ref_sisa_tipologia": "ESCIG", "wikidata": "", "wikipedia": "" }, "geometry": { "type": "Point", "coordinates": [ -58.7224665, -34.6683989 ] } },
{ "type": "Feature", "properties": { "amenity": "hospital", "healthcare": "hospital", "operator": "Provincial", "operator_type": "public", "name": "Hospital Zonal General De Agudos Heroes De Malvinas", "addr_full": "Avenida Doctor Ricardo Balbín 1910", "addr_postcode": "1722", "phone": "(0220) 483333", "ref_sisa_codigo": 10065392100402, "ref_sisa_tipologia": "ESCIG", "wikidata": "", "wikipedia": "" }, "geometry": { "type": "Point", "coordinates": [ -58.7428545, -34.6691281 ] } },
{ "type": "Feature", "properties": { "amenity": "hospital", "healthcare": "hospital", "operator": "Privado", "operator_type": "private", "name": "Sanatorio Del Oeste", "addr_full": "Estrada 81", "addr_postcode": "1716", "phone": "", "ref_sisa_codigo": 10065392305775, "ref_sisa_tipologia": "ESCIG", "wikidata": "", "wikipedia": "" }, "geometry": { "type": "Point", "coordinates": [ -58.6889643, -34.6910923 ] } },
{ "type": "Feature", "properties": { "amenity": "hospital", "healthcare": "hospital", "operator": "Privado", "operator_type": "private", "name": "Sanatorio Del Oeste (ex Imc Sanatorio Merlo)", "addr_full": "Avenida Del Libertador 295", "addr_postcode": "1722", "phone": "", "ref_sisa_codigo": 10065392317163, "ref_sisa_tipologia": "ESCIG", "wikidata": "", "wikipedia": "" }, "geometry": { "type": "Point", "coordinates": [ -58.7246666, -34.6711776 ] } },
{ "type": "Feature", "properties": { "amenity": "hospital", "healthcare": "hospital", "operator": "Privado", "operator_type": "private", "name": "Sanatorio Privado Mariano Acosta Sa", "addr_full": "Tres Sargentos 540", "addr_postcode": "1723", "phone": "(0220) 4996262", "ref_sisa_codigo": 10065392300012, "ref_sisa_tipologia": "ESCIG", "wikidata": "", "wikipedia": "" }, "geometry": { "type": "Point", "coordinates": [ -58.7907696, -34.7230945 ] } },
{ "type": "Feature", "properties": { "amenity": "clinic", "healthcare": "clinic", "operator": "Municipal", "operator_type": "public", "name": "Unidad Sanitaria 33 Las Torres", "addr_full": "Senillosa Y Juarez Celman Barrio Las Torres", "addr_postcode": "1761", "phone": "0220-4921731", "ref_sisa_codigo": 50065392202938, "ref_sisa_tipologia": "ESSIDT", "wikidata": "", "wikipedia": "" }, "geometry": { "type": "Point", "coordinates": [ -58.6702302, -34.7553638 ] } },
{ "type": "Feature", "properties": { "amenity": "clinic", "healthcare": "clinic", "operator": "Municipal", "operator_type": "public", "name": "Unidad Sanitaria Arco Iris  Ambulatoria", "addr_full": "Davila Y Burela", "addr_postcode": "1722", "phone": "0220-4893182", "ref_sisa_codigo": 50065392202059, "ref_sisa_tipologia": "ESSIDT", "wikidata": "", "wikipedia": "" }, "geometry": { "type": "Point", "coordinates": [ -58.7824538, -34.6795663 ] } },
{ "type": "Feature", "properties": { "amenity": "clinic", "healthcare": "clinic", "operator": "Municipal", "operator_type": "public", "name": "Unidad Sanitaria Barrio Samore De Merlo", "addr_full": "Matorras Y Lacroze Barrio Samore", "addr_postcode": "1722", "phone": "0220-4808081", "ref_sisa_codigo": 50065392202126, "ref_sisa_tipologia": "ESSIDT", "wikidata": "", "wikipedia": "" }, "geometry": { "type": "Point", "coordinates": [ -58.764719, -34.6967514 ] } },
{ "type": "Feature", "properties": { "amenity": "clinic", "healthcare": "clinic", "operator": "Municipal", "operator_type": "public", "name": "Unidad Sanitaria J. Merlo Gomez", "addr_full": "Doblas E\/Andonaegui Y San Antonio Del Camino", "addr_postcode": "1716", "phone": "0220-4950357", "ref_sisa_codigo": 50065392202341, "ref_sisa_tipologia": "ESSIDT", "wikidata": "", "wikipedia": "" }, "geometry": { "type": "Point", "coordinates": [ -58.6469164, -34.7059335 ] } },
{ "type": "Feature", "properties": { "amenity": "clinic", "healthcare": "clinic", "operator": "Municipal", "operator_type": "public", "name": "Unidad Sanitaria Lago Del Bosque", "addr_full": "Braile E\/Guemes E Independencia Barrio Lago Del Bosque", "addr_postcode": "1722", "phone": "0220-4860207", "ref_sisa_codigo": 50065392202387, "ref_sisa_tipologia": "ESSIDT", "wikidata": "", "wikipedia": "" }, "geometry": { "type": "Point", "coordinates": [ -58.7467268, -34.6581505 ] } },
{ "type": "Feature", "properties": { "amenity": "clinic", "healthcare": "clinic", "operator": "Municipal", "operator_type": "public", "name": "Unidad Sanitaria Los Cardales", "addr_full": "Marconi Entre Cangallo Y Ramos Mejia -  Barrio Los Cardales", "addr_postcode": "1716", "phone": "(0220) 4945435", "ref_sisa_codigo": 50065392202420, "ref_sisa_tipologia": "ESSIDT", "wikidata": "", "wikipedia": "" }, "geometry": { "type": "Point", "coordinates": [ -58.7037899, -34.6950551 ] } },
{ "type": "Feature", "properties": { "amenity": "clinic", "healthcare": "clinic", "operator": "Municipal", "operator_type": "public", "name": "Unidad Sanitaria 11 De Merlo", "addr_full": "Av. San Martin Y Bariloche", "addr_postcode": "1722", "phone": "0220-4800111", "ref_sisa_codigo": 50065392202482, "ref_sisa_tipologia": "ESSIDT", "wikidata": "", "wikipedia": "" }, "geometry": { "type": "Point", "coordinates": [ -58.7360837, -34.6910528 ] } },
{ "type": "Feature", "properties": { "amenity": "clinic", "healthcare": "clinic", "operator": "Municipal", "operator_type": "public", "name": "Unidad Sanitaria 13 De Merlo", "addr_full": "Colombia Y Moretti", "addr_postcode": "1716", "phone": "0220-4941322", "ref_sisa_codigo": 50065392202499, "ref_sisa_tipologia": "ESSIDT", "wikidata": "", "wikipedia": "" }, "geometry": { "type": "Point", "coordinates": [ -58.6904647, -34.695931 ] } },
{ "type": "Feature", "properties": { "amenity": "clinic", "healthcare": "clinic", "operator": "Municipal", "operator_type": "public", "name": "Unidad Sanitaria 14 El Ombu De Merlo", "addr_full": "Paysandu Entre Portela Y Averastury", "addr_postcode": "1722", "phone": "0220-4922427", "ref_sisa_codigo": 50065392202509, "ref_sisa_tipologia": "ESSIDT", "wikidata": "", "wikipedia": "" }, "geometry": { "type": "Point", "coordinates": [ -58.6829438, -34.7412678 ] } },
{ "type": "Feature", "properties": { "amenity": "clinic", "healthcare": "clinic", "operator": "Municipal", "operator_type": "public", "name": "Unidad Sanitaria 15 (Cic Santa Marta) De Merlo", "addr_full": "Zabaleta S\/N Entre Gamboa Y Mendez - Barrio Santa Marta", "addr_postcode": "1716", "phone": "0220-4949911", "ref_sisa_codigo": 50065392202511, "ref_sisa_tipologia": "ESSIDT", "wikidata": "", "wikipedia": "" }, "geometry": { "type": "Point", "coordinates": [ -58.6650696, -34.696687 ] } },
{ "type": "Feature", "properties": { "amenity": "clinic", "healthcare": "clinic", "operator": "Municipal", "operator_type": "public", "name": "Unidad Sanitaria 17 Madre Del Pueblo De Merlo", "addr_full": "Salom Entre Azara Y Traful Barrio Madres Del Pueblo", "addr_postcode": "1722", "phone": "0220-4852644", "ref_sisa_codigo": 50065392202528, "ref_sisa_tipologia": "ESSIDT", "wikidata": "", "wikipedia": "" }, "geometry": { "type": "Point", "coordinates": [ -58.7191751, -34.6886974 ] } },
{ "type": "Feature", "properties": { "amenity": "clinic", "healthcare": "clinic", "operator": "Municipal", "operator_type": "public", "name": "Unidad Sanitaria 18 De Merlo", "addr_full": "Coronda Entre Russell Y Martinez De Nuñez", "addr_postcode": "1761", "phone": "0220-4931433", "ref_sisa_codigo": 50065392202537, "ref_sisa_tipologia": "ESSIDT", "wikidata": "", "wikipedia": "" }, "geometry": { "type": "Point", "coordinates": [ -58.7204411, -34.7109696 ] } },
{ "type": "Feature", "properties": { "amenity": "clinic", "healthcare": "clinic", "operator": "Municipal", "operator_type": "public", "name": "Unidad Sanitaria 2 De Merlo", "addr_full": "Tapalque Y Medina", "addr_postcode": "1716", "phone": "(0220) 4945436", "ref_sisa_codigo": 50065392202551, "ref_sisa_tipologia": "ESSIDT", "wikidata": "", "wikipedia": "" }, "geometry": { "type": "Point", "coordinates": [ -58.6643293, -34.70439 ] } },
{ "type": "Feature", "properties": { "amenity": "clinic", "healthcare": "clinic", "operator": "Municipal", "operator_type": "public", "name": "Unidad Sanitaria 20 De Merlo", "addr_full": "De Maria Entre Feval Y Villafañe Barrio San Eduardo", "addr_postcode": "1722", "phone": "0220-4891330", "ref_sisa_codigo": 50065392202561, "ref_sisa_tipologia": "ESSIDT", "wikidata": "", "wikipedia": "" }, "geometry": { "type": "Point", "coordinates": [ -58.7674656, -34.6867566 ] } },
{ "type": "Feature", "properties": { "amenity": "clinic", "healthcare": "clinic", "operator": "Municipal", "operator_type": "public", "name": "Unidad Sanitaria 24 De Merlo", "addr_full": "Ameghino Entre 25 De Mayo Y Rawson - Barrio Ampliación", "addr_postcode": "1722", "phone": "(0220) 480-5869", "ref_sisa_codigo": 50065392202571, "ref_sisa_tipologia": "ESSIDT", "wikidata": "", "wikipedia": "" }, "geometry": { "type": "Point", "coordinates": [ -58.739312, -34.697121 ] } },
{ "type": "Feature", "properties": { "amenity": "clinic", "healthcare": "clinic", "operator": "Municipal", "operator_type": "public", "name": "Unidad Sanitaria 25 De Merlo", "addr_full": "Crespo Entre Portela Y  Ruta 1003", "addr_postcode": "1761", "phone": "0220-4933358", "ref_sisa_codigo": 50065392202574, "ref_sisa_tipologia": "ESSIDT", "wikidata": "", "wikipedia": "" }, "geometry": { "type": "Point", "coordinates": [ -58.7126734, -34.7166932 ] } },
{ "type": "Feature", "properties": { "amenity": "clinic", "healthcare": "clinic", "operator": "Municipal", "operator_type": "public", "name": "Unidad Sanitaria 28 De Merlo", "addr_full": "Francisco E. Gurruchaga Y Luis J. Daguerre - Barrio Las Campanillas", "addr_postcode": "1761", "phone": "(0220) 499-5596", "ref_sisa_codigo": 50065392202582, "ref_sisa_tipologia": "ESSIDT", "wikidata": "", "wikipedia": "" }, "geometry": { "type": "Point", "coordinates": [ -58.737978, -34.719881 ] } },
{ "type": "Feature", "properties": { "amenity": "clinic", "healthcare": "clinic", "operator": "Municipal", "operator_type": "public", "name": "Unidad Sanitaria 3 De Merlo", "addr_full": "Mozart Entre Bach Y Toscanini - Barrio Loma Grande", "addr_postcode": "1722", "phone": "(0220) 480-5842", "ref_sisa_codigo": 50065392202590, "ref_sisa_tipologia": "ESSIDT", "wikidata": "", "wikipedia": "" }, "geometry": { "type": "Point", "coordinates": [ -58.759671, -34.693951 ] } },
{ "type": "Feature", "properties": { "amenity": "clinic", "healthcare": "clinic", "operator": "Municipal", "operator_type": "public", "name": "Unidad Sanitaria 31 De Merlo", "addr_full": "Caraffa Y Ramallo Barrio Los Vascos", "addr_postcode": "1722", "phone": "0220-4850097", "ref_sisa_codigo": 50065392202598, "ref_sisa_tipologia": "ESSIDT", "wikidata": "", "wikipedia": "" }, "geometry": { "type": "Point", "coordinates": [ -58.7364807, -34.6837306 ] } },
{ "type": "Feature", "properties": { "amenity": "clinic", "healthcare": "clinic", "operator": "Municipal", "operator_type": "public", "name": "Unidad Sanitaria 32 La Castellana", "addr_full": "Fresco Y Cobo - Barrio La Castellana S\/Nº", "addr_postcode": "1723", "phone": "0220-4992885", "ref_sisa_codigo": 50065392202937, "ref_sisa_tipologia": "ESSIDT", "wikidata": "", "wikipedia": "" }, "geometry": { "type": "Point", "coordinates": [ -58.8020661, -34.7278307 ] } },
{ "type": "Feature", "properties": { "amenity": "clinic", "healthcare": "clinic", "operator": "Municipal", "operator_type": "public", "name": "Unidad Sanitaria 34 De Merlo", "addr_full": "Pedriel Entre Donato Alvarez Y Viena Barrio Argentino", "addr_postcode": "1722", "phone": "0220-4851430", "ref_sisa_codigo": 50065392202604, "ref_sisa_tipologia": "ESSIDT", "wikidata": "", "wikipedia": "" }, "geometry": { "type": "Point", "coordinates": [ -58.730891, -34.648016 ] } },
{ "type": "Feature", "properties": { "amenity": "clinic", "healthcare": "clinic", "operator": "Municipal", "operator_type": "public", "name": "Unidad Sanitaria 36 De Merlo", "addr_full": "Sivori Y Epecuén - Barrio El Golf", "addr_postcode": "1716", "phone": "(0220) 497-0009", "ref_sisa_codigo": 50065392202608, "ref_sisa_tipologia": "ESSIDT", "wikidata": "", "wikipedia": "" }, "geometry": { "type": "Point", "coordinates": [ -58.674999, -34.698326 ] } },
{ "type": "Feature", "properties": { "amenity": "clinic", "healthcare": "clinic", "operator": "Municipal", "operator_type": "public", "name": "Unidad Sanitaria 37 De Merlo", "addr_full": "Alvear Y Argentina Barrio El Vivero", "addr_postcode": "1761", "phone": "0220-4921660", "ref_sisa_codigo": 50065392202609, "ref_sisa_tipologia": "ESSIDT", "wikidata": "", "wikipedia": "" }, "geometry": { "type": "Point", "coordinates": [ -58.679304, -34.760659 ] } },
{ "type": "Feature", "properties": { "amenity": "clinic", "healthcare": "clinic", "operator": "Municipal", "operator_type": "public", "name": "Unidad Sanitaria 38 De Merlo", "addr_full": "Ruta 200 Km 39500 Entre Finlay Y 24 De Noviembre", "addr_postcode": "1723", "phone": "(0220) 499-2882", "ref_sisa_codigo": 50065392202611, "ref_sisa_tipologia": "ESSIDT", "wikidata": "", "wikipedia": "" }, "geometry": { "type": "Point", "coordinates": [ -58.787524, -34.717271 ] } },
{ "type": "Feature", "properties": { "amenity": "clinic", "healthcare": "clinic", "operator": "Municipal", "operator_type": "public", "name": "Unidad Sanitaria 4 De Merlo", "addr_full": "Francisco Ramírez Entre Alpatacal Y Paso De Los Patos - Barrio El Pericon", "addr_postcode": "1722", "phone": "(0220) 493-2431", "ref_sisa_codigo": 50065392202619, "ref_sisa_tipologia": "ESSIDT", "wikidata": "", "wikipedia": "" }, "geometry": { "type": "Point", "coordinates": [ -58.714739, -34.696068 ] } },
{ "type": "Feature", "properties": { "amenity": "clinic", "healthcare": "clinic", "operator": "Municipal", "operator_type": "public", "name": "Unidad Sanitaria 6 De Merlo", "addr_full": "Dean Funes Y Tarija", "addr_postcode": "1722", "phone": "(0220) 489-2855", "ref_sisa_codigo": 50065392202648, "ref_sisa_tipologia": "ESSIDT", "wikidata": "", "wikipedia": "" }, "geometry": { "type": "Point", "coordinates": [ -58.760444, -34.671294 ] } },
{ "type": "Feature", "properties": { "amenity": "clinic", "healthcare": "clinic", "operator": "Municipal", "operator_type": "public", "name": "Unidad Sanitaria 9 (Cic Rio Alegre) De Merlo", "addr_full": "Loria Esquina Guamini - Barrio Alegre", "addr_postcode": "1723", "phone": "(0220) 498-9192", "ref_sisa_codigo": 50065392202673, "ref_sisa_tipologia": "ESSIDT", "wikidata": "", "wikipedia": "" }, "geometry": { "type": "Point", "coordinates": [ -58.838743, -34.690404 ] } }
]
}
