{
"type": "FeatureCollection",
"name": "014-rosario",
"features": [
{ "type": "Feature", "properties": { "amenity": "clinic", "healthcare": "clinic", "operator": "Provincial", "operator_type": "public", "name": "Caf Hosp Eva Peron- G Baigorria", "addr_full": "Av San Martin 1645", "addr_postcode": "2152", "phone": "0341- 4710940 Int 263", "ref_sisa_codigo": 50820842186024, "ref_sisa_tipologia": "ESSIDT", "wikidata": "Q5908438", "wikipedia": "ES:Hospital Escuela Eva Perón" }, "geometry": { "type": "Point", "coordinates": [ -60.7042909, -32.8563242 ] } },
{ "type": "Feature", "properties": { "amenity": "clinic", "healthcare": "clinic", "operator": "Provincial", "operator_type": "public", "name": "Centro De Dia Vivero Agroecologico Rosario", "addr_full": "Lamadrid 250", "addr_postcode": "2000", "phone": "0341-4802444 int. 131", "ref_sisa_codigo": 52820842186673, "ref_sisa_tipologia": "ESSIT", "wikidata": "", "wikipedia": "" }, "geometry": { "type": "Point", "coordinates": [ -60.62426, -32.996341 ] } },
{ "type": "Feature", "properties": { "amenity": "clinic", "healthcare": "clinic", "operator": "Municipal", "operator_type": "public", "name": "Centro De Especialidades Medicas Ambulatorias (Cemar)", "addr_full": "San Luis 2020", "addr_postcode": "2000", "phone": "0341 - 4802600", "ref_sisa_codigo": 50820842284444, "ref_sisa_tipologia": "ESSIDT", "wikidata": "Q92663278", "wikipedia": "" }, "geometry": { "type": "Point", "coordinates": [ -60.6513695, -32.9467121 ] } },
{ "type": "Feature", "properties": { "amenity": "clinic", "healthcare": "clinic", "operator": "Provincial", "operator_type": "public", "name": "Centro De Salud 17 De Octubre - Villa Gobernador Galvez", "addr_full": "Corrientes 146", "addr_postcode": "2124", "phone": "(0341) 498-3428", "ref_sisa_codigo": 50820842185011, "ref_sisa_tipologia": "ESSIDT", "wikidata": "", "wikipedia": "" }, "geometry": { "type": "Point", "coordinates": [ -60.6063929, -33.0097488 ] } },
{ "type": "Feature", "properties": { "amenity": "clinic", "healthcare": "clinic", "operator": "Provincial", "operator_type": "public", "name": "Centro De Salud Albarellos", "addr_full": "Comercio 235", "addr_postcode": "2101", "phone": "(03402) 49-4034", "ref_sisa_codigo": 50820842184481, "ref_sisa_tipologia": "ESSIDT", "wikidata": "", "wikipedia": "" }, "geometry": { "type": "Point", "coordinates": [ -60.636247, -33.239644 ] } },
{ "type": "Feature", "properties": { "amenity": "clinic", "healthcare": "clinic", "operator": "Provincial", "operator_type": "public", "name": "Centro De Salud Alfonsina Storni", "addr_full": "Bermudez 6390", "addr_postcode": "2000", "phone": "0341-4729677", "ref_sisa_codigo": 50820842186095, "ref_sisa_tipologia": "ESSIDT", "wikidata": "", "wikipedia": "" }, "geometry": { "type": "Point", "coordinates": [ -60.6423694, -33.0104764 ] } },
{ "type": "Feature", "properties": { "amenity": "clinic", "healthcare": "clinic", "operator": "Municipal", "operator_type": "public", "name": "Centro De Salud Alicia Moreau De Justo", "addr_full": "Calle 1333 3040", "addr_postcode": "2000", "phone": "(0341) 4226162", "ref_sisa_codigo": 50820842284990, "ref_sisa_tipologia": "ESSIDT", "wikidata": "Q92662807", "wikipedia": "" }, "geometry": { "type": "Point", "coordinates": [ -60.7276583, -32.8850644 ] } },
{ "type": "Feature", "properties": { "amenity": "clinic", "healthcare": "clinic", "operator": "Provincial", "operator_type": "public", "name": "Centro De Salud Arminda", "addr_full": "Belgrano 647", "addr_postcode": "2119", "phone": "(03469) 493075", "ref_sisa_codigo": 50820842184495, "ref_sisa_tipologia": "ESSIDT", "wikidata": "", "wikipedia": "" }, "geometry": { "type": "Point", "coordinates": [ -60.967994, -33.263754 ] } },
{ "type": "Feature", "properties": { "amenity": "clinic", "healthcare": "clinic", "operator": "Provincial", "operator_type": "public", "name": "Centro De Salud Asistencial A La Comunidad-Ceac", "addr_full": "Esmeralda 2363", "addr_postcode": "2000", "phone": "(0341) 480-8582", "ref_sisa_codigo": 50820842184500, "ref_sisa_tipologia": "ESSIDT", "wikidata": "", "wikipedia": "" }, "geometry": { "type": "Point", "coordinates": [ -60.6260632, -32.9678834 ] } },
{ "type": "Feature", "properties": { "amenity": "clinic", "healthcare": "clinic", "operator": "Municipal", "operator_type": "public", "name": "Centro De Salud Barrio Mortelari", "addr_full": "Pasaje 4 Y Alberdi", "addr_postcode": "2000", "phone": "(0341) 492-8802", "ref_sisa_codigo": 50820842284541, "ref_sisa_tipologia": "ESSIDT", "wikidata": "", "wikipedia": "" }, "geometry": { "type": "Point", "coordinates": [ -60.6170654, -33.0368738 ] } },
{ "type": "Feature", "properties": { "amenity": "clinic", "healthcare": "clinic", "operator": "Provincial", "operator_type": "public", "name": "Centro De Salud Barrio Talleres - Villa Gobernador Galvez", "addr_full": "Saenz Peña 452", "addr_postcode": "2124", "phone": "(0341) 498-3412", "ref_sisa_codigo": 50820842184561, "ref_sisa_tipologia": "ESSIDT", "wikidata": "", "wikipedia": "" }, "geometry": { "type": "Point", "coordinates": [ -60.612575, -33.017604 ] } },
{ "type": "Feature", "properties": { "amenity": "clinic", "healthcare": "clinic", "operator": "Municipal", "operator_type": "public", "name": "Centro De Salud Barrio Toba", "addr_full": "Mario Antonio Cisnero 6055", "addr_postcode": "2000", "phone": "0341\/4805620", "ref_sisa_codigo": 50820842284562, "ref_sisa_tipologia": "ESSIDT", "wikidata": "", "wikipedia": "" }, "geometry": { "type": "Point", "coordinates": [ -60.7041879, -32.9785447 ] } },
{ "type": "Feature", "properties": { "amenity": "clinic", "healthcare": "clinic", "operator": "Provincial", "operator_type": "public", "name": "Centro De Salud Carmen Del Sauce", "addr_full": "Calle Sin Nombre", "addr_postcode": "2109", "phone": "", "ref_sisa_codigo": 50820842186849, "ref_sisa_tipologia": "ESSIDT", "wikidata": "", "wikipedia": "" }, "geometry": { "type": "Point", "coordinates": [ -60.803672, -33.240325 ] } },
{ "type": "Feature", "properties": { "amenity": "clinic", "healthcare": "clinic", "operator": "Municipal", "operator_type": "public", "name": "Centro De Salud Casiano Casas", "addr_full": "Casiano Casas 970", "addr_postcode": "2000", "phone": "(0341) 480-6631", "ref_sisa_codigo": 50820842284597, "ref_sisa_tipologia": "ESSIDT", "wikidata": "", "wikipedia": "" }, "geometry": { "type": "Point", "coordinates": [ -60.6984651, -32.9050137 ] } },
{ "type": "Feature", "properties": { "amenity": "clinic", "healthcare": "clinic", "operator": "Municipal", "operator_type": "public", "name": "Centro De Salud Ceferino Namuncura - Rosario", "addr_full": "Jose Ingenieros 8590", "addr_postcode": "2000", "phone": "(0341) 480-7842", "ref_sisa_codigo": 50820842284469, "ref_sisa_tipologia": "ESSIDT", "wikidata": "Q92662852", "wikipedia": "" }, "geometry": { "type": "Point", "coordinates": [ -60.7488295, -32.9180662 ] } },
{ "type": "Feature", "properties": { "amenity": "clinic", "healthcare": "clinic", "operator": "Municipal", "operator_type": "public", "name": "Centro De Salud Comunal De Piñero", "addr_full": "Sara Pacheco Y 9 De Julio", "addr_postcode": "2119", "phone": "(03402) 46-1151", "ref_sisa_codigo": 50820842284628, "ref_sisa_tipologia": "ESSIDT", "wikidata": "", "wikipedia": "" }, "geometry": { "type": "Point", "coordinates": [ -60.7956276, -33.1087692 ] } },
{ "type": "Feature", "properties": { "amenity": "clinic", "healthcare": "clinic", "operator": "Provincial", "operator_type": "public", "name": "Centro De Salud Coronel Dominguez", "addr_full": "Dominguez 370", "addr_postcode": "2128", "phone": "(03402) 49-3138", "ref_sisa_codigo": 50820842184633, "ref_sisa_tipologia": "ESSIDT", "wikidata": "", "wikipedia": "" }, "geometry": { "type": "Point", "coordinates": [ -60.6806321, -32.9477582 ] } },
{ "type": "Feature", "properties": { "amenity": "clinic", "healthcare": "clinic", "operator": "Municipal", "operator_type": "public", "name": "Centro De Salud Costa Parana", "addr_full": "Costa Del Parana", "addr_postcode": "2126", "phone": "(03402) 47-0746", "ref_sisa_codigo": 50820842284635, "ref_sisa_tipologia": "ESSIDT", "wikidata": "", "wikipedia": "" }, "geometry": { "type": "Point", "coordinates": [ -60.4692822, -33.1927166 ] } },
{ "type": "Feature", "properties": { "amenity": "clinic", "healthcare": "clinic", "operator": "Municipal", "operator_type": "public", "name": "Centro De Salud Doctor Abel E. Faust", "addr_full": "Maipu 767", "addr_postcode": "2132", "phone": "(0341) 493-6555", "ref_sisa_codigo": 50820842284647, "ref_sisa_tipologia": "ESSIDT", "wikidata": "", "wikipedia": "" }, "geometry": { "type": "Point", "coordinates": [ -60.797917, -32.913865 ] } },
{ "type": "Feature", "properties": { "amenity": "clinic", "healthcare": "clinic", "operator": "Municipal", "operator_type": "public", "name": "Centro De Salud Doctor Bernardo Houssay", "addr_full": "Sarmiento Y Angelone", "addr_postcode": "2132", "phone": "(0341) 493-6005", "ref_sisa_codigo": 50820842284644, "ref_sisa_tipologia": "ESSIDT", "wikidata": "", "wikipedia": "" }, "geometry": { "type": "Point", "coordinates": [ -60.8099785, -32.9166583 ] } },
{ "type": "Feature", "properties": { "amenity": "clinic", "healthcare": "clinic", "operator": "Municipal", "operator_type": "public", "name": "Centro De Salud Doctor David Staffieri", "addr_full": "Presidente Juan Domingo Peron 4540", "addr_postcode": "2000", "phone": "0341\/4805647", "ref_sisa_codigo": 50820842284639, "ref_sisa_tipologia": "ESSIDT", "wikidata": "Q92620831", "wikipedia": "" }, "geometry": { "type": "Point", "coordinates": [ -60.6902549, -32.9582148 ] } },
{ "type": "Feature", "properties": { "amenity": "clinic", "healthcare": "clinic", "operator": "Provincial", "operator_type": "public", "name": "Centro De Salud Doctor Ernesto Che Guevara", "addr_full": "Calle 1709 (27 De Febrero Y Circunvalacion)", "addr_postcode": "2000", "phone": "0341-4727507", "ref_sisa_codigo": 50820842184649, "ref_sisa_tipologia": "ESSIDT", "wikidata": "", "wikipedia": "" }, "geometry": { "type": "Point", "coordinates": [ -60.7219462, -32.9610219 ] } },
{ "type": "Feature", "properties": { "amenity": "clinic", "healthcare": "clinic", "operator": "Municipal", "operator_type": "public", "name": "Centro De Salud Doctor Esteban Laureano Maradona - Funes", "addr_full": "Maiztegui 2498", "addr_postcode": "2132", "phone": "(0341) 493-6012", "ref_sisa_codigo": 50820842284470, "ref_sisa_tipologia": "ESSIDT", "wikidata": "", "wikipedia": "" }, "geometry": { "type": "Point", "coordinates": [ -60.861917, -32.91909 ] } },
{ "type": "Feature", "properties": { "amenity": "clinic", "healthcare": "clinic", "operator": "Municipal", "operator_type": "public", "name": "Centro De Salud Doctor Esteban Maradona - Rosario", "addr_full": "Cochabamba 5103", "addr_postcode": "2000", "phone": "(0341) 480-7847", "ref_sisa_codigo": 50820842286260, "ref_sisa_tipologia": "ESSIDT", "wikidata": "Q92663074", "wikipedia": "" }, "geometry": { "type": "Point", "coordinates": [ -60.6935835, -32.9493956 ] } },
{ "type": "Feature", "properties": { "amenity": "clinic", "healthcare": "clinic", "operator": "Municipal", "operator_type": "public", "name": "Centro De Salud Doctor Roque Perez", "addr_full": "Rivadavia 1135", "addr_postcode": "2152", "phone": "(0341) 495-1209", "ref_sisa_codigo": 50820842284646, "ref_sisa_tipologia": "ESSIDT", "wikidata": "", "wikipedia": "" }, "geometry": { "type": "Point", "coordinates": [ -60.7662418, -32.9968512 ] } },
{ "type": "Feature", "properties": { "amenity": "clinic", "healthcare": "clinic", "operator": "Municipal", "operator_type": "public", "name": "Centro De Salud Doctor Salvador Mazza", "addr_full": "Floduardo Grandoli 3498", "addr_postcode": "2000", "phone": "(0341) 480-6636", "ref_sisa_codigo": 50820842284659, "ref_sisa_tipologia": "ESSIDT", "wikidata": "Q92620634", "wikipedia": "" }, "geometry": { "type": "Point", "coordinates": [ -60.7339802, -32.8872602 ] } },
{ "type": "Feature", "properties": { "amenity": "clinic", "healthcare": "clinic", "operator": "Municipal", "operator_type": "public", "name": "Centro De Salud Doctor Victor Cue", "addr_full": "Juan José Paso 2490", "addr_postcode": "2000", "phone": "(0341) 4388990", "ref_sisa_codigo": 50820842284660, "ref_sisa_tipologia": "ESSIDT", "wikidata": "Q92663038", "wikipedia": "" }, "geometry": { "type": "Point", "coordinates": [ -60.7003038, -32.9196883 ] } },
{ "type": "Feature", "properties": { "amenity": "clinic", "healthcare": "clinic", "operator": "Municipal", "operator_type": "public", "name": "Centro De Salud El Gaucho", "addr_full": "Nicolas Avellaneda 5625", "addr_postcode": "2000", "phone": "(0341) 480-9779", "ref_sisa_codigo": 50820842284665, "ref_sisa_tipologia": "ESSIDT", "wikidata": "Q92662616", "wikipedia": "" }, "geometry": { "type": "Point", "coordinates": [ -60.6890302, -33.0040371 ] } },
{ "type": "Feature", "properties": { "amenity": "clinic", "healthcare": "clinic", "operator": "Municipal", "operator_type": "public", "name": "Centro De Salud El Mangrullo", "addr_full": "El Mangrullo 5150", "addr_postcode": "2000", "phone": "(0341) 480-9773", "ref_sisa_codigo": 50820842284667, "ref_sisa_tipologia": "ESSIDT", "wikidata": "Q92662990", "wikipedia": "" }, "geometry": { "type": "Point", "coordinates": [ -60.6148636, -32.9982996 ] } },
{ "type": "Feature", "properties": { "amenity": "clinic", "healthcare": "clinic", "operator": "Municipal", "operator_type": "public", "name": "Centro De Salud Elena Bazet (Ex San Francisco Solano)", "addr_full": "Madre Cabrini 2717", "addr_postcode": "2000", "phone": "(0341) 480-9197", "ref_sisa_codigo": 50820842284672, "ref_sisa_tipologia": "ESSIDT", "wikidata": "Q92620630", "wikipedia": "" }, "geometry": { "type": "Point", "coordinates": [ -60.6718664, -33.0057269 ] } },
{ "type": "Feature", "properties": { "amenity": "clinic", "healthcare": "clinic", "operator": "Municipal", "operator_type": "public", "name": "Centro De Salud Emaus - Rosario", "addr_full": "Urdinarrain 7900", "addr_postcode": "2000", "phone": "0341\/4807804", "ref_sisa_codigo": 50820842284673, "ref_sisa_tipologia": "ESSIDT", "wikidata": "", "wikipedia": "" }, "geometry": { "type": "Point", "coordinates": [ -60.7350876, -32.917123 ] } },
{ "type": "Feature", "properties": { "amenity": "clinic", "healthcare": "clinic", "operator": "Municipal", "operator_type": "public", "name": "Centro De Salud Eva Duarte", "addr_full": "Alfredo Rovillon 2095", "addr_postcode": "2000", "phone": "(0341) 480-7844", "ref_sisa_codigo": 50820842284694, "ref_sisa_tipologia": "ESSIDT", "wikidata": "Q92663076", "wikipedia": "" }, "geometry": { "type": "Point", "coordinates": [ -60.701614, -32.9529551 ] } },
{ "type": "Feature", "properties": { "amenity": "clinic", "healthcare": "clinic", "operator": "Municipal", "operator_type": "public", "name": "Centro De Salud Eva Peron - Funes", "addr_full": "Arnolfo Calvo 2095", "addr_postcode": "2132", "phone": "(0341) 493-6011", "ref_sisa_codigo": 50820842284697, "ref_sisa_tipologia": "ESSIDT", "wikidata": "", "wikipedia": "" }, "geometry": { "type": "Point", "coordinates": [ -60.8141683, -32.9100157 ] } },
{ "type": "Feature", "properties": { "amenity": "clinic", "healthcare": "clinic", "operator": "Municipal", "operator_type": "public", "name": "Centro De Salud Evita", "addr_full": "Chubut 1512", "addr_postcode": "2124", "phone": "(0341) 492-8803", "ref_sisa_codigo": 50820842284700, "ref_sisa_tipologia": "ESSIDT", "wikidata": "", "wikipedia": "" }, "geometry": { "type": "Point", "coordinates": [ -60.631876, -33.033752 ] } },
{ "type": "Feature", "properties": { "amenity": "clinic", "healthcare": "clinic", "operator": "Provincial", "operator_type": "public", "name": "Centro De Salud Fighiera", "addr_full": "Moreno 1040", "addr_postcode": "2126", "phone": "(03402) 47-0746", "ref_sisa_codigo": 50820842184702, "ref_sisa_tipologia": "ESSIDT", "wikidata": "", "wikipedia": "" }, "geometry": { "type": "Point", "coordinates": [ -60.4707482, -33.1934638 ] } },
{ "type": "Feature", "properties": { "amenity": "clinic", "healthcare": "clinic", "operator": "Provincial", "operator_type": "public", "name": "Centro De Salud General Lagos", "addr_full": "Urquiza Y Esq Mitre", "addr_postcode": "2126", "phone": ".03402 - 490306", "ref_sisa_codigo": 50820842184716, "ref_sisa_tipologia": "ESSIDT", "wikidata": "", "wikipedia": "" }, "geometry": { "type": "Point", "coordinates": [ -60.5555456, -33.1084562 ] } },
{ "type": "Feature", "properties": { "amenity": "clinic", "healthcare": "clinic", "operator": "Provincial", "operator_type": "public", "name": "Centro De Salud Ingeniero Mosconi", "addr_full": "Ingeniero Mosconi Y 9 De Julio", "addr_postcode": "2124", "phone": "(0341) 4921874", "ref_sisa_codigo": 50820842186676, "ref_sisa_tipologia": "ESSIDT", "wikidata": "", "wikipedia": "" }, "geometry": { "type": "Point", "coordinates": [ -60.6480718, -33.0261881 ] } },
{ "type": "Feature", "properties": { "amenity": "clinic", "healthcare": "clinic", "operator": "Municipal", "operator_type": "public", "name": "Centro De Salud Intendente Andreu", "addr_full": "Comandante Espora 488", "addr_postcode": "2124", "phone": "(0341) 498-3414", "ref_sisa_codigo": 50820842284731, "ref_sisa_tipologia": "ESSIDT", "wikidata": "", "wikipedia": "" }, "geometry": { "type": "Point", "coordinates": [ -60.6131312, -33.0237876 ] } },
{ "type": "Feature", "properties": { "amenity": "clinic", "healthcare": "clinic", "operator": "Municipal", "operator_type": "public", "name": "Centro De Salud Isabel Duran De Maleandi", "addr_full": "Avenida Pellegrini 2064", "addr_postcode": "2126", "phone": "(0341) 492-1371", "ref_sisa_codigo": 50820842284733, "ref_sisa_tipologia": "ESSIDT", "wikidata": "", "wikipedia": "" }, "geometry": { "type": "Point", "coordinates": [ -60.6541307, -32.9548474 ] } },
{ "type": "Feature", "properties": { "amenity": "clinic", "healthcare": "clinic", "operator": "Municipal", "operator_type": "public", "name": "Centro De Salud Itati - Rosario", "addr_full": "Jose Garibaldi 2502", "addr_postcode": "2000", "phone": "(0341) 4805879", "ref_sisa_codigo": 50820842286541, "ref_sisa_tipologia": "ESSIDT", "wikidata": "Q92620638", "wikipedia": "" }, "geometry": { "type": "Point", "coordinates": [ -60.6674212, -32.9824972 ] } },
{ "type": "Feature", "properties": { "amenity": "clinic", "healthcare": "clinic", "operator": "Provincial", "operator_type": "public", "name": "Centro De Salud Itati - Villa Gobernador Galvez", "addr_full": "Marcos Paz Y Garcia Gonzalez", "addr_postcode": "2124", "phone": "(0341) 492-0343", "ref_sisa_codigo": 50820842184734, "ref_sisa_tipologia": "ESSIDT", "wikidata": "", "wikipedia": "" }, "geometry": { "type": "Point", "coordinates": [ -60.6176147, -33.0368162 ] } },
{ "type": "Feature", "properties": { "amenity": "clinic", "healthcare": "clinic", "operator": "Municipal", "operator_type": "public", "name": "Centro De Salud Jean Henry Dunnant", "addr_full": "Teniente Agneta 1535", "addr_postcode": "2000", "phone": "0341\/4807808", "ref_sisa_codigo": 50820842284738, "ref_sisa_tipologia": "ESSIDT", "wikidata": "", "wikipedia": "" }, "geometry": { "type": "Point", "coordinates": [ -60.6995822, -32.9446075 ] } },
{ "type": "Feature", "properties": { "amenity": "clinic", "healthcare": "clinic", "operator": "Municipal", "operator_type": "public", "name": "Centro De Salud Jose Raul Ugarte", "addr_full": "Suinda 980 (Mendoza 9500)", "addr_postcode": "2000", "phone": "", "ref_sisa_codigo": 50820842284472, "ref_sisa_tipologia": "ESSIDT", "wikidata": "", "wikipedia": "" }, "geometry": { "type": "Point", "coordinates": [ -60.7604778, -32.9405248 ] } },
{ "type": "Feature", "properties": { "amenity": "clinic", "healthcare": "clinic", "operator": "Municipal", "operator_type": "public", "name": "Centro De Salud Juan B. Justo", "addr_full": "Juan B. Justo 2083", "addr_postcode": "2000", "phone": "(0341) 480-4657", "ref_sisa_codigo": 50820842284743, "ref_sisa_tipologia": "ESSIDT", "wikidata": "Q92662884", "wikipedia": "" }, "geometry": { "type": "Point", "coordinates": [ -60.6935623, -32.9143684 ] } },
{ "type": "Feature", "properties": { "amenity": "clinic", "healthcare": "clinic", "operator": "Municipal", "operator_type": "public", "name": "Centro De Salud Juan Pablo Ii", "addr_full": "Coronel Rosendo Maria Fraga 2308", "addr_postcode": "2000", "phone": "(0341) 155114934", "ref_sisa_codigo": 50820842284745, "ref_sisa_tipologia": "ESSIDT", "wikidata": "Q92663080", "wikipedia": "" }, "geometry": { "type": "Point", "coordinates": [ -60.7097572, -32.9557741 ] } },
{ "type": "Feature", "properties": { "amenity": "clinic", "healthcare": "clinic", "operator": "Municipal", "operator_type": "public", "name": "Centro De Salud Juana Azurduy", "addr_full": "Fraga 1087 Bis", "addr_postcode": "2000", "phone": "(0341) 480-4815", "ref_sisa_codigo": 50820842284471, "ref_sisa_tipologia": "ESSIDT", "wikidata": "Q92620840", "wikipedia": "" }, "geometry": { "type": "Point", "coordinates": [ -60.7116069, -32.9158409 ] } },
{ "type": "Feature", "properties": { "amenity": "clinic", "healthcare": "clinic", "operator": "Municipal", "operator_type": "public", "name": "Centro De Salud Julio Maiztegui (Ex San Roque)", "addr_full": "5 De Agosto De 1523", "addr_postcode": "2000", "phone": "(0341) 480-9760", "ref_sisa_codigo": 50820842284747, "ref_sisa_tipologia": "ESSIDT", "wikidata": "", "wikipedia": "" }, "geometry": { "type": "Point", "coordinates": [ -60.6545474, -33.0168885 ] } },
{ "type": "Feature", "properties": { "amenity": "clinic", "healthcare": "clinic", "operator": "Provincial", "operator_type": "public", "name": "Centro De Salud Juntos Podemos Kolping", "addr_full": "Nochetto 593", "addr_postcode": "2000", "phone": "(0341) 480-7544", "ref_sisa_codigo": 50820842184749, "ref_sisa_tipologia": "ESSIDT", "wikidata": "", "wikipedia": "" }, "geometry": { "type": "Point", "coordinates": [ -60.7459507, -32.9360233 ] } },
{ "type": "Feature", "properties": { "amenity": "clinic", "healthcare": "clinic", "operator": "Municipal", "operator_type": "public", "name": "Centro De Salud La Florida", "addr_full": "Luis Braille 1205", "addr_postcode": "2000", "phone": "(0341) 480-6637", "ref_sisa_codigo": 50820842284758, "ref_sisa_tipologia": "ESSIDT", "wikidata": "Q92662389", "wikipedia": "" }, "geometry": { "type": "Point", "coordinates": [ -60.7007611, -32.8831124 ] } },
{ "type": "Feature", "properties": { "amenity": "clinic", "healthcare": "clinic", "operator": "Provincial", "operator_type": "public", "name": "Centro De Salud La Posta", "addr_full": "Boulevard Avellaneda Bis 330", "addr_postcode": "2000", "phone": "0341\/4724658", "ref_sisa_codigo": 50820842184386, "ref_sisa_tipologia": "ESSIDT", "wikidata": "", "wikipedia": "" }, "geometry": { "type": "Point", "coordinates": [ -60.6753684, -32.9243966 ] } },
{ "type": "Feature", "properties": { "amenity": "clinic", "healthcare": "clinic", "operator": "Municipal", "operator_type": "public", "name": "Centro De Salud Las Flores", "addr_full": "Flor De Nacar 6976", "addr_postcode": "2000", "phone": "(0341) 480-9772", "ref_sisa_codigo": 50820842284772, "ref_sisa_tipologia": "ESSIDT", "wikidata": "Q92662693", "wikipedia": "" }, "geometry": { "type": "Point", "coordinates": [ -60.6605486, -33.0179706 ] } },
{ "type": "Feature", "properties": { "amenity": "clinic", "healthcare": "clinic", "operator": "Municipal", "operator_type": "public", "name": "Centro De Salud Las Flores Este", "addr_full": "Khantuta 1397", "addr_postcode": "2000", "phone": "(0341) 480-9767", "ref_sisa_codigo": 50820842284773, "ref_sisa_tipologia": "ESSIDT", "wikidata": "Q92620655", "wikipedia": "" }, "geometry": { "type": "Point", "coordinates": [ -60.6526303, -33.0120497 ] } },
{ "type": "Feature", "properties": { "amenity": "clinic", "healthcare": "clinic", "operator": "Provincial", "operator_type": "public", "name": "Centro De Salud Libertad", "addr_full": "Calle 1816 4496", "addr_postcode": "2000", "phone": "0341-4347575", "ref_sisa_codigo": 50820842185968, "ref_sisa_tipologia": "ESSIDT", "wikidata": "", "wikipedia": "" }, "geometry": { "type": "Point", "coordinates": [ -60.7079897, -32.9826693 ] } },
{ "type": "Feature", "properties": { "amenity": "clinic", "healthcare": "clinic", "operator": "Provincial", "operator_type": "public", "name": "Centro De Salud Los Pinos - Paraje El Caramelo - Zona Rural", "addr_full": "Ruta 18 Km 10.5", "addr_postcode": "2101", "phone": "(03402) 492961", "ref_sisa_codigo": 50820842186542, "ref_sisa_tipologia": "ESSIDT", "wikidata": "", "wikipedia": "" }, "geometry": { "type": "Point", "coordinates": [ -60.7322931, -33.1720959 ] } },
{ "type": "Feature", "properties": { "amenity": "clinic", "healthcare": "clinic", "operator": "Municipal", "operator_type": "public", "name": "Centro De Salud Luchemos Por La Vida", "addr_full": "Juan Francisco Segui 6552", "addr_postcode": "2000", "phone": "0341- 4807697", "ref_sisa_codigo": 50820842284791, "ref_sisa_tipologia": "ESSIDT", "wikidata": "", "wikipedia": "" }, "geometry": { "type": "Point", "coordinates": [ -60.7073572, -32.9708668 ] } },
{ "type": "Feature", "properties": { "amenity": "clinic", "healthcare": "clinic", "operator": "Municipal", "operator_type": "public", "name": "Centro De Salud Ludueña Norte Y Moreno", "addr_full": "Junin 5236", "addr_postcode": "2000", "phone": "0341\/4351530", "ref_sisa_codigo": 50820842284793, "ref_sisa_tipologia": "ESSIDT", "wikidata": "", "wikipedia": "" }, "geometry": { "type": "Point", "coordinates": [ -60.6957282, -32.9271029 ] } },
{ "type": "Feature", "properties": { "amenity": "clinic", "healthcare": "clinic", "operator": "Municipal", "operator_type": "public", "name": "Centro De Salud Luis Pasteur", "addr_full": "Ayolas 270", "addr_postcode": "2000", "phone": "0341\/4809778", "ref_sisa_codigo": 50820842284795, "ref_sisa_tipologia": "ESSIDT", "wikidata": "Q92620661", "wikipedia": "" }, "geometry": { "type": "Point", "coordinates": [ -60.6341311, -32.9788679 ] } },
{ "type": "Feature", "properties": { "amenity": "clinic", "healthcare": "clinic", "operator": "Municipal", "operator_type": "public", "name": "Centro De Salud Marcelino Champagnat", "addr_full": "Castellanos 3935", "addr_postcode": "2000", "phone": "(0341) 480-5648", "ref_sisa_codigo": 50820842284799, "ref_sisa_tipologia": "ESSIDT", "wikidata": "Q92620650", "wikipedia": "" }, "geometry": { "type": "Point", "coordinates": [ -60.684235, -32.9763212 ] } },
{ "type": "Feature", "properties": { "amenity": "clinic", "healthcare": "clinic", "operator": "Municipal", "operator_type": "public", "name": "Centro De Salud Maria Auxiliadora", "addr_full": "Suarez 480", "addr_postcode": "2124", "phone": "(0341) 492-8801", "ref_sisa_codigo": 50820842284803, "ref_sisa_tipologia": "ESSIDT", "wikidata": "", "wikipedia": "" }, "geometry": { "type": "Point", "coordinates": [ -60.6170654, -33.0368738 ] } },
{ "type": "Feature", "properties": { "amenity": "clinic", "healthcare": "clinic", "operator": "Municipal", "operator_type": "public", "name": "Centro De Salud Martin", "addr_full": "Mariano Moreno 950", "addr_postcode": "2000", "phone": "(0341) 480-2303", "ref_sisa_codigo": 50820842284808, "ref_sisa_tipologia": "ESSIDT", "wikidata": "Q92620911", "wikipedia": "" }, "geometry": { "type": "Point", "coordinates": [ -60.6513038, -32.9459305 ] } },
{ "type": "Feature", "properties": { "amenity": "clinic", "healthcare": "clinic", "operator": "Municipal", "operator_type": "public", "name": "Centro De Salud Mauricio Casals", "addr_full": "Juan Francisco Segui 5305", "addr_postcode": "2000", "phone": "(0341) 480-5625", "ref_sisa_codigo": 50820842284811, "ref_sisa_tipologia": "ESSIDT", "wikidata": "Q92663114", "wikipedia": "" }, "geometry": { "type": "Point", "coordinates": [ -60.6954862, -32.9704738 ] } },
{ "type": "Feature", "properties": { "amenity": "clinic", "healthcare": "clinic", "operator": "Municipal", "operator_type": "public", "name": "Centro De Salud Niño Jesus", "addr_full": "Rivadavia 1250", "addr_postcode": "2124", "phone": "(0341) 492-8804", "ref_sisa_codigo": 50820842284823, "ref_sisa_tipologia": "ESSIDT", "wikidata": "", "wikipedia": "" }, "geometry": { "type": "Point", "coordinates": [ -60.6170654, -33.0368738 ] } },
{ "type": "Feature", "properties": { "amenity": "clinic", "healthcare": "clinic", "operator": "Provincial", "operator_type": "public", "name": "Centro De Salud 10 Villa Manuelita", "addr_full": "Ricardo Guiraldes 298 Bis", "addr_postcode": "2000", "phone": "(0341) 480-9434", "ref_sisa_codigo": 50820842184827, "ref_sisa_tipologia": "ESSIDT", "wikidata": "", "wikipedia": "" }, "geometry": { "type": "Point", "coordinates": [ -60.6273458, -32.9863365 ] } },
{ "type": "Feature", "properties": { "amenity": "clinic", "healthcare": "clinic", "operator": "Provincial", "operator_type": "public", "name": "Centro De Salud 11 Pueblo Nuevo", "addr_full": "Buenamesson 580", "addr_postcode": "2124", "phone": "(0341) 492-2777", "ref_sisa_codigo": 50820842184828, "ref_sisa_tipologia": "ESSIDT", "wikidata": "", "wikipedia": "" }, "geometry": { "type": "Point", "coordinates": [ -60.615936, -33.009035 ] } },
{ "type": "Feature", "properties": { "amenity": "clinic", "healthcare": "clinic", "operator": "Provincial", "operator_type": "public", "name": "Centro De Salud 11 Villa Corrientes", "addr_full": "Amenabar 1329", "addr_postcode": "2000", "phone": "(0341) 480-8420", "ref_sisa_codigo": 50820842184829, "ref_sisa_tipologia": "ESSIDT", "wikidata": "", "wikipedia": "" }, "geometry": { "type": "Point", "coordinates": [ -60.6479267, -32.9716153 ] } },
{ "type": "Feature", "properties": { "amenity": "clinic", "healthcare": "clinic", "operator": "Provincial", "operator_type": "public", "name": "Centro De Salud 12 Doctor Garcia Piatti", "addr_full": "Balcarce 3850", "addr_postcode": "2000", "phone": "(0341) 480-9431", "ref_sisa_codigo": 50820842184830, "ref_sisa_tipologia": "ESSIDT", "wikidata": "", "wikipedia": "" }, "geometry": { "type": "Point", "coordinates": [ -60.6610704, -32.9798019 ] } },
{ "type": "Feature", "properties": { "amenity": "clinic", "healthcare": "clinic", "operator": "Provincial", "operator_type": "public", "name": "Centro De Salud 13 Fonavi", "addr_full": "Alfredo Rouillon 3671", "addr_postcode": "2000", "phone": "(0341) 480-5411", "ref_sisa_codigo": 50820842184831, "ref_sisa_tipologia": "ESSIDT", "wikidata": "", "wikipedia": "" }, "geometry": { "type": "Point", "coordinates": [ -60.7008952, -32.9701139 ] } },
{ "type": "Feature", "properties": { "amenity": "clinic", "healthcare": "clinic", "operator": "Provincial", "operator_type": "public", "name": "Centro De Salud 14 Avellaneda Oeste", "addr_full": "Amenabar 4122", "addr_postcode": "2000", "phone": "(0341) 480-5414", "ref_sisa_codigo": 50820842184833, "ref_sisa_tipologia": "ESSIDT", "wikidata": "", "wikipedia": "" }, "geometry": { "type": "Point", "coordinates": [ -60.6761078, -32.9665335 ] } },
{ "type": "Feature", "properties": { "amenity": "clinic", "healthcare": "clinic", "operator": "Provincial", "operator_type": "public", "name": "Centro De Salud 15 Juan Domingo Peron", "addr_full": "Estrella Federal 1789", "addr_postcode": "2000", "phone": "0341-4809435", "ref_sisa_codigo": 50820842184834, "ref_sisa_tipologia": "ESSIDT", "wikidata": "", "wikipedia": "" }, "geometry": { "type": "Point", "coordinates": [ -60.6586162, -33.0204347 ] } },
{ "type": "Feature", "properties": { "amenity": "clinic", "healthcare": "clinic", "operator": "Provincial", "operator_type": "public", "name": "Centro De Salud 16 Pablo Vi", "addr_full": "Avenida Genova 7237", "addr_postcode": "2000", "phone": "0341 - 4807542", "ref_sisa_codigo": 50820842184835, "ref_sisa_tipologia": "ESSIDT", "wikidata": "", "wikipedia": "" }, "geometry": { "type": "Point", "coordinates": [ -60.7198586, -32.9162248 ] } },
{ "type": "Feature", "properties": { "amenity": "clinic", "healthcare": "clinic", "operator": "Provincial", "operator_type": "public", "name": "Centro De Salud 17 Caritas Guadalupe", "addr_full": "Domingo French 5496", "addr_postcode": "2000", "phone": "(0341) 480-9434", "ref_sisa_codigo": 50820842184836, "ref_sisa_tipologia": "ESSIDT", "wikidata": "", "wikipedia": "" }, "geometry": { "type": "Point", "coordinates": [ -60.6992435, -32.9214442 ] } },
{ "type": "Feature", "properties": { "amenity": "clinic", "healthcare": "clinic", "operator": "Provincial", "operator_type": "public", "name": "Centro De Salud 18 San Fernando", "addr_full": "Eva Peron 634", "addr_postcode": "2152", "phone": "0341-4710369", "ref_sisa_codigo": 50820842184837, "ref_sisa_tipologia": "ESSIDT", "wikidata": "", "wikipedia": "" }, "geometry": { "type": "Point", "coordinates": [ -60.7145855, -32.8584181 ] } },
{ "type": "Feature", "properties": { "amenity": "clinic", "healthcare": "clinic", "operator": "Provincial", "operator_type": "public", "name": "Centro De Salud 19 La Ceramica", "addr_full": "Ongamira 2889", "addr_postcode": "2000", "phone": "(0341) 454-9434", "ref_sisa_codigo": 50820842184838, "ref_sisa_tipologia": "ESSIDT", "wikidata": "", "wikipedia": "" }, "geometry": { "type": "Point", "coordinates": [ -60.7068981, -32.8869003 ] } },
{ "type": "Feature", "properties": { "amenity": "clinic", "healthcare": "clinic", "operator": "Provincial", "operator_type": "public", "name": "Centro De Salud 2 Fonavi Super Cemento", "addr_full": "Donado Bis", "addr_postcode": "2000", "phone": "(0341) 480-7540", "ref_sisa_codigo": 50820842184840, "ref_sisa_tipologia": "ESSIDT", "wikidata": "", "wikipedia": "" }, "geometry": { "type": "Point", "coordinates": [ -60.7279955, -32.9185399 ] } },
{ "type": "Feature", "properties": { "amenity": "clinic", "healthcare": "clinic", "operator": "Provincial", "operator_type": "public", "name": "Centro De Salud 20 La Esperanza", "addr_full": "Pablo A. Pizzurno 1930", "addr_postcode": "2000", "phone": "(0341) 454-9442", "ref_sisa_codigo": 50820842184842, "ref_sisa_tipologia": "ESSIDT", "wikidata": "", "wikipedia": "" }, "geometry": { "type": "Point", "coordinates": [ -60.711509, -32.8975132 ] } },
{ "type": "Feature", "properties": { "amenity": "clinic", "healthcare": "clinic", "operator": "Provincial", "operator_type": "public", "name": "Centro De Salud 21 Cabin 9", "addr_full": "Aguaribay Y Hudson", "addr_postcode": "2121", "phone": "(0341) 495-6306", "ref_sisa_codigo": 50820842184843, "ref_sisa_tipologia": "ESSIDT", "wikidata": "", "wikipedia": "" }, "geometry": { "type": "Point", "coordinates": [ -60.7415, -32.96991 ] } },
{ "type": "Feature", "properties": { "amenity": "clinic", "healthcare": "clinic", "operator": "Provincial", "operator_type": "public", "name": "Centro De Salud 22 Gonzalez Loza", "addr_full": "Bolonia 4787", "addr_postcode": "2000", "phone": "(0341) 480-9430", "ref_sisa_codigo": 50820842184844, "ref_sisa_tipologia": "ESSIDT", "wikidata": "", "wikipedia": "" }, "geometry": { "type": "Point", "coordinates": [ -60.6682527, -32.9893222 ] } },
{ "type": "Feature", "properties": { "amenity": "clinic", "healthcare": "clinic", "operator": "Provincial", "operator_type": "public", "name": "Centro De Salud 23 San Miguel", "addr_full": "Santa Fe 937", "addr_postcode": "2152", "phone": "(0341) 15-5812915", "ref_sisa_codigo": 50820842184846, "ref_sisa_tipologia": "ESSIDT", "wikidata": "", "wikipedia": "" }, "geometry": { "type": "Point", "coordinates": [ -60.6354399, -32.9459778 ] } },
{ "type": "Feature", "properties": { "amenity": "clinic", "healthcare": "clinic", "operator": "Provincial", "operator_type": "public", "name": "Centro De Salud 25 Fonavi", "addr_full": "Calle 1110 2877", "addr_postcode": "2000", "phone": "(0341) 480-5410", "ref_sisa_codigo": 50820842184848, "ref_sisa_tipologia": "ESSIDT", "wikidata": "", "wikipedia": "" }, "geometry": { "type": "Point", "coordinates": [ -60.6658754, -32.9668105 ] } },
{ "type": "Feature", "properties": { "amenity": "clinic", "healthcare": "clinic", "operator": "Provincial", "operator_type": "public", "name": "Centro De Salud 26 De La Comunidad Organizada", "addr_full": "Tucuman 7363", "addr_postcode": "2000", "phone": "(0341) 457-5665", "ref_sisa_codigo": 50820842184849, "ref_sisa_tipologia": "ESSIDT", "wikidata": "", "wikipedia": "" }, "geometry": { "type": "Point", "coordinates": [ -60.7206818, -32.9328722 ] } },
{ "type": "Feature", "properties": { "amenity": "clinic", "healthcare": "clinic", "operator": "Provincial", "operator_type": "public", "name": "Centro De Salud 27 Ramon Carrillo", "addr_full": "Tupac Amaru 5515", "addr_postcode": "2000", "phone": "(0341) 480-7543", "ref_sisa_codigo": 50820842184850, "ref_sisa_tipologia": "ESSIDT", "wikidata": "", "wikipedia": "" }, "geometry": { "type": "Point", "coordinates": [ -60.7000476, -32.9300345 ] } },
{ "type": "Feature", "properties": { "amenity": "clinic", "healthcare": "clinic", "operator": "Provincial", "operator_type": "public", "name": "Centro De Salud 28 Sargento Cabral", "addr_full": "Punta Del Indio 8428", "addr_postcode": "2000", "phone": "(0341) 480-9436", "ref_sisa_codigo": 50820842184851, "ref_sisa_tipologia": "ESSIDT", "wikidata": "", "wikipedia": "" }, "geometry": { "type": "Point", "coordinates": [ -60.6876248, -33.030659 ] } },
{ "type": "Feature", "properties": { "amenity": "clinic", "healthcare": "clinic", "operator": "Provincial", "operator_type": "public", "name": "Centro De Salud 29 Araoz De La Madrid", "addr_full": "Laferrere 4629", "addr_postcode": "2000", "phone": "(0341) 480-9437", "ref_sisa_codigo": 50820842184852, "ref_sisa_tipologia": "ESSIDT", "wikidata": "", "wikipedia": "" }, "geometry": { "type": "Point", "coordinates": [ -60.6263668, -32.9913437 ] } },
{ "type": "Feature", "properties": { "amenity": "clinic", "healthcare": "clinic", "operator": "Provincial", "operator_type": "public", "name": "Centro De Salud 3 - 7 De Septiembre", "addr_full": "Martin Estrada 8150", "addr_postcode": "2000", "phone": "(0341) 480-7541", "ref_sisa_codigo": 50820842184853, "ref_sisa_tipologia": "ESSIDT", "wikidata": "", "wikipedia": "" }, "geometry": { "type": "Point", "coordinates": [ -60.7342141, -32.9125103 ] } },
{ "type": "Feature", "properties": { "amenity": "clinic", "healthcare": "clinic", "operator": "Provincial", "operator_type": "public", "name": "Centro De Salud 30 Santa Rita", "addr_full": "Chaco 422", "addr_postcode": "2152", "phone": "(0341) 471-4535", "ref_sisa_codigo": 50820842184968, "ref_sisa_tipologia": "ESSIDT", "wikidata": "", "wikipedia": "" }, "geometry": { "type": "Point", "coordinates": [ -60.6938117, -32.9196553 ] } },
{ "type": "Feature", "properties": { "amenity": "clinic", "healthcare": "clinic", "operator": "Provincial", "operator_type": "public", "name": "Centro De Salud 47 Barrio Toba", "addr_full": "Juan Jose Paso 5132", "addr_postcode": "2000", "phone": "(0341) 480-4535", "ref_sisa_codigo": 50820842184858, "ref_sisa_tipologia": "ESSIDT", "wikidata": "", "wikipedia": "" }, "geometry": { "type": "Point", "coordinates": [ -60.6943911, -32.9196685 ] } },
{ "type": "Feature", "properties": { "amenity": "clinic", "healthcare": "clinic", "operator": "Provincial", "operator_type": "public", "name": "Centro De Salud 5 Pedro Fiorina", "addr_full": "Avenida Francia 3104", "addr_postcode": "2000", "phone": "(0341) 480-5413", "ref_sisa_codigo": 50820842184860, "ref_sisa_tipologia": "ESSIDT", "wikidata": "", "wikipedia": "" }, "geometry": { "type": "Point", "coordinates": [ -60.6724395, -32.9684727 ] } },
{ "type": "Feature", "properties": { "amenity": "clinic", "healthcare": "clinic", "operator": "Provincial", "operator_type": "public", "name": "Centro De Salud 54 Remanso Valerio", "addr_full": "Barrio Remanso Valerio", "addr_postcode": "2152", "phone": "(0341) 471-4561", "ref_sisa_codigo": 50820842184866, "ref_sisa_tipologia": "ESSIDT", "wikidata": "", "wikipedia": "" }, "geometry": { "type": "Point", "coordinates": [ -60.69052, -32.86745 ] } },
{ "type": "Feature", "properties": { "amenity": "clinic", "healthcare": "clinic", "operator": "Provincial", "operator_type": "public", "name": "Centro De Salud 6 Eva Peron - Rosario", "addr_full": "Antonio Luis Beruti 2732", "addr_postcode": "2000", "phone": "(0341) 480-8421", "ref_sisa_codigo": 50820842184864, "ref_sisa_tipologia": "ESSIDT", "wikidata": "", "wikipedia": "" }, "geometry": { "type": "Point", "coordinates": [ -60.6256755, -32.9721614 ] } },
{ "type": "Feature", "properties": { "amenity": "clinic", "healthcare": "clinic", "operator": "Provincial", "operator_type": "public", "name": "Centro De Salud 7 12 De Octubre", "addr_full": "Maestro Massa 470", "addr_postcode": "2000", "phone": "0341-4549422", "ref_sisa_codigo": 50820842185989, "ref_sisa_tipologia": "ESSIDT", "wikidata": "", "wikipedia": "" }, "geometry": { "type": "Point", "coordinates": [ -60.6938463, -32.8735332 ] } },
{ "type": "Feature", "properties": { "amenity": "clinic", "healthcare": "clinic", "operator": "Provincial", "operator_type": "public", "name": "Centro De Salud 8 Independencia", "addr_full": "Casiano Casas 1801", "addr_postcode": "2000", "phone": "0341 - 5252818", "ref_sisa_codigo": 50820842184869, "ref_sisa_tipologia": "ESSIDT", "wikidata": "", "wikipedia": "" }, "geometry": { "type": "Point", "coordinates": [ -60.70885, -32.901993 ] } },
{ "type": "Feature", "properties": { "amenity": "clinic", "healthcare": "clinic", "operator": "Provincial", "operator_type": "public", "name": "Centro De Salud 9 San Francisquito", "addr_full": "Galvez 3501", "addr_postcode": "2000", "phone": "(0341) 480-5412", "ref_sisa_codigo": 50820842184872, "ref_sisa_tipologia": "ESSIDT", "wikidata": "", "wikipedia": "" }, "geometry": { "type": "Point", "coordinates": [ -60.6766114, -32.9628999 ] } },
{ "type": "Feature", "properties": { "amenity": "clinic", "healthcare": "clinic", "operator": "Municipal", "operator_type": "public", "name": "Centro De Salud Parque Sur", "addr_full": "Bolonia 5350", "addr_postcode": "2000", "phone": "(0341) 480-9196", "ref_sisa_codigo": 50820842284890, "ref_sisa_tipologia": "ESSIDT", "wikidata": "Q92620762", "wikipedia": "" }, "geometry": { "type": "Point", "coordinates": [ -60.668588, -33.0000264 ] } },
{ "type": "Feature", "properties": { "amenity": "clinic", "healthcare": "clinic", "operator": "Municipal", "operator_type": "public", "name": "Centro De Salud Pocho Lepratti", "addr_full": "Caña De Ambar 1667", "addr_postcode": "2000", "phone": "(0341) 480-9529", "ref_sisa_codigo": 50820842284898, "ref_sisa_tipologia": "ESSIDT", "wikidata": "", "wikipedia": "" }, "geometry": { "type": "Point", "coordinates": [ -60.6566924, -33.0151569 ] } },
{ "type": "Feature", "properties": { "amenity": "clinic", "healthcare": "clinic", "operator": "Municipal", "operator_type": "public", "name": "Centro De Salud Posta Sanitaria El Triangulo", "addr_full": "Chubut E Iriondo", "addr_postcode": "2000", "phone": "", "ref_sisa_codigo": 50820842184899, "ref_sisa_tipologia": "ESSIDT", "wikidata": "", "wikipedia": "" }, "geometry": { "type": "Point", "coordinates": [ -60.6170654, -33.0368738 ] } },
{ "type": "Feature", "properties": { "amenity": "clinic", "healthcare": "clinic", "operator": "Municipal", "operator_type": "public", "name": "Centro De Salud Primero De Mayo", "addr_full": "Juan De Dios Mena 2221", "addr_postcode": "2000", "phone": "(0341) 4558239", "ref_sisa_codigo": 50820842285009, "ref_sisa_tipologia": "ESSIDT", "wikidata": "Q92662891", "wikipedia": "" }, "geometry": { "type": "Point", "coordinates": [ -60.712919, -32.8878354 ] } },
{ "type": "Feature", "properties": { "amenity": "clinic", "healthcare": "clinic", "operator": "Provincial", "operator_type": "public", "name": "Centro De Salud Pueblo Esther", "addr_full": "J.D Perón 1835", "addr_postcode": "2126", "phone": "(03402) 49-9678", "ref_sisa_codigo": 50820842184906, "ref_sisa_tipologia": "ESSIDT", "wikidata": "", "wikipedia": "" }, "geometry": { "type": "Point", "coordinates": [ -60.57604, -33.07269 ] } },
{ "type": "Feature", "properties": { "amenity": "clinic", "healthcare": "clinic", "operator": "Provincial", "operator_type": "public", "name": "Centro De Salud Pueblo Muñoz", "addr_full": "Belgrano 310", "addr_postcode": "2119", "phone": "03469-492025 ctx 6374", "ref_sisa_codigo": 50820842184907, "ref_sisa_tipologia": "ESSIDT", "wikidata": "", "wikipedia": "" }, "geometry": { "type": "Point", "coordinates": [ -60.8974206, -33.1721638 ] } },
{ "type": "Feature", "properties": { "amenity": "clinic", "healthcare": "clinic", "operator": "Municipal", "operator_type": "public", "name": "Centro De Salud Ramon Carrillo - Arroyo Seco", "addr_full": "Independencia Y Juan B. Justo", "addr_postcode": "2128", "phone": "03400-430010", "ref_sisa_codigo": 50820842284913, "ref_sisa_tipologia": "ESSIDT", "wikidata": "", "wikipedia": "" }, "geometry": { "type": "Point", "coordinates": [ -60.5146847, -33.151144 ] } },
{ "type": "Feature", "properties": { "amenity": "clinic", "healthcare": "clinic", "operator": "Municipal", "operator_type": "public", "name": "Centro De Salud Roque Coulin", "addr_full": "Humberto Primo 2033", "addr_postcode": "2000", "phone": "(0341) 480-4891", "ref_sisa_codigo": 50820842284921, "ref_sisa_tipologia": "ESSIDT", "wikidata": "Q92620644", "wikipedia": "" }, "geometry": { "type": "Point", "coordinates": [ -60.6917604, -32.9299568 ] } },
{ "type": "Feature", "properties": { "amenity": "clinic", "healthcare": "clinic", "operator": "Municipal", "operator_type": "public", "name": "Centro De Salud Ruben Naranjo (Ex Las Heras)", "addr_full": "Sanchez De Thompson 9 Bis", "addr_postcode": "2000", "phone": "(0341) 480-9190", "ref_sisa_codigo": 50820842284922, "ref_sisa_tipologia": "ESSIDT", "wikidata": "Q92620835", "wikipedia": "" }, "geometry": { "type": "Point", "coordinates": [ -60.628861, -32.992723 ] } },
{ "type": "Feature", "properties": { "amenity": "clinic", "healthcare": "clinic", "operator": "Provincial", "operator_type": "public", "name": "Centro De Salud San Enrique", "addr_full": "Rosario Y Pasaje 4", "addr_postcode": "2124", "phone": "(0341) 492-0345", "ref_sisa_codigo": 50820842184936, "ref_sisa_tipologia": "ESSIDT", "wikidata": "", "wikipedia": "" }, "geometry": { "type": "Point", "coordinates": [ -60.6170654, -33.0368738 ] } },
{ "type": "Feature", "properties": { "amenity": "clinic", "healthcare": "clinic", "operator": "Municipal", "operator_type": "public", "name": "Centro De Salud San Martin - Rosario", "addr_full": "Chubut 7145", "addr_postcode": "2000", "phone": "(0341) 480-7800", "ref_sisa_codigo": 50820842284953, "ref_sisa_tipologia": "ESSIDT", "wikidata": "Q92663063", "wikipedia": "" }, "geometry": { "type": "Point", "coordinates": [ -60.717553, -32.946264 ] } },
{ "type": "Feature", "properties": { "amenity": "clinic", "healthcare": "clinic", "operator": "Municipal", "operator_type": "public", "name": "Centro De Salud San Martin - Villa Gobernador Galvez", "addr_full": "Suipacha 3000", "addr_postcode": "2124", "phone": "(0341) 492-0344", "ref_sisa_codigo": 50820842284954, "ref_sisa_tipologia": "ESSIDT", "wikidata": "", "wikipedia": "" }, "geometry": { "type": "Point", "coordinates": [ -60.6542087, -33.0366186 ] } },
{ "type": "Feature", "properties": { "amenity": "clinic", "healthcare": "clinic", "operator": "Municipal", "operator_type": "public", "name": "Centro De Salud San Vicente De Paul", "addr_full": "Punta Del Indio 7760", "addr_postcode": "2000", "phone": "(0341) 480-9765", "ref_sisa_codigo": 50820842284961, "ref_sisa_tipologia": "ESSIDT", "wikidata": "Q92662703", "wikipedia": "" }, "geometry": { "type": "Point", "coordinates": [ -60.6872598, -33.0280168 ] } },
{ "type": "Feature", "properties": { "amenity": "clinic", "healthcare": "clinic", "operator": "Municipal", "operator_type": "public", "name": "Centro De Salud Santa Lucia - Rosario", "addr_full": "Calle 1739 7691", "addr_postcode": "2000", "phone": "(0341) 480-7841", "ref_sisa_codigo": 50820842284965, "ref_sisa_tipologia": "ESSIDT", "wikidata": "", "wikipedia": "" }, "geometry": { "type": "Point", "coordinates": [ -60.7235298, -32.9629321 ] } },
{ "type": "Feature", "properties": { "amenity": "clinic", "healthcare": "clinic", "operator": "Municipal", "operator_type": "public", "name": "Centro De Salud Santa Maria Josefa Rosello", "addr_full": "Avenida Rivarola 7100", "addr_postcode": "2000", "phone": "0341\/4807845", "ref_sisa_codigo": 50820842284967, "ref_sisa_tipologia": "ESSIDT", "wikidata": "", "wikipedia": "" }, "geometry": { "type": "Point", "coordinates": [ -60.7165041, -32.965882 ] } },
{ "type": "Feature", "properties": { "amenity": "clinic", "healthcare": "clinic", "operator": "Municipal", "operator_type": "public", "name": "Centro De Salud Santa Teresita", "addr_full": "Calle 1218 4740", "addr_postcode": "2000", "phone": "(0341) 480-9195", "ref_sisa_codigo": 50820842284971, "ref_sisa_tipologia": "ESSIDT", "wikidata": "", "wikipedia": "" }, "geometry": { "type": "Point", "coordinates": [ -60.6793699, -32.9831009 ] } },
{ "type": "Feature", "properties": { "amenity": "clinic", "healthcare": "clinic", "operator": "Municipal", "operator_type": "public", "name": "Centro De Salud Soldini", "addr_full": "Avenida San Martin 1256", "addr_postcode": "2107", "phone": "0341-4901663", "ref_sisa_codigo": 50820842284466, "ref_sisa_tipologia": "ESSIDT", "wikidata": "", "wikipedia": "" }, "geometry": { "type": "Point", "coordinates": [ -60.6381131, -32.9524398 ] } },
{ "type": "Feature", "properties": { "amenity": "clinic", "healthcare": "clinic", "operator": "Municipal", "operator_type": "public", "name": "Centro De Salud Sur - Rosario", "addr_full": "Ayacucho 6309", "addr_postcode": "2000", "phone": "(0341) 480-9771", "ref_sisa_codigo": 50820842284979, "ref_sisa_tipologia": "ESSIDT", "wikidata": "Q92662744", "wikipedia": "" }, "geometry": { "type": "Point", "coordinates": [ -60.635749, -33.0096267 ] } },
{ "type": "Feature", "properties": { "amenity": "clinic", "healthcare": "clinic", "operator": "Municipal", "operator_type": "public", "name": "Centro De Salud Tio Rolo", "addr_full": "Nicolas Avellaneda 6935", "addr_postcode": "2000", "phone": "(0341) 480-9524", "ref_sisa_codigo": 50820842284983, "ref_sisa_tipologia": "ESSIDT", "wikidata": "", "wikipedia": "" }, "geometry": { "type": "Point", "coordinates": [ -60.6893585, -33.0096154 ] } },
{ "type": "Feature", "properties": { "amenity": "clinic", "healthcare": "clinic", "operator": "Municipal", "operator_type": "public", "name": "Centro De Salud Uranga", "addr_full": "San Luis 240", "addr_postcode": "2105", "phone": "(03469) 49-0248", "ref_sisa_codigo": 50820842285330, "ref_sisa_tipologia": "ESSIDT", "wikidata": "", "wikipedia": "" }, "geometry": { "type": "Point", "coordinates": [ -60.7074559, -33.2636528 ] } },
{ "type": "Feature", "properties": { "amenity": "clinic", "healthcare": "clinic", "operator": "Municipal", "operator_type": "public", "name": "Centro De Salud Vecinal 20 De Junio (Ex Tiro Suizo)", "addr_full": "Margis 5115", "addr_postcode": "2000", "phone": "0341\/4809766", "ref_sisa_codigo": 50820842284992, "ref_sisa_tipologia": "ESSIDT", "wikidata": "", "wikipedia": "" }, "geometry": { "type": "Point", "coordinates": [ -60.6613082, -32.9921607 ] } },
{ "type": "Feature", "properties": { "amenity": "clinic", "healthcare": "clinic", "operator": "Municipal", "operator_type": "public", "name": "Centro De Salud Vecinal Amor Al Estudio", "addr_full": "Junín 1684", "addr_postcode": "2000", "phone": "0341-4393937", "ref_sisa_codigo": 50820842286101, "ref_sisa_tipologia": "ESSIDT", "wikidata": "Q92662529", "wikipedia": "" }, "geometry": { "type": "Point", "coordinates": [ -60.6873264, -32.9268237 ] } },
{ "type": "Feature", "properties": { "amenity": "clinic", "healthcare": "clinic", "operator": "Municipal", "operator_type": "public", "name": "Centro De Salud Vecinal Angel Invaldi", "addr_full": "Ecuador Bis 645", "addr_postcode": "2000", "phone": "", "ref_sisa_codigo": 50820842284493, "ref_sisa_tipologia": "ESSIDT", "wikidata": "Q92663248", "wikipedia": "" }, "geometry": { "type": "Point", "coordinates": [ -60.715932, -32.921562 ] } },
{ "type": "Feature", "properties": { "amenity": "clinic", "healthcare": "clinic", "operator": "Municipal", "operator_type": "public", "name": "Centro De Salud Vecinal Antonio Paravano", "addr_full": "Burucuya 929 Bis", "addr_postcode": "2000", "phone": "", "ref_sisa_codigo": 50820842284987, "ref_sisa_tipologia": "ESSIDT", "wikidata": "Q92662799", "wikipedia": "" }, "geometry": { "type": "Point", "coordinates": [ -60.714805, -32.918185 ] } },
{ "type": "Feature", "properties": { "amenity": "clinic", "healthcare": "clinic", "operator": "Municipal", "operator_type": "public", "name": "Centro De Salud Vecinal Barrio Plata", "addr_full": "Lamadrid 3307", "addr_postcode": "2000", "phone": "(0341) 480-9768", "ref_sisa_codigo": 50820842284476, "ref_sisa_tipologia": "ESSIDT", "wikidata": "Q92662611", "wikipedia": "" }, "geometry": { "type": "Point", "coordinates": [ -60.6807926, -32.9979464 ] } },
{ "type": "Feature", "properties": { "amenity": "clinic", "healthcare": "clinic", "operator": "Municipal", "operator_type": "public", "name": "Centro De Salud Vecinal Domingo Matheu", "addr_full": "Corrientes 3880", "addr_postcode": "2000", "phone": "(0341) 480-9769", "ref_sisa_codigo": 50820842284988, "ref_sisa_tipologia": "ESSIDT", "wikidata": "Q92662901", "wikipedia": "" }, "geometry": { "type": "Point", "coordinates": [ -60.6514275, -32.9814457 ] } },
{ "type": "Feature", "properties": { "amenity": "clinic", "healthcare": "clinic", "operator": "Municipal", "operator_type": "public", "name": "Centro De Salud Vecinal Julio A. Roca", "addr_full": "V. Deliot 5323", "addr_postcode": "2000", "phone": "0341\/4805859", "ref_sisa_codigo": 50820842284989, "ref_sisa_tipologia": "ESSIDT", "wikidata": "", "wikipedia": "" }, "geometry": { "type": "Point", "coordinates": [ -60.6669331, -32.9501271 ] } },
{ "type": "Feature", "properties": { "amenity": "clinic", "healthcare": "clinic", "operator": "Municipal", "operator_type": "public", "name": "Centro De Salud Vecinal San Martin A", "addr_full": "Piedras 1469", "addr_postcode": "2000", "phone": "(0341) 480-9521", "ref_sisa_codigo": 50820842284991, "ref_sisa_tipologia": "ESSIDT", "wikidata": "Q92663251", "wikipedia": "" }, "geometry": { "type": "Point", "coordinates": [ -60.65412, -33.0072432 ] } },
{ "type": "Feature", "properties": { "amenity": "clinic", "healthcare": "clinic", "operator": "Municipal", "operator_type": "public", "name": "Centro De Salud Villa Urquiza", "addr_full": "Ocampo 5579", "addr_postcode": "2000", "phone": "(0341) 155115168", "ref_sisa_codigo": 50820842285003, "ref_sisa_tipologia": "ESSIDT", "wikidata": "", "wikipedia": "" }, "geometry": { "type": "Point", "coordinates": [ -60.6989038, -32.9577813 ] } },
{ "type": "Feature", "properties": { "amenity": "clinic", "healthcare": "clinic", "operator": "Provincial", "operator_type": "public", "name": "Centro Regional De Hemoterapia Sur", "addr_full": "Lavalle 356", "addr_postcode": "2000", "phone": "0341-4804888", "ref_sisa_codigo": 53820842188591, "ref_sisa_tipologia": "ESCL", "wikidata": "Q92662979", "wikipedia": "" }, "geometry": { "type": "Point", "coordinates": [ -60.67669, -32.934182 ] } },
{ "type": "Feature", "properties": { "amenity": "clinic", "healthcare": "clinic", "operator": "Provincial", "operator_type": "public", "name": "Centro Regional De Salud Mental Doctor Agudo Avila", "addr_full": "Suipacha 600", "addr_postcode": "2000", "phone": "0341-4724640\/55\/90", "ref_sisa_codigo": 13820842184285, "ref_sisa_tipologia": "ESCIESM", "wikidata": "", "wikipedia": "" }, "geometry": { "type": "Point", "coordinates": [ -60.6634998, -32.9399666 ] } },
{ "type": "Feature", "properties": { "amenity": "clinic", "healthcare": "clinic", "operator": "Provincial", "operator_type": "public", "name": "Cic 20 De Junio", "addr_full": "San Luis 2126", "addr_postcode": "2124", "phone": "0341-4983413", "ref_sisa_codigo": 50820842185048, "ref_sisa_tipologia": "ESSIDT", "wikidata": "", "wikipedia": "" }, "geometry": { "type": "Point", "coordinates": [ -60.6528979, -32.9464268 ] } },
{ "type": "Feature", "properties": { "amenity": "hospital", "healthcare": "hospital", "operator": "Privado", "operator_type": "private", "name": "Clinica Acebal", "addr_full": "Acebal 591", "addr_postcode": "2109", "phone": "03469 - 420274", "ref_sisa_codigo": 10820842384005, "ref_sisa_tipologia": "ESCIG", "wikidata": "", "wikipedia": "" }, "geometry": { "type": "Point", "coordinates": [ -60.836041, -33.240056 ] } },
{ "type": "Feature", "properties": { "amenity": "hospital", "healthcare": "hospital", "operator": "Privado", "operator_type": "private", "name": "Clinica Cooperativa De Villa Gobernador Galvez", "addr_full": "Opicci Y Pasaje 2", "addr_postcode": "2124", "phone": "0341 - 4921114", "ref_sisa_codigo": 10820842386757, "ref_sisa_tipologia": "ESCIG", "wikidata": "", "wikipedia": "" }, "geometry": { "type": "Point", "coordinates": [ -60.6348324, -33.0254324 ] } },
{ "type": "Feature", "properties": { "amenity": "hospital", "healthcare": "hospital", "operator": "Privado", "operator_type": "private", "name": "Clinica De Cirugia Cardiovascular Mini - Invasiva Doctor Benetti", "addr_full": "Leandro N. Alem 1846", "addr_postcode": "2000", "phone": "0341-4855827", "ref_sisa_codigo": 10820842386296, "ref_sisa_tipologia": "ESCIG", "wikidata": "", "wikipedia": "" }, "geometry": { "type": "Point", "coordinates": [ -60.6315405, -32.9607241 ] } },
{ "type": "Feature", "properties": { "amenity": "hospital", "healthcare": "hospital", "operator": "Privado", "operator_type": "private", "name": "Clinica Del Litoral", "addr_full": "Av. M. Belgrano 1602", "addr_postcode": "2121", "phone": "0341-4952419", "ref_sisa_codigo": 10820842384017, "ref_sisa_tipologia": "ESCIG", "wikidata": "", "wikipedia": "" }, "geometry": { "type": "Point", "coordinates": [ -60.7717565, -32.9976133 ] } },
{ "type": "Feature", "properties": { "amenity": "hospital", "healthcare": "hospital", "operator": "Privado", "operator_type": "private", "name": "Clinica Doctor Maiorano", "addr_full": "Avenida San Martín 663", "addr_postcode": "2128", "phone": "", "ref_sisa_codigo": 10820842384029, "ref_sisa_tipologia": "ESCIG", "wikidata": "", "wikipedia": "" }, "geometry": { "type": "Point", "coordinates": [ -60.6363338, -32.9453082 ] } },
{ "type": "Feature", "properties": { "amenity": "hospital", "healthcare": "hospital", "operator": "Privado", "operator_type": "private", "name": "Clinica Martins", "addr_full": "San Martin 367", "addr_postcode": "2128", "phone": "03402-426694", "ref_sisa_codigo": 10820842384031, "ref_sisa_tipologia": "ESCIG", "wikidata": "", "wikipedia": "" }, "geometry": { "type": "Point", "coordinates": [ -60.5085191, -33.1585789 ] } },
{ "type": "Feature", "properties": { "amenity": "hospital", "healthcare": "hospital", "operator": "Privado", "operator_type": "private", "name": "Clinica Pilares Del Rosario (rehabilitacion)", "addr_full": "Paraguay 2041", "addr_postcode": "2000", "phone": "", "ref_sisa_codigo": 10820842386295, "ref_sisa_tipologia": "ESCIG", "wikidata": "", "wikipedia": "" }, "geometry": { "type": "Point", "coordinates": [ -60.6474538, -32.9603029 ] } },
{ "type": "Feature", "properties": { "amenity": "hospital", "healthcare": "hospital", "operator": "Privado", "operator_type": "private", "name": "Clinica Residencial Mendoza", "addr_full": "Mendoza 7101", "addr_postcode": "2000", "phone": "0341-4561550", "ref_sisa_codigo": 10820842384051, "ref_sisa_tipologia": "ESCIG", "wikidata": "", "wikipedia": "" }, "geometry": { "type": "Point", "coordinates": [ -60.7174444, -32.9403132 ] } },
{ "type": "Feature", "properties": { "amenity": "clinic", "healthcare": "clinic", "operator": "Municipal", "operator_type": "public", "name": "CS Debora Ferrandini", "addr_full": "Provincias Unidas 150 Bis", "addr_postcode": "2000", "phone": "(0341) 480-7680 int. 375\/376\/377", "ref_sisa_codigo": 50820842284642, "ref_sisa_tipologia": "ESSIDT", "wikidata": "Q92620788", "wikipedia": "" }, "geometry": { "type": "Point", "coordinates": [ -60.7122222, -32.9296327 ] } },
{ "type": "Feature", "properties": { "amenity": "clinic", "healthcare": "clinic", "operator": "Provincial", "operator_type": "public", "name": "CS Empalme Graneros", "addr_full": "Olavarria Bis 1400", "addr_postcode": "2000", "phone": "", "ref_sisa_codigo": 50820842188634, "ref_sisa_tipologia": "ESSIDT", "wikidata": "", "wikipedia": "" }, "geometry": { "type": "Point", "coordinates": [ -60.7045054, -32.9116307 ] } },
{ "type": "Feature", "properties": { "amenity": "clinic", "healthcare": "clinic", "operator": "Municipal", "operator_type": "public", "name": "Dispensario Comunal San Roque", "addr_full": "San Martín 1250", "addr_postcode": "2107", "phone": "(0341) 490-1005", "ref_sisa_codigo": 50820842285985, "ref_sisa_tipologia": "ESSIDT", "wikidata": "", "wikipedia": "" }, "geometry": { "type": "Point", "coordinates": [ -60.7555532, -33.0245401 ] } },
{ "type": "Feature", "properties": { "amenity": "clinic", "healthcare": "clinic", "operator": "Provincial", "operator_type": "public", "name": "Escuela Especial 2050 Teresa De Calcuta", "addr_full": "Montevideo 6500", "addr_postcode": "2000", "phone": "0341-4727598", "ref_sisa_codigo": 50820842184681, "ref_sisa_tipologia": "ESSIDT", "wikidata": "", "wikipedia": "" }, "geometry": { "type": "Point", "coordinates": [ -60.7100683, -32.9475049 ] } },
{ "type": "Feature", "properties": { "amenity": "clinic", "healthcare": "clinic", "operator": "Provincial", "operator_type": "public", "name": "Escuela 109 Juan Chassaing", "addr_full": "Sucre 1459", "addr_postcode": "2000", "phone": "0341-4724510", "ref_sisa_codigo": 50820842184679, "ref_sisa_tipologia": "ESSIDT", "wikidata": "", "wikipedia": "" }, "geometry": { "type": "Point", "coordinates": [ -60.6920392, -32.9451568 ] } },
{ "type": "Feature", "properties": { "amenity": "hospital", "healthcare": "hospital", "operator": "Privado", "operator_type": "private", "name": "Geriatrico San Antonio", "addr_full": "26 Agosto 920", "addr_postcode": "2000", "phone": "0341 - 4532587", "ref_sisa_codigo": 10820842386798, "ref_sisa_tipologia": "ESCIG", "wikidata": "", "wikipedia": "" }, "geometry": { "type": "Point", "coordinates": [ -60.7003909, -32.8741155 ] } },
{ "type": "Feature", "properties": { "amenity": "hospital", "healthcare": "hospital", "operator": "Provincial", "operator_type": "public", "name": "Hospital  Escuela  Eva Peron - Granadero Baigorria", "addr_full": "Av. San Martín 1645", "addr_postcode": "2152", "phone": "0341-4714510", "ref_sisa_codigo": 10820842184083, "ref_sisa_tipologia": "ESCIG", "wikidata": "", "wikipedia": "" }, "geometry": { "type": "Point", "coordinates": [ -60.6973858, -32.8655229 ] } },
{ "type": "Feature", "properties": { "amenity": "hospital", "healthcare": "hospital", "operator": "Provincial", "operator_type": "public", "name": "Hospital  Provincial", "addr_full": "Leandro Alem 1450", "addr_postcode": "2000", "phone": "0341-4721111", "ref_sisa_codigo": 10820842184089, "ref_sisa_tipologia": "ESCIG", "wikidata": "Q9004917", "wikipedia": "ES:Hospital Provincial de Rosario" }, "geometry": { "type": "Point", "coordinates": [ -60.630396, -32.9562051 ] } },
{ "type": "Feature", "properties": { "amenity": "hospital", "healthcare": "hospital", "operator": "Municipal", "operator_type": "public", "name": "Hospital De Emergencias Doctor Clemente Alvarez", "addr_full": "Av Pellegrini 3205", "addr_postcode": "2000", "phone": "(0341) 4818689", "ref_sisa_codigo": 10820842284077, "ref_sisa_tipologia": "ESCIG", "wikidata": "Q5908700", "wikipedia": "ES:Hospital de Emergencias Clemente Álvarez" }, "geometry": { "type": "Point", "coordinates": [ -60.669925, -32.952366 ] } },
{ "type": "Feature", "properties": { "amenity": "clinic", "healthcare": "clinic", "operator": "Provincial", "operator_type": "public", "name": "Hospital De Niños Zona Norte", "addr_full": "Avenida De Los Trabajadores 1331", "addr_postcode": "2000", "phone": "0341-4724661\/4648\/4659", "ref_sisa_codigo": 11820842184266, "ref_sisa_tipologia": "ESCIEP", "wikidata": "Q92663323", "wikipedia": "" }, "geometry": { "type": "Point", "coordinates": [ -60.6824856, -32.9123044 ] } },
{ "type": "Feature", "properties": { "amenity": "hospital", "healthcare": "hospital", "operator": "Municipal", "operator_type": "public", "name": "Hospital Doctor Juan Bautista Alberdi", "addr_full": "Av Puccio 575", "addr_postcode": "2000", "phone": "0341-4806177", "ref_sisa_codigo": 10820842284078, "ref_sisa_tipologia": "ESCIG", "wikidata": "Q92663276", "wikipedia": "" }, "geometry": { "type": "Point", "coordinates": [ -60.6906116, -32.8945935 ] } },
{ "type": "Feature", "properties": { "amenity": "hospital", "healthcare": "hospital", "operator": "Municipal", "operator_type": "public", "name": "Hospital Doctor Roque Saenz Peńa", "addr_full": "Laprida Francisco Narciso 5381", "addr_postcode": "2000", "phone": "0341- 4809144", "ref_sisa_codigo": 10820842284080, "ref_sisa_tipologia": "ESCIG", "wikidata": "Q92663261", "wikipedia": "" }, "geometry": { "type": "Point", "coordinates": [ -60.6468873, -32.9993582 ] } },
{ "type": "Feature", "properties": { "amenity": "hospital", "healthcare": "hospital", "operator": "Privado", "operator_type": "private", "name": "Hospital Espańol  (rosario)", "addr_full": "Sarmiento 3150", "addr_postcode": "2000", "phone": "0341-4858705", "ref_sisa_codigo": 10820842384229, "ref_sisa_tipologia": "ESCIG", "wikidata": "Q92663070", "wikipedia": "ES:Hospital Español de Rosario" }, "geometry": { "type": "Point", "coordinates": [ -60.645288, -32.9738849 ] } },
{ "type": "Feature", "properties": { "amenity": "clinic", "healthcare": "clinic", "operator": "Provincial", "operator_type": "public", "name": "Hospital Geriatrico", "addr_full": "Ayolas 141", "addr_postcode": "2000", "phone": "0341-4729182", "ref_sisa_codigo": 14820842184371, "ref_sisa_tipologia": "ESCIE", "wikidata": "", "wikipedia": "" }, "geometry": { "type": "Point", "coordinates": [ -60.6323252, -32.9792035 ] } },
{ "type": "Feature", "properties": { "amenity": "hospital", "healthcare": "hospital", "operator": "Municipal", "operator_type": "public", "name": "Hospital Intendente Gabriel Carrasco", "addr_full": "Nicolás Avellaneda 1402", "addr_postcode": "2000", "phone": "0341-4804155", "ref_sisa_codigo": 10820842284085, "ref_sisa_tipologia": "ESCIG", "wikidata": "Q92663256", "wikipedia": "" }, "geometry": { "type": "Point", "coordinates": [ -60.6811059, -32.9464212 ] } },
{ "type": "Feature", "properties": { "amenity": "hospital", "healthcare": "hospital", "operator": "Privado", "operator_type": "private", "name": "Hospital Italiano De Rosario", "addr_full": "Virasoro 1249", "addr_postcode": "2000", "phone": "(0341) 485-8888", "ref_sisa_codigo": 10820842384086, "ref_sisa_tipologia": "ESCIG", "wikidata": "", "wikipedia": "" }, "geometry": { "type": "Point", "coordinates": [ -60.6461886, -32.9695375 ] } },
{ "type": "Feature", "properties": { "amenity": "hospital", "healthcare": "hospital", "operator": "Privado", "operator_type": "private", "name": "Hospital Privado De Rosario", "addr_full": "Presidente Roca 2440", "addr_postcode": "2000", "phone": "0341 4893500", "ref_sisa_codigo": 10820842388595, "ref_sisa_tipologia": "ESCIG", "wikidata": "", "wikipedia": "" }, "geometry": { "type": "Point", "coordinates": [ -60.6504055, -32.9645836 ] } },
{ "type": "Feature", "properties": { "amenity": "hospital", "healthcare": "hospital", "operator": "Provincial", "operator_type": "public", "name": "Hospital Provincial Del Centenario - Urquiza 3101", "addr_full": "Urquiza 3101", "addr_postcode": "2000", "phone": "0341-4724643\/4653", "ref_sisa_codigo": 10820842184090, "ref_sisa_tipologia": "ESCIG", "wikidata": "Q5902821", "wikipedia": "ES:Hospital Provincial del Centenario" }, "geometry": { "type": "Point", "coordinates": [ -60.664752, -32.9380617 ] } },
{ "type": "Feature", "properties": { "amenity": "hospital", "healthcare": "hospital", "operator": "Privado", "operator_type": "private", "name": "Policlinico Pami I", "addr_full": "Sarmiento 373", "addr_postcode": "2000", "phone": "0341-4803520", "ref_sisa_codigo": 10820842386244, "ref_sisa_tipologia": "ESCIG", "wikidata": "Q92662963", "wikipedia": "" }, "geometry": { "type": "Point", "coordinates": [ -60.637028, -32.941448 ] } },
{ "type": "Feature", "properties": { "amenity": "hospital", "healthcare": "hospital", "operator": "Provincial", "operator_type": "public", "name": "Samco Acebal - Hospital Maria Saa Pereyra", "addr_full": "A. Del Valle 303", "addr_postcode": "2109", "phone": "03469-420160ctrex 6367", "ref_sisa_codigo": 10820842184149, "ref_sisa_tipologia": "ESCIG", "wikidata": "", "wikipedia": "" }, "geometry": { "type": "Point", "coordinates": [ -60.8352814, -33.2409273 ] } },
{ "type": "Feature", "properties": { "amenity": "hospital", "healthcare": "hospital", "operator": "Provincial", "operator_type": "public", "name": "Samco Alvarez", "addr_full": "Salta 880", "addr_postcode": "2107", "phone": "03402-461030", "ref_sisa_codigo": 10820842184094, "ref_sisa_tipologia": "ESCIG", "wikidata": "", "wikipedia": "" }, "geometry": { "type": "Point", "coordinates": [ -60.80544, -33.132158 ] } },
{ "type": "Feature", "properties": { "amenity": "clinic", "healthcare": "clinic", "operator": "Provincial", "operator_type": "public", "name": "Samco Coronel Bogado", "addr_full": "Moreno 698", "addr_postcode": "2103", "phone": "(03402) 49-1200", "ref_sisa_codigo": 50820842184632, "ref_sisa_tipologia": "ESSIDT", "wikidata": "", "wikipedia": "" }, "geometry": { "type": "Point", "coordinates": [ -60.60415, -33.31452 ] } },
{ "type": "Feature", "properties": { "amenity": "hospital", "healthcare": "hospital", "operator": "Provincial", "operator_type": "public", "name": "Samco General San Martin - Arroyo Seco", "addr_full": "J. Salk y Ruta 21", "addr_postcode": "2128", "phone": "03402-426628ctrex 6160", "ref_sisa_codigo": 10820842184161, "ref_sisa_tipologia": "ESCIG", "wikidata": "", "wikipedia": "" }, "geometry": { "type": "Point", "coordinates": [ -60.5099487, -33.160547 ] } },
{ "type": "Feature", "properties": { "amenity": "clinic", "healthcare": "clinic", "operator": "Provincial", "operator_type": "public", "name": "Samco Ibarlucea", "addr_full": "Corrientes 127", "addr_postcode": "2143", "phone": "0341-4904082", "ref_sisa_codigo": 50820842184729, "ref_sisa_tipologia": "ESSIDT", "wikidata": "", "wikipedia": "" }, "geometry": { "type": "Point", "coordinates": [ -60.7874866, -32.8515754 ] } },
{ "type": "Feature", "properties": { "amenity": "hospital", "healthcare": "hospital", "operator": "Provincial", "operator_type": "public", "name": "Samco Villa Amelia", "addr_full": "Mitre 180", "addr_postcode": "2101", "phone": "03402-492327", "ref_sisa_codigo": 10820842184210, "ref_sisa_tipologia": "ESCIG", "wikidata": "", "wikipedia": "" }, "geometry": { "type": "Point", "coordinates": [ -60.6376948, -32.9389977 ] } },
{ "type": "Feature", "properties": { "amenity": "clinic", "healthcare": "clinic", "operator": "Provincial", "operator_type": "public", "name": "Samco Zavalla", "addr_full": "Avenida Circunvalación 25 De Mayo 2144", "addr_postcode": "2123", "phone": "(0341) 497-0326 ctx 4449", "ref_sisa_codigo": 50820842185378, "ref_sisa_tipologia": "ESSIDT", "wikidata": "", "wikipedia": "" }, "geometry": { "type": "Point", "coordinates": [ -60.6206634, -32.9674259 ] } },
{ "type": "Feature", "properties": { "amenity": "hospital", "healthcare": "hospital", "operator": "Provincial", "operator_type": "public", "name": "Samco. Doctor Anselmo Gamen", "addr_full": "Balcarce 1355", "addr_postcode": "2124", "phone": "0341-4928104", "ref_sisa_codigo": 10820842184074, "ref_sisa_tipologia": "ESCIG", "wikidata": "", "wikipedia": "" }, "geometry": { "type": "Point", "coordinates": [ -60.6536532, -32.9509523 ] } },
{ "type": "Feature", "properties": { "amenity": "hospital", "healthcare": "hospital", "operator": "Privado", "operator_type": "private", "name": "Sanatorio Americano (rosario)", "addr_full": "Rioja 1541", "addr_postcode": "2000", "phone": "0341-4202500", "ref_sisa_codigo": 10820842384216, "ref_sisa_tipologia": "ESCIG", "wikidata": "", "wikipedia": "" }, "geometry": { "type": "Point", "coordinates": [ -60.6446576, -32.9464949 ] } },
{ "type": "Feature", "properties": { "amenity": "hospital", "healthcare": "hospital", "operator": "Privado", "operator_type": "private", "name": "Sanatorio Britanico", "addr_full": "Paraguay 40", "addr_postcode": "2000", "phone": "0341-4205500", "ref_sisa_codigo": 10820842384220, "ref_sisa_tipologia": "ESCIG", "wikidata": "", "wikipedia": "" }, "geometry": { "type": "Point", "coordinates": [ -60.641824, -32.936865 ] } },
{ "type": "Feature", "properties": { "amenity": "hospital", "healthcare": "hospital", "operator": "Privado", "operator_type": "private", "name": "Sanatorio Centro", "addr_full": "Paraguay 975", "addr_postcode": "2000", "phone": "0341 - 5309000", "ref_sisa_codigo": 10820842384008, "ref_sisa_tipologia": "ESCIG", "wikidata": "", "wikipedia": "" }, "geometry": { "type": "Point", "coordinates": [ -60.6441852, -32.9476878 ] } },
{ "type": "Feature", "properties": { "amenity": "hospital", "healthcare": "hospital", "operator": "Privado", "operator_type": "private", "name": "Sanatorio De Los Nuevos Ayres", "addr_full": "Avenida Pellegrini 1353", "addr_postcode": "2000", "phone": "0341-4820506", "ref_sisa_codigo": 10820842384224, "ref_sisa_tipologia": "ESCIG", "wikidata": "", "wikipedia": "" }, "geometry": { "type": "Point", "coordinates": [ -60.64416, -32.956843 ] } },
{ "type": "Feature", "properties": { "amenity": "hospital", "healthcare": "hospital", "operator": "Privado", "operator_type": "private", "name": "Sanatorio Del Litoral", "addr_full": "Pres. Julio Argentino Roca 2450", "addr_postcode": "2000", "phone": "", "ref_sisa_codigo": 10820842384225, "ref_sisa_tipologia": "ESCIG", "wikidata": "", "wikipedia": "" }, "geometry": { "type": "Point", "coordinates": [ -60.6500003, -32.9645458 ] } },
{ "type": "Feature", "properties": { "amenity": "hospital", "healthcare": "hospital", "operator": "Privado", "operator_type": "private", "name": "Sanatorio Del Saladillo Constantino Zorila", "addr_full": "Arijon 145", "addr_postcode": "2000", "phone": "0341-4646161", "ref_sisa_codigo": 10820842386923, "ref_sisa_tipologia": "ESCIG", "wikidata": "", "wikipedia": "" }, "geometry": { "type": "Point", "coordinates": [ -60.6325632, -33.0026859 ] } },
{ "type": "Feature", "properties": { "amenity": "hospital", "healthcare": "hospital", "operator": "Privado", "operator_type": "private", "name": "Sanatorio Delta", "addr_full": "Mendoza 1560", "addr_postcode": "2000", "phone": "0341 - 4208300", "ref_sisa_codigo": 10820842384227, "ref_sisa_tipologia": "ESCIG", "wikidata": "", "wikipedia": "" }, "geometry": { "type": "Point", "coordinates": [ -60.6458147, -32.9503584 ] } },
{ "type": "Feature", "properties": { "amenity": "hospital", "healthcare": "hospital", "operator": "Privado", "operator_type": "private", "name": "Sanatorio Integral General Guemes", "addr_full": "Güemes 2369", "addr_postcode": "2000", "phone": "0341-4118029", "ref_sisa_codigo": 10820842384234, "ref_sisa_tipologia": "ESCIG", "wikidata": "", "wikipedia": "" }, "geometry": { "type": "Point", "coordinates": [ -60.6529614, -32.9329217 ] } },
{ "type": "Feature", "properties": { "amenity": "hospital", "healthcare": "hospital", "operator": "Privado", "operator_type": "private", "name": "Sanatorio Italiano Centro", "addr_full": "San Juan  3034", "addr_postcode": "2000", "phone": "0341 4107000", "ref_sisa_codigo": 10820842386760, "ref_sisa_tipologia": "ESCIG", "wikidata": "", "wikipedia": "" }, "geometry": { "type": "Point", "coordinates": [ -60.665628, -32.9454249 ] } },
{ "type": "Feature", "properties": { "amenity": "hospital", "healthcare": "hospital", "operator": "Privado", "operator_type": "private", "name": "Sanatorio Laprida", "addr_full": "Laprida 1070", "addr_postcode": "2000", "phone": "0341-4213411", "ref_sisa_codigo": 10820842384235, "ref_sisa_tipologia": "ESCIG", "wikidata": "", "wikipedia": "" }, "geometry": { "type": "Point", "coordinates": [ -60.6349029, -32.9506553 ] } },
{ "type": "Feature", "properties": { "amenity": "hospital", "healthcare": "hospital", "operator": "Privado", "operator_type": "private", "name": "Sanatorio Mapaci", "addr_full": "Boulevar Orońo 1458", "addr_postcode": "2000", "phone": "0341 - 5228888", "ref_sisa_codigo": 10820842384238, "ref_sisa_tipologia": "ESCIG", "wikidata": "", "wikipedia": "" }, "geometry": { "type": "Point", "coordinates": [ -60.6554501, -32.9517942 ] } },
{ "type": "Feature", "properties": { "amenity": "hospital", "healthcare": "hospital", "operator": "Privado", "operator_type": "private", "name": "Sanatorio Norte", "addr_full": "Boulevar Rondeau 1365", "addr_postcode": "2000", "phone": "0341-4549116", "ref_sisa_codigo": 10820842384243, "ref_sisa_tipologia": "ESCIG", "wikidata": "", "wikipedia": "" }, "geometry": { "type": "Point", "coordinates": [ -60.691303, -32.900591 ] } },
{ "type": "Feature", "properties": { "amenity": "hospital", "healthcare": "hospital", "operator": "Privado", "operator_type": "private", "name": "Sanatorio Nuestra Seńora Del Rosario (ipam)", "addr_full": "Sarmiento 3125", "addr_postcode": "2000", "phone": "0341-4858585", "ref_sisa_codigo": 10820842384245, "ref_sisa_tipologia": "ESCIG", "wikidata": "", "wikipedia": "" }, "geometry": { "type": "Point", "coordinates": [ -60.644755, -32.973442 ] } },
{ "type": "Feature", "properties": { "amenity": "hospital", "healthcare": "hospital", "operator": "Privado", "operator_type": "private", "name": "Sanatorio Parque", "addr_full": "Bv. Orońo 860", "addr_postcode": "2000", "phone": "0341-5278463", "ref_sisa_codigo": 10820842384246, "ref_sisa_tipologia": "ESCIG", "wikidata": "", "wikipedia": "" }, "geometry": { "type": "Point", "coordinates": [ -60.6536615, -32.9442806 ] } },
{ "type": "Feature", "properties": { "amenity": "hospital", "healthcare": "hospital", "operator": "Privado", "operator_type": "private", "name": "Sanatorio Plaza", "addr_full": "Dorrego 1550", "addr_postcode": "2000", "phone": "0341-4203670", "ref_sisa_codigo": 10820842384248, "ref_sisa_tipologia": "ESCIG", "wikidata": "", "wikipedia": "" }, "geometry": { "type": "Point", "coordinates": [ -60.6515516, -32.9536483 ] } },
{ "type": "Feature", "properties": { "amenity": "hospital", "healthcare": "hospital", "operator": "Obra social", "operator_type": "private", "name": "Sanatorio Regional Rosendo Garcia", "addr_full": "3 De Febrero 748", "addr_postcode": "2000", "phone": "(0341) 4214075", "ref_sisa_codigo": 10820842784254, "ref_sisa_tipologia": "ESCIG", "wikidata": "", "wikipedia": "" }, "geometry": { "type": "Point", "coordinates": [ -60.6349572, -32.9533762 ] } },
{ "type": "Feature", "properties": { "amenity": "clinic", "healthcare": "clinic", "operator": "Provincial", "operator_type": "public", "name": "Secretaria De Emergencias Y Traslados", "addr_full": "Dr. Zaballa 3361", "addr_postcode": "3000", "phone": "0342 4573712", "ref_sisa_codigo": 53820842186882, "ref_sisa_tipologia": "ESCL", "wikidata": "", "wikipedia": "" }, "geometry": { "type": "Point", "coordinates": [ -60.6684877, -32.9437447 ] } }
]
}
