{
"type": "FeatureCollection",
"name": "015-castellanos",
"features": [
{ "type": "Feature", "properties": { "amenity": "clinic", "healthcare": "clinic", "operator": "Provincial", "operator_type": "public", "name": "Centro De Salud  11 Maria Ines Tarchini De Dellasanta", "addr_full": "Santiago Shine Y Gabriel Maggi", "addr_postcode": "2300", "phone": "03492-577005", "ref_sisa_codigo": 50820212186944, "ref_sisa_tipologia": "ESSIDT", "wikidata": "", "wikipedia": "" }, "geometry": { "type": "Point", "coordinates": [ -61.4647079, -31.2378188 ] } },
{ "type": "Feature", "properties": { "amenity": "clinic", "healthcare": "clinic", "operator": "Provincial", "operator_type": "public", "name": "Centro De Salud Angelica", "addr_full": "Lisandro De La Torre 137", "addr_postcode": "2303", "phone": "03492-487534", "ref_sisa_codigo": 50820212184494, "ref_sisa_tipologia": "ESSIDT", "wikidata": "", "wikipedia": "" }, "geometry": { "type": "Point", "coordinates": [ -61.5467834, -31.5469417 ] } },
{ "type": "Feature", "properties": { "amenity": "clinic", "healthcare": "clinic", "operator": "Provincial", "operator_type": "public", "name": "Centro De Salud Ataliva", "addr_full": "Dorrego 3100", "addr_postcode": "2307", "phone": "(03493) 49-1057", "ref_sisa_codigo": 50820212184501, "ref_sisa_tipologia": "ESSIDT", "wikidata": "", "wikipedia": "" }, "geometry": { "type": "Point", "coordinates": [ -61.4358956, -30.9955607 ] } },
{ "type": "Feature", "properties": { "amenity": "clinic", "healthcare": "clinic", "operator": "Provincial", "operator_type": "public", "name": "Centro De Salud Aurelia", "addr_full": "Aurelia Entre Santiago Del Estero Y Avenida Buenos Aires", "addr_postcode": "2318", "phone": "(03492) 48-8032", "ref_sisa_codigo": 50820212184502, "ref_sisa_tipologia": "ESSIDT", "wikidata": "", "wikipedia": "" }, "geometry": { "type": "Point", "coordinates": [ -61.4241314, -31.4213561 ] } },
{ "type": "Feature", "properties": { "amenity": "clinic", "healthcare": "clinic", "operator": "Provincial", "operator_type": "public", "name": "Centro De Salud Barrio Acapulco Y Vera Cruz", "addr_full": "Calle 12 Esquina 5 Frontera", "addr_postcode": "2403", "phone": "", "ref_sisa_codigo": 50820212184506, "ref_sisa_tipologia": "ESSIDT", "wikidata": "", "wikipedia": "" }, "geometry": { "type": "Point", "coordinates": [ -62.058533, -31.418066 ] } },
{ "type": "Feature", "properties": { "amenity": "clinic", "healthcare": "clinic", "operator": "Provincial", "operator_type": "public", "name": "Centro De Salud Barrio Francucci", "addr_full": "Calle 54 270", "addr_postcode": "2438", "phone": "(0364) 438853", "ref_sisa_codigo": 50820212184524, "ref_sisa_tipologia": "ESSIDT", "wikidata": "", "wikipedia": "" }, "geometry": { "type": "Point", "coordinates": [ -62.0601331, -31.4226814 ] } },
{ "type": "Feature", "properties": { "amenity": "clinic", "healthcare": "clinic", "operator": "Provincial", "operator_type": "public", "name": "Centro De Salud Barrio San Roque", "addr_full": "Calle 94 575", "addr_postcode": "2438", "phone": "(03564) 42-0088", "ref_sisa_codigo": 50820212184557, "ref_sisa_tipologia": "ESSIDT", "wikidata": "", "wikipedia": "" }, "geometry": { "type": "Point", "coordinates": [ -62.0629048, -31.4394011 ] } },
{ "type": "Feature", "properties": { "amenity": "clinic", "healthcare": "clinic", "operator": "Provincial", "operator_type": "public", "name": "Centro De Salud Barrio Villani", "addr_full": "Calle 100 7", "addr_postcode": "2438", "phone": "(03564) 311001", "ref_sisa_codigo": 50820212184566, "ref_sisa_tipologia": "ESSIDT", "wikidata": "", "wikipedia": "" }, "geometry": { "type": "Point", "coordinates": [ -62.0690916, -31.4405198 ] } },
{ "type": "Feature", "properties": { "amenity": "clinic", "healthcare": "clinic", "operator": "Provincial", "operator_type": "public", "name": "Centro De Salud Bauer Y Sigel", "addr_full": "Santa Fé S\/N", "addr_postcode": "2403", "phone": "(03492) 48-9084", "ref_sisa_codigo": 50820212184572, "ref_sisa_tipologia": "ESSIDT", "wikidata": "", "wikipedia": "" }, "geometry": { "type": "Point", "coordinates": [ -61.943965, -31.2716613 ] } },
{ "type": "Feature", "properties": { "amenity": "clinic", "healthcare": "clinic", "operator": "Provincial", "operator_type": "public", "name": "Centro De Salud Bella Italia", "addr_full": "Santa Fe 31", "addr_postcode": "2301", "phone": "03492-497009\/497077", "ref_sisa_codigo": 50820212184575, "ref_sisa_tipologia": "ESSIDT", "wikidata": "", "wikipedia": "" }, "geometry": { "type": "Point", "coordinates": [ -61.4119, -31.2811 ] } },
{ "type": "Feature", "properties": { "amenity": "clinic", "healthcare": "clinic", "operator": "Provincial", "operator_type": "public", "name": "Centro De Salud Colonia Aldao", "addr_full": "Mariano Moreno 280", "addr_postcode": "2317", "phone": "(03493) 49-7325", "ref_sisa_codigo": 50820212184613, "ref_sisa_tipologia": "ESSIDT", "wikidata": "", "wikipedia": "" }, "geometry": { "type": "Point", "coordinates": [ -61.743576, -30.980238 ] } },
{ "type": "Feature", "properties": { "amenity": "clinic", "healthcare": "clinic", "operator": "Provincial", "operator_type": "public", "name": "Centro De Salud Colonia Bicha Gerardo Maina", "addr_full": "Salta S\/Nº", "addr_postcode": "2317", "phone": "03493- 492710", "ref_sisa_codigo": 50820212184618, "ref_sisa_tipologia": "ESSIDT", "wikidata": "", "wikipedia": "" }, "geometry": { "type": "Point", "coordinates": [ -61.8491435, -30.8546998 ] } },
{ "type": "Feature", "properties": { "amenity": "clinic", "healthcare": "clinic", "operator": "Provincial", "operator_type": "public", "name": "Centro De Salud Colonia Margarita", "addr_full": "San Martin 265", "addr_postcode": "2443", "phone": "(03492) 49-5308", "ref_sisa_codigo": 50820212184620, "ref_sisa_tipologia": "ESSIDT", "wikidata": "", "wikipedia": "" }, "geometry": { "type": "Point", "coordinates": [ -61.648303, -31.685921 ] } },
{ "type": "Feature", "properties": { "amenity": "clinic", "healthcare": "clinic", "operator": "Municipal", "operator_type": "public", "name": "Centro De Salud Consultorio Periferico Movil", "addr_full": "Lisandro De La Torre 687", "addr_postcode": "2300", "phone": "", "ref_sisa_codigo": 50820212284631, "ref_sisa_tipologia": "ESSIDT", "wikidata": "", "wikipedia": "" }, "geometry": { "type": "Point", "coordinates": [ -61.5008909, -31.2450237 ] } },
{ "type": "Feature", "properties": { "amenity": "clinic", "healthcare": "clinic", "operator": "Provincial", "operator_type": "public", "name": "Centro De Salud Doctor Carlos Franzini", "addr_full": "Avenida 25 De Mayo 603", "addr_postcode": "2324", "phone": "03493-492452", "ref_sisa_codigo": 50820212184981, "ref_sisa_tipologia": "ESSIDT", "wikidata": "", "wikipedia": "" }, "geometry": { "type": "Point", "coordinates": [ -61.59133, -30.84474 ] } },
{ "type": "Feature", "properties": { "amenity": "clinic", "healthcare": "clinic", "operator": "Provincial", "operator_type": "public", "name": "Centro De Salud Doctor Domingo Preiti - Egusquiza", "addr_full": "25 De Mayo S-N", "addr_postcode": "2301", "phone": "03492-484510", "ref_sisa_codigo": 50820212184662, "ref_sisa_tipologia": "ESSIDT", "wikidata": "", "wikipedia": "" }, "geometry": { "type": "Point", "coordinates": [ -61.6503038, -31.0999156 ] } },
{ "type": "Feature", "properties": { "amenity": "clinic", "healthcare": "clinic", "operator": "Provincial", "operator_type": "public", "name": "Centro De Salud Doctor Jose Costa", "addr_full": "Aaron Castellanos 204", "addr_postcode": "2307", "phone": "03492- 481088", "ref_sisa_codigo": 50820212184653, "ref_sisa_tipologia": "ESSIDT", "wikidata": "", "wikipedia": "" }, "geometry": { "type": "Point", "coordinates": [ -61.9171, -31.173585 ] } },
{ "type": "Feature", "properties": { "amenity": "clinic", "healthcare": "clinic", "operator": "Provincial", "operator_type": "public", "name": "Centro De Salud Esmeralda", "addr_full": "Avenida Centenario 387", "addr_postcode": "2456", "phone": "03492-498110", "ref_sisa_codigo": 50820212184687, "ref_sisa_tipologia": "ESSIDT", "wikidata": "", "wikipedia": "" }, "geometry": { "type": "Point", "coordinates": [ -61.9315302, -31.6152487 ] } },
{ "type": "Feature", "properties": { "amenity": "clinic", "healthcare": "clinic", "operator": "Provincial", "operator_type": "public", "name": "Centro De Salud Estacion Clucellas", "addr_full": "Presidente Peron Entre Parana Y 9 De Julio", "addr_postcode": "2407", "phone": "(03492) 49-5002", "ref_sisa_codigo": 50820212184689, "ref_sisa_tipologia": "ESSIDT", "wikidata": "", "wikipedia": "" }, "geometry": { "type": "Point", "coordinates": [ -61.7176294, -31.5232023 ] } },
{ "type": "Feature", "properties": { "amenity": "clinic", "healthcare": "clinic", "operator": "Provincial", "operator_type": "public", "name": "Centro De Salud Frontera", "addr_full": "Gobernador Iturraspe 115", "addr_postcode": "2438", "phone": "(03564) 311888", "ref_sisa_codigo": 50820212184712, "ref_sisa_tipologia": "ESSIDT", "wikidata": "", "wikipedia": "" }, "geometry": { "type": "Point", "coordinates": [ -62.054024, -31.453912 ] } },
{ "type": "Feature", "properties": { "amenity": "clinic", "healthcare": "clinic", "operator": "Provincial", "operator_type": "public", "name": "Centro De Salud Garibaldi", "addr_full": "Principal S\/N- Al Lado De La Comuna", "addr_postcode": "2443", "phone": "03406-495069", "ref_sisa_codigo": 50820212184713, "ref_sisa_tipologia": "ESSIDT", "wikidata": "", "wikipedia": "" }, "geometry": { "type": "Point", "coordinates": [ -61.80667, -31.65017 ] } },
{ "type": "Feature", "properties": { "amenity": "clinic", "healthcare": "clinic", "operator": "Provincial", "operator_type": "public", "name": "Centro De Salud Josefina", "addr_full": "Corrientes S\/N°", "addr_postcode": "2403", "phone": "03492-469514", "ref_sisa_codigo": 50820212184742, "ref_sisa_tipologia": "ESSIDT", "wikidata": "", "wikipedia": "" }, "geometry": { "type": "Point", "coordinates": [ -61.99059, -31.40556 ] } },
{ "type": "Feature", "properties": { "amenity": "clinic", "healthcare": "clinic", "operator": "Provincial", "operator_type": "public", "name": "Centro De Salud Lehmann", "addr_full": "Guemes Y Alma Fuerte", "addr_postcode": "2305", "phone": "(03492) 48-0400", "ref_sisa_codigo": 50820212184779, "ref_sisa_tipologia": "ESSIDT", "wikidata": "", "wikipedia": "" }, "geometry": { "type": "Point", "coordinates": [ -61.4514256, -31.1266 ] } },
{ "type": "Feature", "properties": { "amenity": "clinic", "healthcare": "clinic", "operator": "Provincial", "operator_type": "public", "name": "Centro De Salud 1 - Rafaela", "addr_full": "Francia S\/N Entre S.T Zaffetti Y Peterlin", "addr_postcode": "2300", "phone": "(03492) 45-2849", "ref_sisa_codigo": 50820212184825, "ref_sisa_tipologia": "ESSIDT", "wikidata": "", "wikipedia": "" }, "geometry": { "type": "Point", "coordinates": [ -61.47058, -31.23198 ] } },
{ "type": "Feature", "properties": { "amenity": "clinic", "healthcare": "clinic", "operator": "Provincial", "operator_type": "public", "name": "Centro De Salud 1 Doctor Julio Villafañe", "addr_full": "Carlos Gardel 550", "addr_postcode": "2322", "phone": "03493-421626", "ref_sisa_codigo": 50820212184806, "ref_sisa_tipologia": "ESSIDT", "wikidata": "", "wikipedia": "" }, "geometry": { "type": "Point", "coordinates": [ -61.5721988, -30.9455889 ] } },
{ "type": "Feature", "properties": { "amenity": "clinic", "healthcare": "clinic", "operator": "Provincial", "operator_type": "public", "name": "Centro De Salud 2 Ena Richiger - Barrio 9 De Julio", "addr_full": "A. Rotania 1336", "addr_postcode": "2322", "phone": "(03493)426732", "ref_sisa_codigo": 50820212184839, "ref_sisa_tipologia": "ESSIDT", "wikidata": "", "wikipedia": "" }, "geometry": { "type": "Point", "coordinates": [ -61.550892, -30.9467 ] } },
{ "type": "Feature", "properties": { "amenity": "clinic", "healthcare": "clinic", "operator": "Provincial", "operator_type": "public", "name": "Centro De Salud 2 Materno Infantil", "addr_full": "Ciudad De Esperanza 1550", "addr_postcode": "2300", "phone": "(03492) 44-1085", "ref_sisa_codigo": 50820212184841, "ref_sisa_tipologia": "ESSIDT", "wikidata": "", "wikipedia": "" }, "geometry": { "type": "Point", "coordinates": [ -61.4827881, -31.2391194 ] } },
{ "type": "Feature", "properties": { "amenity": "clinic", "healthcare": "clinic", "operator": "Provincial", "operator_type": "public", "name": "Centro De Salud 3 Debora Ferrandini", "addr_full": "Remondino 251", "addr_postcode": "2322", "phone": "", "ref_sisa_codigo": 50820212188545, "ref_sisa_tipologia": "ESSIDT", "wikidata": "", "wikipedia": "" }, "geometry": { "type": "Point", "coordinates": [ -61.5526748, -30.9385576 ] } },
{ "type": "Feature", "properties": { "amenity": "clinic", "healthcare": "clinic", "operator": "Provincial", "operator_type": "public", "name": "Centro De Salud 3 Santa Rosa De Lima", "addr_full": "Santa Rosa 727", "addr_postcode": "2300", "phone": "(03492) 42-4739 (parroquia)", "ref_sisa_codigo": 50820212184855, "ref_sisa_tipologia": "ESSIDT", "wikidata": "", "wikipedia": "" }, "geometry": { "type": "Point", "coordinates": [ -61.4689363, -31.2504228 ] } },
{ "type": "Feature", "properties": { "amenity": "clinic", "healthcare": "clinic", "operator": "Provincial", "operator_type": "public", "name": "Centro De Salud 4 Virgen De Fatima", "addr_full": "Luis Braille 1095", "addr_postcode": "2300", "phone": "(03492) 42-6430", "ref_sisa_codigo": 50820212184856, "ref_sisa_tipologia": "ESSIDT", "wikidata": "", "wikipedia": "" }, "geometry": { "type": "Point", "coordinates": [ -61.48126, -31.26151 ] } },
{ "type": "Feature", "properties": { "amenity": "clinic", "healthcare": "clinic", "operator": "Provincial", "operator_type": "public", "name": "Centro De Salud 5 Martin Miguel De Guemes", "addr_full": "Luis Maggi 2040", "addr_postcode": "2300", "phone": "(03492) 44-0199", "ref_sisa_codigo": 50820212184859, "ref_sisa_tipologia": "ESSIDT", "wikidata": "", "wikipedia": "" }, "geometry": { "type": "Point", "coordinates": [ -61.5081657, -31.2353026 ] } },
{ "type": "Feature", "properties": { "amenity": "clinic", "healthcare": "clinic", "operator": "Provincial", "operator_type": "public", "name": "Centro De Salud 6 Barrio Amancay", "addr_full": "Martin Oliber 1206", "addr_postcode": "2300", "phone": "(03492) 431888", "ref_sisa_codigo": 50820212184862, "ref_sisa_tipologia": "ESSIDT", "wikidata": "", "wikipedia": "" }, "geometry": { "type": "Point", "coordinates": [ -61.50956, -31.26108 ] } },
{ "type": "Feature", "properties": { "amenity": "clinic", "healthcare": "clinic", "operator": "Provincial", "operator_type": "public", "name": "Centro De Salud 7 17 De Octubre", "addr_full": "Monseñor Zaspe 1899", "addr_postcode": "2300", "phone": "(03492) 453-124", "ref_sisa_codigo": 50820212184865, "ref_sisa_tipologia": "ESSIDT", "wikidata": "", "wikipedia": "" }, "geometry": { "type": "Point", "coordinates": [ -61.5075494, -31.2685873 ] } },
{ "type": "Feature", "properties": { "amenity": "clinic", "healthcare": "clinic", "operator": "Provincial", "operator_type": "public", "name": "Centro De Salud 8 Barrio Italia", "addr_full": "Cristobal Bollinger 161", "addr_postcode": "2300", "phone": "(03492) 453046 ctrex 9386", "ref_sisa_codigo": 50820212184868, "ref_sisa_tipologia": "ESSIDT", "wikidata": "", "wikipedia": "" }, "geometry": { "type": "Point", "coordinates": [ -61.4768958, -31.243829 ] } },
{ "type": "Feature", "properties": { "amenity": "clinic", "healthcare": "clinic", "operator": "Provincial", "operator_type": "public", "name": "Centro De Salud 9 Barrio Jardin", "addr_full": "Monseñor  A. Brasca 611", "addr_postcode": "2300", "phone": "(03492)453103", "ref_sisa_codigo": 50820212184871, "ref_sisa_tipologia": "ESSIDT", "wikidata": "", "wikipedia": "" }, "geometry": { "type": "Point", "coordinates": [ -61.51495, -31.25503 ] } },
{ "type": "Feature", "properties": { "amenity": "clinic", "healthcare": "clinic", "operator": "Municipal", "operator_type": "public", "name": "Centro De Salud 10 Veronica Sereno", "addr_full": "Cortazar 2490", "addr_postcode": "2300", "phone": "03492-577033", "ref_sisa_codigo": 50820212288574, "ref_sisa_tipologia": "ESSIDT", "wikidata": "", "wikipedia": "" }, "geometry": { "type": "Point", "coordinates": [ -61.4708662, -31.2736451 ] } },
{ "type": "Feature", "properties": { "amenity": "clinic", "healthcare": "clinic", "operator": "Provincial", "operator_type": "public", "name": "Centro De Salud Plaza Clucellas", "addr_full": "Boulevard Buenos Aires 235", "addr_postcode": "2407", "phone": "(03492) 49-9337", "ref_sisa_codigo": 50820212184897, "ref_sisa_tipologia": "ESSIDT", "wikidata": "", "wikipedia": "" }, "geometry": { "type": "Point", "coordinates": [ -61.704294, -31.454308 ] } },
{ "type": "Feature", "properties": { "amenity": "clinic", "healthcare": "clinic", "operator": "Provincial", "operator_type": "public", "name": "Centro De Salud Presidente Roca", "addr_full": "P. Pedro Torres 59", "addr_postcode": "2301", "phone": "(03492) 48-5042", "ref_sisa_codigo": 50820212184902, "ref_sisa_tipologia": "ESSIDT", "wikidata": "", "wikipedia": "" }, "geometry": { "type": "Point", "coordinates": [ -61.6126156, -31.2129024 ] } },
{ "type": "Feature", "properties": { "amenity": "clinic", "healthcare": "clinic", "operator": "Provincial", "operator_type": "public", "name": "Centro De Salud Ramona", "addr_full": "Moreno 16", "addr_postcode": "2301", "phone": "(03492) 49-6442", "ref_sisa_codigo": 50820212184914, "ref_sisa_tipologia": "ESSIDT", "wikidata": "", "wikipedia": "" }, "geometry": { "type": "Point", "coordinates": [ -61.4921008, -31.2516647 ] } },
{ "type": "Feature", "properties": { "amenity": "clinic", "healthcare": "clinic", "operator": "Provincial", "operator_type": "public", "name": "Centro De Salud Raquel", "addr_full": "Rene Favaloro S\/N°", "addr_postcode": "2322", "phone": "(03493) 49-6002", "ref_sisa_codigo": 50820212184915, "ref_sisa_tipologia": "ESSIDT", "wikidata": "", "wikipedia": "" }, "geometry": { "type": "Point", "coordinates": [ -61.487038, -30.836607 ] } },
{ "type": "Feature", "properties": { "amenity": "clinic", "healthcare": "clinic", "operator": "Provincial", "operator_type": "public", "name": "Centro De Salud Saguier", "addr_full": "Buenos Aires Y Santa Fe", "addr_postcode": "2301", "phone": "(03492) 48-6038", "ref_sisa_codigo": 50820212184924, "ref_sisa_tipologia": "ESSIDT", "wikidata": "", "wikipedia": "" }, "geometry": { "type": "Point", "coordinates": [ -61.66695, -31.32515 ] } },
{ "type": "Feature", "properties": { "amenity": "clinic", "healthcare": "clinic", "operator": "Provincial", "operator_type": "public", "name": "Centro De Salud San Antonio", "addr_full": "San Martin 98", "addr_postcode": "2301", "phone": "(03492) 49-1136", "ref_sisa_codigo": 50820212184929, "ref_sisa_tipologia": "ESSIDT", "wikidata": "", "wikipedia": "" }, "geometry": { "type": "Point", "coordinates": [ -61.72516, -31.21179 ] } },
{ "type": "Feature", "properties": { "amenity": "clinic", "healthcare": "clinic", "operator": "Provincial", "operator_type": "public", "name": "Centro De Salud Susana", "addr_full": "Cabildo Y San Martin", "addr_postcode": "2301", "phone": "(03492) 48-2310", "ref_sisa_codigo": 50820212184980, "ref_sisa_tipologia": "ESSIDT", "wikidata": "", "wikipedia": "" }, "geometry": { "type": "Point", "coordinates": [ -61.51449, -31.35597 ] } },
{ "type": "Feature", "properties": { "amenity": "clinic", "healthcare": "clinic", "operator": "Provincial", "operator_type": "public", "name": "Centro De Salud Vila", "addr_full": "Doctor Romero Acuña 155", "addr_postcode": "2301", "phone": "(03492) 49-3350", "ref_sisa_codigo": 50820212184995, "ref_sisa_tipologia": "ESSIDT", "wikidata": "", "wikipedia": "" }, "geometry": { "type": "Point", "coordinates": [ -61.8328732, -31.1899899 ] } },
{ "type": "Feature", "properties": { "amenity": "clinic", "healthcare": "clinic", "operator": "Provincial", "operator_type": "public", "name": "Centro De Salud Virginia", "addr_full": "Maldonado S\/N°", "addr_postcode": "2311", "phone": "03493-492604", "ref_sisa_codigo": 50820212185005, "ref_sisa_tipologia": "ESSIDT", "wikidata": "", "wikipedia": "" }, "geometry": { "type": "Point", "coordinates": [ -61.3393307, -30.73963 ] } },
{ "type": "Feature", "properties": { "amenity": "clinic", "healthcare": "clinic", "operator": "Provincial", "operator_type": "public", "name": "Centro De Salud Zenon Pereyra", "addr_full": "25 De Mayo 842", "addr_postcode": "2409", "phone": "(03564) 49-2390", "ref_sisa_codigo": 50820212185007, "ref_sisa_tipologia": "ESSIDT", "wikidata": "", "wikipedia": "" }, "geometry": { "type": "Point", "coordinates": [ -61.900045, -31.568904 ] } },
{ "type": "Feature", "properties": { "amenity": "hospital", "healthcare": "hospital", "operator": "Privado", "operator_type": "private", "name": "Clinica Diez De Septiembre", "addr_full": "25 De Mayo 69", "addr_postcode": "2322", "phone": "03493-429300", "ref_sisa_codigo": 10820212386265, "ref_sisa_tipologia": "ESCIG", "wikidata": "", "wikipedia": "" }, "geometry": { "type": "Point", "coordinates": [ -61.5656865, -30.945101 ] } },
{ "type": "Feature", "properties": { "amenity": "hospital", "healthcare": "hospital", "operator": "Privado", "operator_type": "private", "name": "Clinica Sunchales", "addr_full": "1ş De Mayo 174", "addr_postcode": "2322", "phone": "03493-420405", "ref_sisa_codigo": 10820212384064, "ref_sisa_tipologia": "ESCIG", "wikidata": "", "wikipedia": "" }, "geometry": { "type": "Point", "coordinates": [ -61.5624475, -30.9469085 ] } },
{ "type": "Feature", "properties": { "amenity": "clinic", "healthcare": "clinic", "operator": "Provincial", "operator_type": "public", "name": "Samco Castelar", "addr_full": "Belgrano S\/Nº", "addr_postcode": "2453", "phone": "(03564) 49-7208", "ref_sisa_codigo": 50821262185356, "ref_sisa_tipologia": "ESSIDT", "wikidata": "", "wikipedia": "" }, "geometry": { "type": "Point", "coordinates": [ -62.0436401, -31.5866076 ] } },
{ "type": "Feature", "properties": { "amenity": "hospital", "healthcare": "hospital", "operator": "Provincial", "operator_type": "public", "name": "Samco Dr Amilcar Gorosito", "addr_full": "Avenida Belgrano 332", "addr_postcode": "2322", "phone": "03493-420173 Cx1271", "ref_sisa_codigo": 10820212184135, "ref_sisa_tipologia": "ESCIG", "wikidata": "", "wikipedia": "" }, "geometry": { "type": "Point", "coordinates": [ -61.5615444, -30.9419827 ] } },
{ "type": "Feature", "properties": { "amenity": "hospital", "healthcare": "hospital", "operator": "Provincial", "operator_type": "public", "name": "Samco Doctor Jaime Ferre", "addr_full": "Lisandro De La Torre 737", "addr_postcode": "2300", "phone": "03492-421621\/27", "ref_sisa_codigo": 10820212184091, "ref_sisa_tipologia": "ESCIG", "wikidata": "", "wikipedia": "" }, "geometry": { "type": "Point", "coordinates": [ -61.5007, -31.2442157 ] } },
{ "type": "Feature", "properties": { "amenity": "clinic", "healthcare": "clinic", "operator": "Provincial", "operator_type": "public", "name": "Samco Eusebia Dr Saul Gomez", "addr_full": "Saenz Peña 283", "addr_postcode": "2317", "phone": "(03493) 49-3430", "ref_sisa_codigo": 50820212184693, "ref_sisa_tipologia": "ESSIDT", "wikidata": "", "wikipedia": "" }, "geometry": { "type": "Point", "coordinates": [ -61.85576, -30.9477 ] } },
{ "type": "Feature", "properties": { "amenity": "hospital", "healthcare": "hospital", "operator": "Provincial", "operator_type": "public", "name": "Samco Humberto Primo", "addr_full": "San Martin 844", "addr_postcode": "2309", "phone": "03493-480150", "ref_sisa_codigo": 10820212184167, "ref_sisa_tipologia": "ESCIG", "wikidata": "", "wikipedia": "" }, "geometry": { "type": "Point", "coordinates": [ -61.3510895, -30.8645839 ] } },
{ "type": "Feature", "properties": { "amenity": "clinic", "healthcare": "clinic", "operator": "Provincial", "operator_type": "public", "name": "Samco Maria Juana", "addr_full": "Manuel Belgrano 252", "addr_postcode": "2445", "phone": "(03406) 47-1795", "ref_sisa_codigo": 50820212184804, "ref_sisa_tipologia": "ESSIDT", "wikidata": "", "wikipedia": "" }, "geometry": { "type": "Point", "coordinates": [ -61.7548907, -31.6774752 ] } },
{ "type": "Feature", "properties": { "amenity": "hospital", "healthcare": "hospital", "operator": "Provincial", "operator_type": "public", "name": "Samco San Vicente", "addr_full": "Belgrano 565", "addr_postcode": "2447", "phone": "03492-471262", "ref_sisa_codigo": 10820212184199, "ref_sisa_tipologia": "ESCIG", "wikidata": "", "wikipedia": "" }, "geometry": { "type": "Point", "coordinates": [ -61.4857858, -31.2545338 ] } },
{ "type": "Feature", "properties": { "amenity": "hospital", "healthcare": "hospital", "operator": "Provincial", "operator_type": "public", "name": "Samco Santa Clara De Saguier", "addr_full": "Echeverria 58", "addr_postcode": "2405", "phone": "03492-490019", "ref_sisa_codigo": 10820212184202, "ref_sisa_tipologia": "ESCIG", "wikidata": "", "wikipedia": "" }, "geometry": { "type": "Point", "coordinates": [ -61.82582, -31.33503 ] } },
{ "type": "Feature", "properties": { "amenity": "hospital", "healthcare": "hospital", "operator": "Privado", "operator_type": "private", "name": "Sanatorio Moreno", "addr_full": "Moreno 227", "addr_postcode": "2300", "phone": "03492-420851", "ref_sisa_codigo": 10820212384241, "ref_sisa_tipologia": "ESCIG", "wikidata": "", "wikipedia": "" }, "geometry": { "type": "Point", "coordinates": [ -61.4939874, -31.2513478 ] } },
{ "type": "Feature", "properties": { "amenity": "hospital", "healthcare": "hospital", "operator": "Privado", "operator_type": "private", "name": "Sanatorio Nosti", "addr_full": "Avenida General Bartolome Mitre 272", "addr_postcode": "2300", "phone": "03492-422241", "ref_sisa_codigo": 10820212384244, "ref_sisa_tipologia": "ESCIG", "wikidata": "", "wikipedia": "" }, "geometry": { "type": "Point", "coordinates": [ -61.4825068, -31.2530727 ] } },
{ "type": "Feature", "properties": { "amenity": "hospital", "healthcare": "hospital", "operator": "Privado", "operator_type": "private", "name": "Sanatorio Parra", "addr_full": "25 De Mayo 25", "addr_postcode": "2300", "phone": "03492 - 423976", "ref_sisa_codigo": 10820212384247, "ref_sisa_tipologia": "ESCIG", "wikidata": "", "wikipedia": "" }, "geometry": { "type": "Point", "coordinates": [ -61.4905597, -31.2429165 ] } }
]
}
