{
"type": "FeatureCollection",
"name": "016-canuelas",
"features": [
{ "type": "Feature", "properties": { "amenity": "hospital", "healthcare": "hospital", "operator": "Privado", "operator_type": "private", "name": "Clinica Privada De Cirugia Y Maternidad Cańuelas", "addr_full": "San Martín 331", "addr_postcode": "1814", "phone": "", "ref_sisa_codigo": 10061342305771, "ref_sisa_tipologia": "ESCIG", "wikidata": "", "wikipedia": "" }, "geometry": { "type": "Point", "coordinates": [ -58.7626602, -35.056138 ] } },
{ "type": "Feature", "properties": { "amenity": "hospital", "healthcare": "hospital", "operator": "Municipal", "operator_type": "public", "name": "Ente Descentralizado Hospital Doctor Angel Marzetti", "addr_full": "Rawson 450", "addr_postcode": "1814", "phone": "(02226) 43-0555", "ref_sisa_codigo": 10061342200198, "ref_sisa_tipologia": "ESCIG", "wikidata": "", "wikipedia": "" }, "geometry": { "type": "Point", "coordinates": [ -58.763251, -35.060044 ] } },
{ "type": "Feature", "properties": { "amenity": "hospital", "healthcare": "hospital", "operator": "Nacional", "operator_type": "public", "name": "Hospital De Cuenca Alta Nestor Kirchner", "addr_full": "Ruta 6 Km 92,5", "addr_postcode": "1814", "phone": "5273-4700", "ref_sisa_codigo": 10061342017839, "ref_sisa_tipologia": "ESCIG", "wikidata": "", "wikipedia": "" }, "geometry": { "type": "Point", "coordinates": [ -58.7304211, -35.0252697 ] } },
{ "type": "Feature", "properties": { "amenity": "clinic", "healthcare": "clinic", "operator": "Municipal", "operator_type": "public", "name": "Unidad Sanitaria A. Petion", "addr_full": "Aguero Y Visir", "addr_postcode": "1808", "phone": "02226-491039", "ref_sisa_codigo": 50061342202040, "ref_sisa_tipologia": "ESSIDT", "wikidata": "", "wikipedia": "" }, "geometry": { "type": "Point", "coordinates": [ -58.6860809, -34.97482 ] } },
{ "type": "Feature", "properties": { "amenity": "clinic", "healthcare": "clinic", "operator": "Municipal", "operator_type": "public", "name": "Unidad Sanitaria Los Pozos", "addr_full": "Necochea E\/Luzuriaga Y Urbinea S\/Nº", "addr_postcode": "8512", "phone": "02226-497583", "ref_sisa_codigo": 50061342202425, "ref_sisa_tipologia": "ESSIDT", "wikidata": "", "wikipedia": "" }, "geometry": { "type": "Point", "coordinates": [ -58.762265, -35.05383 ] } },
{ "type": "Feature", "properties": { "amenity": "clinic", "healthcare": "clinic", "operator": "Municipal", "operator_type": "public", "name": "Unidad Sanitaria Pedro Teodora Gandia Gob. Udaondo", "addr_full": "Panama E\/Bolivia Y Rio Negro S\/Nº", "addr_postcode": "7221", "phone": "02271-421370", "ref_sisa_codigo": 50061342202720, "ref_sisa_tipologia": "ESSIDT", "wikidata": "", "wikipedia": "" }, "geometry": { "type": "Point", "coordinates": [ -58.598053, -35.2881146 ] } },
{ "type": "Feature", "properties": { "amenity": "clinic", "healthcare": "clinic", "operator": "Municipal", "operator_type": "public", "name": "Unidad Sanitaria Sagrado Corazon De Jesus Maximo Paz", "addr_full": "Peru Y Benavidez S\/N Barrio San Carlos", "addr_postcode": "1812", "phone": "02274-451252", "ref_sisa_codigo": 50061342202762, "ref_sisa_tipologia": "ESSIDT", "wikidata": "", "wikipedia": "" }, "geometry": { "type": "Point", "coordinates": [ -58.6104491, -34.9380845 ] } },
{ "type": "Feature", "properties": { "amenity": "clinic", "healthcare": "clinic", "operator": "Municipal", "operator_type": "public", "name": "Unidad Sanitaria Santa Rosa De Santa Rosa", "addr_full": "San Martin Jose Gamardo 63", "addr_postcode": "8181", "phone": "02226-497952", "ref_sisa_codigo": 50061342202827, "ref_sisa_tipologia": "ESSIDT", "wikidata": "", "wikipedia": "" }, "geometry": { "type": "Point", "coordinates": [ -58.73703, -35.1109218 ] } }
]
}
