{
"type": "FeatureCollection",
"name": "017-san_vicente",
"features": [
{ "type": "Feature", "properties": { "amenity": "clinic", "healthcare": "clinic", "operator": "Municipal", "operator_type": "public", "name": "CAPS Nestor Kirchner", "addr_full": "Leopoldo Lugones", "addr_postcode": "1864", "phone": "", "ref_sisa_codigo": 50067782215008, "ref_sisa_tipologia": "ESSIDT", "wikidata": "", "wikipedia": "" }, "geometry": { "type": "Point", "coordinates": [ -58.365773, -34.988293 ] } },
{ "type": "Feature", "properties": { "amenity": "clinic", "healthcare": "clinic", "operator": "Municipal", "operator_type": "public", "name": "Centro De Atencion Pesoa", "addr_full": "O Higgins 900", "addr_postcode": "1865", "phone": "02225-481101 INT.129\/130", "ref_sisa_codigo": 50067782201124, "ref_sisa_tipologia": "ESSIDT", "wikidata": "", "wikipedia": "" }, "geometry": { "type": "Point", "coordinates": [ -58.4140246, -35.0288882 ] } },
{ "type": "Feature", "properties": { "amenity": "clinic", "healthcare": "clinic", "operator": "Municipal", "operator_type": "public", "name": "Centro De Salud Comunitaria De La Localidad Rural Iraola", "addr_full": "Estacion Iraola S\/N", "addr_postcode": "7009", "phone": "", "ref_sisa_codigo": 50067912218359, "ref_sisa_tipologia": "ESSIDT", "wikidata": "", "wikipedia": "" }, "geometry": { "type": "Point", "coordinates": [ -58.4692383, -34.9760015 ] } },
{ "type": "Feature", "properties": { "amenity": "hospital", "healthcare": "hospital", "operator": "Privado", "operator_type": "private", "name": "Clinica Privada San Vicente", "addr_full": "Avenida Sarmiento 901", "addr_postcode": "1865", "phone": "02225-481508", "ref_sisa_codigo": 10067782300157, "ref_sisa_tipologia": "ESCIG", "wikidata": "", "wikipedia": "" }, "geometry": { "type": "Point", "coordinates": [ -58.4176487, -35.0311131 ] } },
{ "type": "Feature", "properties": { "amenity": "hospital", "healthcare": "hospital", "operator": "Municipal", "operator_type": "public", "name": "Hospital Municipal Doctor Ramon Carrillo - San Vicente", "addr_full": "Pascual Santoro y Matheu S\/n", "addr_postcode": "1865", "phone": "(02225) 48-1387", "ref_sisa_codigo": 10067782200365, "ref_sisa_tipologia": "ESCIG", "wikidata": "", "wikipedia": "" }, "geometry": { "type": "Point", "coordinates": [ -58.4323182, -35.0267097 ] } },
{ "type": "Feature", "properties": { "amenity": "clinic", "healthcare": "clinic", "operator": "Municipal", "operator_type": "public", "name": "Pueblo De La Paz", "addr_full": "Concejal Juan Dewey 700", "addr_postcode": "1865", "phone": "02224-15445109", "ref_sisa_codigo": 50067782201763, "ref_sisa_tipologia": "ESSIDT", "wikidata": "", "wikipedia": "" }, "geometry": { "type": "Point", "coordinates": [ -58.419799, -35.0398605 ] } },
{ "type": "Feature", "properties": { "amenity": "clinic", "healthcare": "clinic", "operator": "Municipal", "operator_type": "public", "name": "Uinidad Sanitaria Alejandro Korn (Consultorio De Pediatria)", "addr_full": "Rivadavia Y Gobernador Costa", "addr_postcode": "1864", "phone": "011-1565023447", "ref_sisa_codigo": 50067782201993, "ref_sisa_tipologia": "ESSIDT", "wikidata": "", "wikipedia": "" }, "geometry": { "type": "Point", "coordinates": [ -58.3811738, -34.9846594 ] } },
{ "type": "Feature", "properties": { "amenity": "clinic", "healthcare": "clinic", "operator": "Municipal", "operator_type": "public", "name": "Unidad Sanitaria Ambiental Dr Rene Favoloro", "addr_full": "Rosario 1102", "addr_postcode": "1864", "phone": "", "ref_sisa_codigo": 50067782216386, "ref_sisa_tipologia": "ESSIDT", "wikidata": "", "wikipedia": "" }, "geometry": { "type": "Point", "coordinates": [ -58.3843542, -34.9956179 ] } },
{ "type": "Feature", "properties": { "amenity": "clinic", "healthcare": "clinic", "operator": "Municipal", "operator_type": "public", "name": "Unidad Sanitaria Santa Clara", "addr_full": "9 De Julio  E\/Storni Y J. B. Justo S\/N", "addr_postcode": "1984", "phone": "0225-422943", "ref_sisa_codigo": 50067782202811, "ref_sisa_tipologia": "ESSIDT", "wikidata": "", "wikipedia": "" }, "geometry": { "type": "Point", "coordinates": [ -58.294001, -35.076468 ] } },
{ "type": "Feature", "properties": { "amenity": "clinic", "healthcare": "clinic", "operator": "Municipal", "operator_type": "public", "name": "Unidad Sanitaria Villa Solferino", "addr_full": "Esmeralda 603 - Alejandro Korn", "addr_postcode": "1864", "phone": "0225-423484", "ref_sisa_codigo": 50067782202906, "ref_sisa_tipologia": "ESSIDT", "wikidata": "", "wikipedia": "" }, "geometry": { "type": "Point", "coordinates": [ -58.3731058, -34.9730731 ] } }
]
}
