{
"type": "FeatureCollection",
"name": "018-comuna_2",
"features": [
{ "type": "Feature", "properties": { "amenity": "hospital", "healthcare": "hospital", "operator": "Privado", "operator_type": "private", "name": "CEMIC - Hospital Universitario Sede Las Heras.", "addr_full": "Av. Gral. Las Heras 2900", "addr_postcode": "1425", "phone": "(011) 4806-2222", "ref_sisa_codigo": 10020012315172, "ref_sisa_tipologia": "ESCIG", "wikidata": "Q93139706", "wikipedia": "" }, "geometry": { "type": "Point", "coordinates": [ -58.4020329, -34.5837577 ] } },
{ "type": "Feature", "properties": { "amenity": "clinic", "healthcare": "clinic", "operator": "Municipal", "operator_type": "public", "name": "Centro De Salud Mental 3 Doctor Arturo Ameghino", "addr_full": "Córdoba 3120", "addr_postcode": "1010", "phone": "4862-2895\/2896\/1202\/0019", "ref_sisa_codigo": 50020012218674, "ref_sisa_tipologia": "ESSIDT", "wikidata": "Q5062777", "wikipedia": "ES:Centro Ameghino" }, "geometry": { "type": "Point", "coordinates": [ -58.4105835, -34.5980849 ] } },
{ "type": "Feature", "properties": { "amenity": "hospital", "healthcare": "hospital", "operator": "Privado", "operator_type": "private", "name": "Clinica Bazterrica S.a.", "addr_full": "Billinghurst 2072 (esquina Juncal)", "addr_postcode": "1425", "phone": "(011) 4821-1600", "ref_sisa_codigo": 10020012315185, "ref_sisa_tipologia": "ESCIG", "wikidata": "Q90410301", "wikipedia": "" }, "geometry": { "type": "Point", "coordinates": [ -58.4076118, -34.5870435 ] } },
{ "type": "Feature", "properties": { "amenity": "hospital", "healthcare": "hospital", "operator": "Privado", "operator_type": "private", "name": "Clinica Del Sol", "addr_full": "Avenida Coronel Díaz 2211", "addr_postcode": "1425", "phone": "(011) 4821-1000", "ref_sisa_codigo": 10020012315191, "ref_sisa_tipologia": "ESCIG", "wikidata": "Q93139853", "wikipedia": "" }, "geometry": { "type": "Point", "coordinates": [ -58.4079766, -34.5862663 ] } },
{ "type": "Feature", "properties": { "amenity": "hospital", "healthcare": "hospital", "operator": "Privado", "operator_type": "private", "name": "Clinica Nuevo Palermo", "addr_full": "Paraguay 3144", "addr_postcode": "1425", "phone": "(011) 4966-2999", "ref_sisa_codigo": 10020012315461, "ref_sisa_tipologia": "ESCIG", "wikidata": "Q93139930", "wikipedia": "" }, "geometry": { "type": "Point", "coordinates": [ -58.4119892, -34.5948512 ] } },
{ "type": "Feature", "properties": { "amenity": "hospital", "healthcare": "hospital", "operator": "Privado", "operator_type": "private", "name": "Clinica Y Maternidad Suizo Argentina", "addr_full": "Av. Pueyrredón 1461", "addr_postcode": "1118", "phone": "(011) 5239-6000", "ref_sisa_codigo": 10020012315201, "ref_sisa_tipologia": "ESCIG", "wikidata": "Q90410323", "wikipedia": "" }, "geometry": { "type": "Point", "coordinates": [ -58.4021401, -34.5938267 ] } },
{ "type": "Feature", "properties": { "amenity": "hospital", "healthcare": "hospital", "operator": "Privado", "operator_type": "private", "name": "Hospital Aleman", "addr_full": "Avenida Pueyrredón 1650", "addr_postcode": "1118", "phone": "(011) 4827-7000", "ref_sisa_codigo": 10020012315204, "ref_sisa_tipologia": "ESCIG", "wikidata": "Q5902537", "wikipedia": "ES:Hospital Alemán (German Hospital)" }, "geometry": { "type": "Point", "coordinates": [ -58.4012411, -34.5922582 ] } },
{ "type": "Feature", "properties": { "amenity": "hospital", "healthcare": "hospital", "operator": "Universitario público", "operator_type": "public", "name": "Hospital De Clinicas Jose De San Martin", "addr_full": "Av. Córdoba 2351", "addr_postcode": "1120", "phone": "(011) 5950-8509", "ref_sisa_codigo": 10020012515209, "ref_sisa_tipologia": "ESCIG", "wikidata": "Q5908685", "wikipedia": "ES:Hospital de Clínicas \"José de San Martín\"" }, "geometry": { "type": "Point", "coordinates": [ -58.400341, -34.599408 ] } },
{ "type": "Feature", "properties": { "amenity": "clinic", "healthcare": "clinic", "operator": "Municipal", "operator_type": "public", "name": "Hospital De Odontologia", "addr_full": "Sanchez De Bustamente 2529", "addr_postcode": "1118", "phone": "4805-6407\/5521", "ref_sisa_codigo": 50020012217475, "ref_sisa_tipologia": "ESSIDT", "wikidata": "Q89819636", "wikipedia": "" }, "geometry": { "type": "Point", "coordinates": [ -58.4028482, -34.5846057 ] } },
{ "type": "Feature", "properties": { "amenity": "hospital", "healthcare": "hospital", "operator": "Municipal", "operator_type": "public", "name": "Hospital General De Agudos Bernardino Rivadavia", "addr_full": "Av. General Las Heras 2670", "addr_postcode": "", "phone": "(011) 4809-2000", "ref_sisa_codigo": 10020012215213, "ref_sisa_tipologia": "ESCIG", "wikidata": "Q5902873", "wikipedia": "ES:Hospital General de Agudos Bernardino Rivadavia" }, "geometry": { "type": "Point", "coordinates": [ -58.4035778, -34.5861603 ] } },
{ "type": "Feature", "properties": { "amenity": "clinic", "healthcare": "clinic", "operator": "Municipal", "operator_type": "public", "name": "Hospital Odontologico Doctor Ramon Carrillo - Ex Nacional", "addr_full": "Sanchez De Bustamante 2529", "addr_postcode": "1425", "phone": "(011) 4805-5521 \/ 7533", "ref_sisa_codigo": 50020012115436, "ref_sisa_tipologia": "ESSIDT", "wikidata": "Q89819636", "wikipedia": "" }, "geometry": { "type": "Point", "coordinates": [ -58.4027195, -34.5842877 ] } },
{ "type": "Feature", "properties": { "amenity": "hospital", "healthcare": "hospital", "operator": "Privado", "operator_type": "private", "name": "Instituto Argentino De Diagnostico Y Tratamiento S.a.", "addr_full": "Marcelo T. De Alvear 2346", "addr_postcode": "1122", "phone": "(011) 4963-9500", "ref_sisa_codigo": 10020012315226, "ref_sisa_tipologia": "ESCIG", "wikidata": "Q90410222", "wikipedia": "" }, "geometry": { "type": "Point", "coordinates": [ -58.4009171, -34.5966529 ] } },
{ "type": "Feature", "properties": { "amenity": "hospital", "healthcare": "hospital", "operator": "Universitario público", "operator_type": "public", "name": "Instituto De Investigaciones Cardiologicas Prof. Doctor Alberto C. Taquini", "addr_full": "Marcelo T. De Alvear 2270", "addr_postcode": "1122", "phone": "(011) 4508-3880\/1", "ref_sisa_codigo": 50020012517474, "ref_sisa_tipologia": "ESCIG", "wikidata": "Q93141281", "wikipedia": "" }, "geometry": { "type": "Point", "coordinates": [ -58.3995438, -34.5969709 ] } },
{ "type": "Feature", "properties": { "amenity": "hospital", "healthcare": "hospital", "operator": "Privado", "operator_type": "private", "name": "Sanatorio Agote", "addr_full": "Dr. Luis Agote 2477", "addr_postcode": "1425", "phone": "(011) 4803-1061", "ref_sisa_codigo": 10020012315234, "ref_sisa_tipologia": "ESCIG", "wikidata": "Q90410239", "wikipedia": "" }, "geometry": { "type": "Point", "coordinates": [ -58.3947051, -34.585383 ] } },
{ "type": "Feature", "properties": { "amenity": "hospital", "healthcare": "hospital", "operator": "Privado", "operator_type": "private", "name": "Sanatorio Anchorena", "addr_full": "Anchorena 1872", "addr_postcode": "1425", "phone": "(011) 4808-5400", "ref_sisa_codigo": 10020012315235, "ref_sisa_tipologia": "ESCIG", "wikidata": "Q90410336", "wikipedia": "" }, "geometry": { "type": "Point", "coordinates": [ -58.4003806, -34.5895166 ] } },
{ "type": "Feature", "properties": { "amenity": "hospital", "healthcare": "hospital", "operator": "Privado", "operator_type": "private", "name": "Sanatorio Otamendi Y Miroli S.a.", "addr_full": "Azcuénaga 870", "addr_postcode": "1115", "phone": "(011) 4963-8888", "ref_sisa_codigo": 10020012315249, "ref_sisa_tipologia": "ESCIG", "wikidata": "Q90410275", "wikipedia": "" }, "geometry": { "type": "Point", "coordinates": [ -58.4007883, -34.5985429 ] } },
{ "type": "Feature", "properties": { "amenity": "hospital", "healthcare": "hospital", "operator": "Privado", "operator_type": "private", "name": "Sanatorio Quintana", "addr_full": "Av. Presidente Quintana 281", "addr_postcode": "1014", "phone": "(011) 4811-0817", "ref_sisa_codigo": 10020012315251, "ref_sisa_tipologia": "ESCIG", "wikidata": "Q93141635", "wikipedia": "" }, "geometry": { "type": "Point", "coordinates": [ -58.387681, -34.590082 ] } },
{ "type": "Feature", "properties": { "amenity": "hospital", "healthcare": "hospital", "operator": "Privado", "operator_type": "private", "name": "Sanatorio San Jose", "addr_full": "Sánchez De Bustamante 1674", "addr_postcode": "1425", "phone": "(011) 4821-1001", "ref_sisa_codigo": 10020012315252, "ref_sisa_tipologia": "ESCIG", "wikidata": "Q90410278", "wikipedia": "" }, "geometry": { "type": "Point", "coordinates": [ -58.4101546, -34.5918837 ] } }
]
}
