{
"type": "FeatureCollection",
"name": "019-avellaneda",
"features": [
{ "type": "Feature", "properties": { "amenity": "hospital", "healthcare": "hospital", "operator": "Privado", "operator_type": "private", "name": "Centro De Diagnostico Lanus", "addr_full": "Doctor Domingo Nicanor Basavilbaso 1859", "addr_postcode": "1823", "phone": "", "ref_sisa_codigo": 10064342316425, "ref_sisa_tipologia": "ESCIG", "wikidata": "", "wikipedia": "" }, "geometry": { "type": "Point", "coordinates": [ -58.3668524, -34.6927036 ] } },
{ "type": "Feature", "properties": { "amenity": "clinic", "healthcare": "clinic", "operator": "Municipal", "operator_type": "public", "name": "Centro De Salud Molinedo 17 De Lanus", "addr_full": "Valparaiso 1759", "addr_postcode": "1822", "phone": "", "ref_sisa_codigo": 50064342201270, "ref_sisa_tipologia": "ESSIDT", "wikidata": "", "wikipedia": "" }, "geometry": { "type": "Point", "coordinates": [ -58.4049522, -34.6621306 ] } },
{ "type": "Feature", "properties": { "amenity": "clinic", "healthcare": "clinic", "operator": "Municipal", "operator_type": "public", "name": "Centro De Salud 11 De Avellaneda", "addr_full": "Gral. Deheza 1053", "addr_postcode": "1870", "phone": "(011) 4206-1515", "ref_sisa_codigo": 50060352201277, "ref_sisa_tipologia": "ESSIDT", "wikidata": "", "wikipedia": "" }, "geometry": { "type": "Point", "coordinates": [ -58.350946, -34.695327 ] } },
{ "type": "Feature", "properties": { "amenity": "clinic", "healthcare": "clinic", "operator": "Municipal", "operator_type": "public", "name": "Centro De Salud Ricardo Rojas", "addr_full": "Ricchieri Y Elizalde", "addr_postcode": "1648", "phone": "011-45129988", "ref_sisa_codigo": 50068052201348, "ref_sisa_tipologia": "ESSIDT", "wikidata": "", "wikipedia": "" }, "geometry": { "type": "Point", "coordinates": [ -58.3654261, -34.6805509 ] } },
{ "type": "Feature", "properties": { "amenity": "clinic", "healthcare": "clinic", "operator": "Municipal", "operator_type": "public", "name": "Cic Dock Sud", "addr_full": "Irala Y Vertiz", "addr_postcode": "1870", "phone": "", "ref_sisa_codigo": 50060352201516, "ref_sisa_tipologia": "ESSIDT", "wikidata": "", "wikipedia": "" }, "geometry": { "type": "Point", "coordinates": [ -58.3495581, -34.6565408 ] } },
{ "type": "Feature", "properties": { "amenity": "hospital", "healthcare": "hospital", "operator": "Privado", "operator_type": "private", "name": "Clinica Avellaneda Medical Center", "addr_full": "Juan B. Palaá 325", "addr_postcode": "1870", "phone": "", "ref_sisa_codigo": 10060352305164, "ref_sisa_tipologia": "ESCIG", "wikidata": "", "wikipedia": "" }, "geometry": { "type": "Point", "coordinates": [ -58.3705663, -34.6612997 ] } },
{ "type": "Feature", "properties": { "amenity": "hospital", "healthcare": "hospital", "operator": "Privado", "operator_type": "private", "name": "Clinica Privada Emmanuelle", "addr_full": "Leandro N. Alem 1654", "addr_postcode": "1871", "phone": "", "ref_sisa_codigo": 10060352300108, "ref_sisa_tipologia": "ESCIG", "wikidata": "", "wikipedia": "" }, "geometry": { "type": "Point", "coordinates": [ -58.3464754, -34.653655 ] } },
{ "type": "Feature", "properties": { "amenity": "hospital", "healthcare": "hospital", "operator": "Provincial", "operator_type": "public", "name": "Hospital Interzonal General Agudos Doctor Pedro Fiorito", "addr_full": "Avenida Manuel Belgrano 851", "addr_postcode": "1870", "phone": "(011) 4201-5760", "ref_sisa_codigo": 10060352100229, "ref_sisa_tipologia": "ESCIG", "wikidata": "", "wikipedia": "" }, "geometry": { "type": "Point", "coordinates": [ -58.365663, -34.6655963 ] } },
{ "type": "Feature", "properties": { "amenity": "hospital", "healthcare": "hospital", "operator": "Provincial", "operator_type": "public", "name": "Hospital Interzonal General Agudos Presidente Peron", "addr_full": "Anatole France 773", "addr_postcode": "1872", "phone": "(011) 4204-1020", "ref_sisa_codigo": 10060352100233, "ref_sisa_tipologia": "ESCIG", "wikidata": "", "wikipedia": "" }, "geometry": { "type": "Point", "coordinates": [ -58.3576455, -34.6816255 ] } },
{ "type": "Feature", "properties": { "amenity": "clinic", "healthcare": "clinic", "operator": "Municipal", "operator_type": "public", "name": "Hospital Municipal De Ojos De Avellaneda", "addr_full": "Brandsen 4837", "addr_postcode": "1874", "phone": "", "ref_sisa_codigo": 50060352206699, "ref_sisa_tipologia": "ESSIDT", "wikidata": "", "wikipedia": "" }, "geometry": { "type": "Point", "coordinates": [ -58.33217, -34.694785 ] } },
{ "type": "Feature", "properties": { "amenity": "clinic", "healthcare": "clinic", "operator": "Provincial", "operator_type": "public", "name": "Hospital Subzonal Especializado Materno Infantil Ana Goitia", "addr_full": "Vicente López 1737", "addr_postcode": "1870", "phone": "(011) 4204-9085", "ref_sisa_codigo": 12060352100558, "ref_sisa_tipologia": "ESCIEM", "wikidata": "", "wikipedia": "" }, "geometry": { "type": "Point", "coordinates": [ -58.351264, -34.6654406 ] } },
{ "type": "Feature", "properties": { "amenity": "hospital", "healthcare": "hospital", "operator": "Provincial", "operator_type": "public", "name": "Hospital Zonal General De Agudos Doctor Eduardo Wilde", "addr_full": "Baradero 5808", "addr_postcode": "1875", "phone": "5227-7600", "ref_sisa_codigo": 10060352117444, "ref_sisa_tipologia": "ESCIG", "wikidata": "", "wikipedia": "" }, "geometry": { "type": "Point", "coordinates": [ -58.3181689, -34.6952346 ] } },
{ "type": "Feature", "properties": { "amenity": "clinic", "healthcare": "clinic", "operator": "Municipal", "operator_type": "public", "name": "Instituto De Odontologia Infantil", "addr_full": "Av. Belgrano Esquina Gral. Paz", "addr_postcode": "1870", "phone": "011-4201-6295", "ref_sisa_codigo": 50060352216416, "ref_sisa_tipologia": "ESSIDT", "wikidata": "", "wikipedia": "" }, "geometry": { "type": "Point", "coordinates": [ -58.3643746, -34.6675849 ] } },
{ "type": "Feature", "properties": { "amenity": "clinic", "healthcare": "clinic", "operator": "Municipal", "operator_type": "public", "name": "Ong La Casa De Los Niños", "addr_full": "Santa Fe 1522", "addr_postcode": "1870", "phone": "4208-0760", "ref_sisa_codigo": 50060352201670, "ref_sisa_tipologia": "ESSIDT", "wikidata": "", "wikipedia": "" }, "geometry": { "type": "Point", "coordinates": [ -58.3829935, -34.6741335 ] } },
{ "type": "Feature", "properties": { "amenity": "clinic", "healthcare": "clinic", "operator": "Municipal", "operator_type": "public", "name": "Puesto Sanitario San Martin De Porres", "addr_full": "Genova 2207", "addr_postcode": "1870", "phone": "011-4201-8916", "ref_sisa_codigo": 50060352201771, "ref_sisa_tipologia": "ESSIDT", "wikidata": "", "wikipedia": "" }, "geometry": { "type": "Point", "coordinates": [ -58.3376813, -34.6588751 ] } },
{ "type": "Feature", "properties": { "amenity": "hospital", "healthcare": "hospital", "operator": "Privado", "operator_type": "private", "name": "Sanatorio Profesor Itoiz", "addr_full": "Avenida Adolfo Alsina 174\/82", "addr_postcode": "1870", "phone": "011-42016631", "ref_sisa_codigo": 10060352300450, "ref_sisa_tipologia": "ESCIG", "wikidata": "", "wikipedia": "" }, "geometry": { "type": "Point", "coordinates": [ -58.366104, -34.6639817 ] } },
{ "type": "Feature", "properties": { "amenity": "hospital", "healthcare": "hospital", "operator": "Obra social", "operator_type": "private", "name": "Sanatorio Regional Avellaneda", "addr_full": "Av. Pavón 670", "addr_postcode": "1870", "phone": "(011) 6345-5500", "ref_sisa_codigo": 10060352706091, "ref_sisa_tipologia": "ESCIG", "wikidata": "", "wikipedia": "" }, "geometry": { "type": "Point", "coordinates": [ -58.3777803, -34.6654814 ] } },
{ "type": "Feature", "properties": { "amenity": "hospital", "healthcare": "hospital", "operator": "Privado", "operator_type": "private", "name": "Sanatorio San Francisco", "addr_full": "Avenida Mitre Nş 2455", "addr_postcode": "1870", "phone": "011) 42044510", "ref_sisa_codigo": 10060352317224, "ref_sisa_tipologia": "ESCIG", "wikidata": "", "wikipedia": "" }, "geometry": { "type": "Point", "coordinates": [ -58.3507276, -34.6745027 ] } },
{ "type": "Feature", "properties": { "amenity": "clinic", "healthcare": "clinic", "operator": "Municipal", "operator_type": "public", "name": "Unidad Sanitaria Barrio Aguero De Avellaneda", "addr_full": "Aguero Y General Paz S\/N Barrio Aguero", "addr_postcode": "1870", "phone": "011-42086857", "ref_sisa_codigo": 50060352202073, "ref_sisa_tipologia": "ESSIDT", "wikidata": "", "wikipedia": "" }, "geometry": { "type": "Point", "coordinates": [ -58.3735027, -34.6753048 ] } },
{ "type": "Feature", "properties": { "amenity": "clinic", "healthcare": "clinic", "operator": "Municipal", "operator_type": "public", "name": "Unidad Sanitaria Casella Piñero", "addr_full": "Debenedetti 2348", "addr_postcode": "1870", "phone": "4265-2069", "ref_sisa_codigo": 50060352202164, "ref_sisa_tipologia": "ESSIDT", "wikidata": "", "wikipedia": "" }, "geometry": { "type": "Point", "coordinates": [ -58.3439233, -34.6617246 ] } },
{ "type": "Feature", "properties": { "amenity": "clinic", "healthcare": "clinic", "operator": "Municipal", "operator_type": "public", "name": "Unidad Sanitaria Dr Raul Salvarredy", "addr_full": "San Isidro 5500", "addr_postcode": "1870", "phone": "4353-1097", "ref_sisa_codigo": 50060352202248, "ref_sisa_tipologia": "ESSIDT", "wikidata": "", "wikipedia": "" }, "geometry": { "type": "Point", "coordinates": [ -58.3171206, -34.6924016 ] } },
{ "type": "Feature", "properties": { "amenity": "clinic", "healthcare": "clinic", "operator": "Municipal", "operator_type": "public", "name": "Unidad Sanitaria Gerli Este", "addr_full": "Casa Cuberta Y Tres Sargentos", "addr_postcode": "1870", "phone": "4204-5336", "ref_sisa_codigo": 50060352202310, "ref_sisa_tipologia": "ESSIDT", "wikidata": "", "wikipedia": "" }, "geometry": { "type": "Point", "coordinates": [ -58.368516, -34.6874169 ] } },
{ "type": "Feature", "properties": { "amenity": "clinic", "healthcare": "clinic", "operator": "Municipal", "operator_type": "public", "name": "Unidad Sanitaria Islas Malvinas", "addr_full": "Merlo 4406", "addr_postcode": "1874", "phone": "(011) 4207-4678", "ref_sisa_codigo": 50060352202943, "ref_sisa_tipologia": "ESSIDT", "wikidata": "", "wikipedia": "" }, "geometry": { "type": "Point", "coordinates": [ -58.3261385, -34.6839992 ] } },
{ "type": "Feature", "properties": { "amenity": "clinic", "healthcare": "clinic", "operator": "Municipal", "operator_type": "public", "name": "Unidad Sanitaria N 15", "addr_full": "Combatientes De Malvinas", "addr_postcode": "1870", "phone": "011-4201-6082", "ref_sisa_codigo": 50060352215010, "ref_sisa_tipologia": "ESSIDT", "wikidata": "", "wikipedia": "" }, "geometry": { "type": "Point", "coordinates": [ -58.3483243, -34.6506365 ] } },
{ "type": "Feature", "properties": { "amenity": "clinic", "healthcare": "clinic", "operator": "Municipal", "operator_type": "public", "name": "Unidad Sanitaria 1 Villa Corina De Avellaneda", "addr_full": "Pierres Y Casacuberta", "addr_postcode": "1870", "phone": "011-42070046", "ref_sisa_codigo": 50060352202469, "ref_sisa_tipologia": "ESSIDT", "wikidata": "", "wikipedia": "" }, "geometry": { "type": "Point", "coordinates": [ -58.3475068, -34.7047075 ] } },
{ "type": "Feature", "properties": { "amenity": "clinic", "healthcare": "clinic", "operator": "Municipal", "operator_type": "public", "name": "Unidad Sanitaria 10 De Avellaneda", "addr_full": "Boulevard De Los Italianos Entre Campicuelo Y Caxaraville - Wilde", "addr_postcode": "1870", "phone": "(011) 4246-7218", "ref_sisa_codigo": 50060352202471, "ref_sisa_tipologia": "ESSIDT", "wikidata": "", "wikipedia": "" }, "geometry": { "type": "Point", "coordinates": [ -58.345345, -34.712844 ] } },
{ "type": "Feature", "properties": { "amenity": "clinic", "healthcare": "clinic", "operator": "Municipal", "operator_type": "public", "name": "Unidad Sanitaria 12 De Avellaneda", "addr_full": "Mario Bravo 1740", "addr_postcode": "1870", "phone": "(011) 4208-6857", "ref_sisa_codigo": 50060352202488, "ref_sisa_tipologia": "ESSIDT", "wikidata": "", "wikipedia": "" }, "geometry": { "type": "Point", "coordinates": [ -58.400344, -34.6669069 ] } },
{ "type": "Feature", "properties": { "amenity": "clinic", "healthcare": "clinic", "operator": "Municipal", "operator_type": "public", "name": "Unidad Sanitaria 16 De Avellaneda", "addr_full": "R. Gutierrez 1371", "addr_postcode": "1870", "phone": "011-42050251", "ref_sisa_codigo": 50060352202516, "ref_sisa_tipologia": "ESSIDT", "wikidata": "", "wikipedia": "" }, "geometry": { "type": "Point", "coordinates": [ -58.3523841, -34.6617665 ] } },
{ "type": "Feature", "properties": { "amenity": "clinic", "healthcare": "clinic", "operator": "Municipal", "operator_type": "public", "name": "Unidad Sanitaria 17 De Avellaneda", "addr_full": "Oyuela 1976", "addr_postcode": "1870", "phone": "011-42468290", "ref_sisa_codigo": 50060352202525, "ref_sisa_tipologia": "ESSIDT", "wikidata": "", "wikipedia": "" }, "geometry": { "type": "Point", "coordinates": [ -58.3537788, -34.7087669 ] } },
{ "type": "Feature", "properties": { "amenity": "clinic", "healthcare": "clinic", "operator": "Municipal", "operator_type": "public", "name": "Unidad Sanitaria 18 De Avellaneda", "addr_full": "Moisés Lebensohn 945", "addr_postcode": "1870", "phone": "(011) 4205-9639", "ref_sisa_codigo": 50060352202533, "ref_sisa_tipologia": "ESSIDT", "wikidata": "", "wikipedia": "" }, "geometry": { "type": "Point", "coordinates": [ -58.381695, -34.666635 ] } },
{ "type": "Feature", "properties": { "amenity": "clinic", "healthcare": "clinic", "operator": "Municipal", "operator_type": "public", "name": "Unidad Sanitaria 19 De Avellaneda", "addr_full": "Salta 1769", "addr_postcode": "1870", "phone": "011-42041175", "ref_sisa_codigo": 50060352202541, "ref_sisa_tipologia": "ESSIDT", "wikidata": "", "wikipedia": "" }, "geometry": { "type": "Point", "coordinates": [ -58.3649926, -34.6928427 ] } },
{ "type": "Feature", "properties": { "amenity": "clinic", "healthcare": "clinic", "operator": "Municipal", "operator_type": "public", "name": "Unidad Sanitaria 2 De Avellaneda", "addr_full": "Mazzini 1325", "addr_postcode": "1870", "phone": "011-42059633", "ref_sisa_codigo": 50060352202546, "ref_sisa_tipologia": "ESSIDT", "wikidata": "", "wikipedia": "" }, "geometry": { "type": "Point", "coordinates": [ -58.3458309, -34.6494476 ] } },
{ "type": "Feature", "properties": { "amenity": "clinic", "healthcare": "clinic", "operator": "Municipal", "operator_type": "public", "name": "Unidad Sanitaria 3 De Avellaneda", "addr_full": "Av. Dr. Manuel Belgrano 4070", "addr_postcode": "1870", "phone": "011- 42077511", "ref_sisa_codigo": 50060352202587, "ref_sisa_tipologia": "ESSIDT", "wikidata": "", "wikipedia": "" }, "geometry": { "type": "Point", "coordinates": [ -58.3393507, -34.6904256 ] } },
{ "type": "Feature", "properties": { "amenity": "clinic", "healthcare": "clinic", "operator": "Municipal", "operator_type": "public", "name": "Unidad Sanitaria 4 De Avellaneda", "addr_full": "Manuel Estevez 900 Villa Tranquila", "addr_postcode": "1870", "phone": "4205-9680", "ref_sisa_codigo": 50060352202613, "ref_sisa_tipologia": "ESSIDT", "wikidata": "", "wikipedia": "" }, "geometry": { "type": "Point", "coordinates": [ -58.3628168, -34.6527935 ] } },
{ "type": "Feature", "properties": { "amenity": "clinic", "healthcare": "clinic", "operator": "Municipal", "operator_type": "public", "name": "Unidad Sanitaria 5 De Avellaneda", "addr_full": "Sargento Cabral 43", "addr_postcode": "1870", "phone": "(011) 4208-9764", "ref_sisa_codigo": 50060352202628, "ref_sisa_tipologia": "ESSIDT", "wikidata": "", "wikipedia": "" }, "geometry": { "type": "Point", "coordinates": [ -58.3858452, -34.6836544 ] } },
{ "type": "Feature", "properties": { "amenity": "clinic", "healthcare": "clinic", "operator": "Municipal", "operator_type": "public", "name": "Unidad Sanitaria 6 De Avellaneda", "addr_full": "Rodo 938", "addr_postcode": "1870", "phone": "4207-0555", "ref_sisa_codigo": 50060352202640, "ref_sisa_tipologia": "ESSIDT", "wikidata": "", "wikipedia": "" }, "geometry": { "type": "Point", "coordinates": [ -58.3286884, -34.7116522 ] } },
{ "type": "Feature", "properties": { "amenity": "clinic", "healthcare": "clinic", "operator": "Municipal", "operator_type": "public", "name": "Unidad Sanitaria 7 De Avellaneda", "addr_full": "Saladillo 445", "addr_postcode": "1870", "phone": "4207-6587", "ref_sisa_codigo": 50060352202652, "ref_sisa_tipologia": "ESSIDT", "wikidata": "", "wikipedia": "" }, "geometry": { "type": "Point", "coordinates": [ -58.336175, -34.6818152 ] } },
{ "type": "Feature", "properties": { "amenity": "clinic", "healthcare": "clinic", "operator": "Municipal", "operator_type": "public", "name": "Unidad Sanitaria 8 De Avellaneda", "addr_full": "Montaña 172", "addr_postcode": "1870", "phone": "", "ref_sisa_codigo": 50060352202663, "ref_sisa_tipologia": "ESSIDT", "wikidata": "", "wikipedia": "" }, "geometry": { "type": "Point", "coordinates": [ -58.3543625, -34.6399988 ] } },
{ "type": "Feature", "properties": { "amenity": "clinic", "healthcare": "clinic", "operator": "Municipal", "operator_type": "public", "name": "Unidad Sanitaria 9 De Avellaneda", "addr_full": "Jose Maria Montaña 172 E\/Espejo Y Frias", "addr_postcode": "1870", "phone": "4205-9634", "ref_sisa_codigo": 50060352202674, "ref_sisa_tipologia": "ESSIDT", "wikidata": "", "wikipedia": "" }, "geometry": { "type": "Point", "coordinates": [ -58.3543432, -34.6400403 ] } },
{ "type": "Feature", "properties": { "amenity": "clinic", "healthcare": "clinic", "operator": "Municipal", "operator_type": "public", "name": "Unidad Sanitaria 15", "addr_full": "Combatientes De Malvinas E Irala S\/N Avellaneda", "addr_postcode": "1871", "phone": "011-42059622", "ref_sisa_codigo": 50060352216364, "ref_sisa_tipologia": "ESSIDT", "wikidata": "", "wikipedia": "" }, "geometry": { "type": "Point", "coordinates": [ -58.3489573, -34.6506453 ] } },
{ "type": "Feature", "properties": { "amenity": "clinic", "healthcare": "clinic", "operator": "Municipal", "operator_type": "public", "name": "Unidad Sanitaria Torres De Wilde", "addr_full": "Las Flores 1600", "addr_postcode": "1870", "phone": "4353-1099", "ref_sisa_codigo": 50060352202851, "ref_sisa_tipologia": "ESSIDT", "wikidata": "", "wikipedia": "" }, "geometry": { "type": "Point", "coordinates": [ -58.3021345, -34.6904794 ] } }
]
}
