{
"type": "FeatureCollection",
"name": "020-campana",
"features": [
{ "type": "Feature", "properties": { "amenity": "clinic", "healthcare": "clinic", "operator": "Municipal", "operator_type": "public", "name": "CAPS Los Pioneros", "addr_full": "Maffei 566 Barrio Los Pioneros", "addr_postcode": "2804", "phone": "03489-15455748", "ref_sisa_codigo": 50061262201298, "ref_sisa_tipologia": "ESSIDT", "wikidata": "", "wikipedia": "" }, "geometry": { "type": "Point", "coordinates": [ -58.9365435, -34.2077563 ] } },
{ "type": "Feature", "properties": { "amenity": "clinic", "healthcare": "clinic", "operator": "Municipal", "operator_type": "public", "name": "CAPS 1 Del Pino", "addr_full": "Necochea 1223", "addr_postcode": "2804", "phone": "03489-441396", "ref_sisa_codigo": 50061262201473, "ref_sisa_tipologia": "ESSIDT", "wikidata": "", "wikipedia": "" }, "geometry": { "type": "Point", "coordinates": [ -58.9482121, -34.1806349 ] } },
{ "type": "Feature", "properties": { "amenity": "clinic", "healthcare": "clinic", "operator": "Municipal", "operator_type": "public", "name": "CAPS 10", "addr_full": "Padre Victor Maartino 1673 - La Josefa", "addr_postcode": "2804", "phone": "03489-441451", "ref_sisa_codigo": 50061262201474, "ref_sisa_tipologia": "ESSIDT", "wikidata": "", "wikipedia": "" }, "geometry": { "type": "Point", "coordinates": [ -58.926958, -34.200498 ] } },
{ "type": "Feature", "properties": { "amenity": "clinic", "healthcare": "clinic", "operator": "Municipal", "operator_type": "public", "name": "CAPS 11 Bo. Santa Lucia", "addr_full": "Gurrea Y Nash", "addr_postcode": "2804", "phone": "", "ref_sisa_codigo": 50061262206931, "ref_sisa_tipologia": "ESSIDT", "wikidata": "", "wikipedia": "" }, "geometry": { "type": "Point", "coordinates": [ -58.9577222, -34.1775212 ] } },
{ "type": "Feature", "properties": { "amenity": "clinic", "healthcare": "clinic", "operator": "Municipal", "operator_type": "public", "name": "CAPS 12 San Felipe", "addr_full": "Dorrego 1322", "addr_postcode": "2804", "phone": "", "ref_sisa_codigo": 50061262206936, "ref_sisa_tipologia": "ESSIDT", "wikidata": "", "wikipedia": "" }, "geometry": { "type": "Point", "coordinates": [ -58.974334, -34.180761 ] } },
{ "type": "Feature", "properties": { "amenity": "clinic", "healthcare": "clinic", "operator": "Municipal", "operator_type": "public", "name": "CAPS 14 Las Praderas", "addr_full": "Verdier  508 Esq. Pagani - Las Praderas", "addr_postcode": "2804", "phone": "03489-436754", "ref_sisa_codigo": 50061262201478, "ref_sisa_tipologia": "ESSIDT", "wikidata": "", "wikipedia": "" }, "geometry": { "type": "Point", "coordinates": [ -58.9196348, -34.2479981 ] } },
{ "type": "Feature", "properties": { "amenity": "clinic", "healthcare": "clinic", "operator": "Municipal", "operator_type": "public", "name": "CAPS 15 Rio Parana", "addr_full": "Escuela 26 Rio Parana", "addr_postcode": "2804", "phone": "03489-15455745", "ref_sisa_codigo": 50061262201479, "ref_sisa_tipologia": "ESSIDT", "wikidata": "", "wikipedia": "" }, "geometry": { "type": "Point", "coordinates": [ -58.9581299, -34.1680678 ] } },
{ "type": "Feature", "properties": { "amenity": "clinic", "healthcare": "clinic", "operator": "Municipal", "operator_type": "public", "name": "CAPS 16 San Jacinto", "addr_full": "Fernandez 313 - San Jacinto", "addr_postcode": "2804", "phone": "03489-447503", "ref_sisa_codigo": 50061262201480, "ref_sisa_tipologia": "ESSIDT", "wikidata": "", "wikipedia": "" }, "geometry": { "type": "Point", "coordinates": [ -58.9144421, -34.2202394 ] } },
{ "type": "Feature", "properties": { "amenity": "clinic", "healthcare": "clinic", "operator": "Municipal", "operator_type": "public", "name": "CAPS 17", "addr_full": "De Marco 101 (Esquina Coltelli)", "addr_postcode": "2804", "phone": "(03489) 444367", "ref_sisa_codigo": 50061262201481, "ref_sisa_tipologia": "ESSIDT", "wikidata": "", "wikipedia": "" }, "geometry": { "type": "Point", "coordinates": [ -58.9344057, -34.2097781 ] } },
{ "type": "Feature", "properties": { "amenity": "clinic", "healthcare": "clinic", "operator": "Municipal", "operator_type": "public", "name": "CAPS 18 Bo. Siderca", "addr_full": "Lavezari 11", "addr_postcode": "2804", "phone": "", "ref_sisa_codigo": 50061262206897, "ref_sisa_tipologia": "ESSIDT", "wikidata": "", "wikipedia": "" }, "geometry": { "type": "Point", "coordinates": [ -59.009396, -34.151839 ] } },
{ "type": "Feature", "properties": { "amenity": "clinic", "healthcare": "clinic", "operator": "Municipal", "operator_type": "public", "name": "CAPS 2 Otamendi", "addr_full": "Ayos S\/N Otamendi Y Cordero", "addr_postcode": "2804", "phone": "", "ref_sisa_codigo": 50061262206934, "ref_sisa_tipologia": "ESSIDT", "wikidata": "", "wikipedia": "" }, "geometry": { "type": "Point", "coordinates": [ -58.908545, -34.227274 ] } },
{ "type": "Feature", "properties": { "amenity": "clinic", "healthcare": "clinic", "operator": "Municipal", "operator_type": "public", "name": "CAPS 20 Barrio Sarmiento", "addr_full": "Liniers 78", "addr_postcode": "2804", "phone": "03489-437553", "ref_sisa_codigo": 50061262201485, "ref_sisa_tipologia": "ESSIDT", "wikidata": "", "wikipedia": "" }, "geometry": { "type": "Point", "coordinates": [ -58.9441803, -34.1794553 ] } },
{ "type": "Feature", "properties": { "amenity": "clinic", "healthcare": "clinic", "operator": "Municipal", "operator_type": "public", "name": "CAPS 21 Albizola", "addr_full": "Mateo Blanco 230 - Albizola", "addr_postcode": "2804", "phone": "03489-447490", "ref_sisa_codigo": 50061262201290, "ref_sisa_tipologia": "ESSIDT", "wikidata": "", "wikipedia": "" }, "geometry": { "type": "Point", "coordinates": [ -58.9196563, -34.2152446 ] } },
{ "type": "Feature", "properties": { "amenity": "clinic", "healthcare": "clinic", "operator": "Municipal", "operator_type": "public", "name": "CAPS 23", "addr_full": "Quinquela Martín 124", "addr_postcode": "2804", "phone": "", "ref_sisa_codigo": 50061262206902, "ref_sisa_tipologia": "ESSIDT", "wikidata": "", "wikipedia": "" }, "geometry": { "type": "Point", "coordinates": [ -58.9560699, -34.1777254 ] } },
{ "type": "Feature", "properties": { "amenity": "clinic", "healthcare": "clinic", "operator": "Municipal", "operator_type": "public", "name": "CAPS 25 Barrio 9 De Julio De Campana (Ex Centro Perif. 19)", "addr_full": "Maipu 375 Barrio 9 De Julio", "addr_postcode": "2804", "phone": "03489-437550", "ref_sisa_codigo": 50061262201077, "ref_sisa_tipologia": "ESSIDT", "wikidata": "", "wikipedia": "" }, "geometry": { "type": "Point", "coordinates": [ -58.9513836, -34.1846803 ] } },
{ "type": "Feature", "properties": { "amenity": "clinic", "healthcare": "clinic", "operator": "Municipal", "operator_type": "public", "name": "CAPS 25 Bo. 9 De Julio", "addr_full": "Paso 1446", "addr_postcode": "2804", "phone": "", "ref_sisa_codigo": 50061262206929, "ref_sisa_tipologia": "ESSIDT", "wikidata": "", "wikipedia": "" }, "geometry": { "type": "Point", "coordinates": [ -58.9554768, -34.184342 ] } },
{ "type": "Feature", "properties": { "amenity": "clinic", "healthcare": "clinic", "operator": "Municipal", "operator_type": "public", "name": "CAPS 26", "addr_full": "Viale Y Barca S\/N - Barrio Don Francisco", "addr_postcode": "2804", "phone": "", "ref_sisa_codigo": 50061262206932, "ref_sisa_tipologia": "ESSIDT", "wikidata": "", "wikipedia": "" }, "geometry": { "type": "Point", "coordinates": [ -58.947662, -34.195493 ] } },
{ "type": "Feature", "properties": { "amenity": "clinic", "healthcare": "clinic", "operator": "Municipal", "operator_type": "public", "name": "CAPS 5", "addr_full": "Aguiar 162", "addr_postcode": "2804", "phone": "03489-440050", "ref_sisa_codigo": 50061262201487, "ref_sisa_tipologia": "ESSIDT", "wikidata": "", "wikipedia": "" }, "geometry": { "type": "Point", "coordinates": [ -58.9387858, -34.2058042 ] } },
{ "type": "Feature", "properties": { "amenity": "clinic", "healthcare": "clinic", "operator": "Municipal", "operator_type": "public", "name": "CAPS 6", "addr_full": "San Lorenzo 982", "addr_postcode": "2804", "phone": "03489-437549", "ref_sisa_codigo": 50061262201488, "ref_sisa_tipologia": "ESSIDT", "wikidata": "", "wikipedia": "" }, "geometry": { "type": "Point", "coordinates": [ -58.965524, -34.1856073 ] } },
{ "type": "Feature", "properties": { "amenity": "clinic", "healthcare": "clinic", "operator": "Municipal", "operator_type": "public", "name": "CAPS 7", "addr_full": "Echeverria 952", "addr_postcode": "2804", "phone": "03489-437555", "ref_sisa_codigo": 50061262201489, "ref_sisa_tipologia": "ESSIDT", "wikidata": "", "wikipedia": "" }, "geometry": { "type": "Point", "coordinates": [ -58.9657238, -34.1968411 ] } },
{ "type": "Feature", "properties": { "amenity": "clinic", "healthcare": "clinic", "operator": "Municipal", "operator_type": "public", "name": "CAPS 8 Islas", "addr_full": "Canal Alem Y Rio Carabelas", "addr_postcode": "2804", "phone": "03489-15455749", "ref_sisa_codigo": 50061262201490, "ref_sisa_tipologia": "ESSIDT", "wikidata": "", "wikipedia": "" }, "geometry": { "type": "Point", "coordinates": [ -58.8346195, -34.0587216 ] } },
{ "type": "Feature", "properties": { "amenity": "clinic", "healthcare": "clinic", "operator": "Municipal", "operator_type": "public", "name": "CAPS 3 De Campana", "addr_full": "Cordeu 976 Barrio Lubo", "addr_postcode": "2804", "phone": "03489-441395", "ref_sisa_codigo": 50061262201141, "ref_sisa_tipologia": "ESSIDT", "wikidata": "", "wikipedia": "" }, "geometry": { "type": "Point", "coordinates": [ -58.9395475, -34.1882338 ] } },
{ "type": "Feature", "properties": { "amenity": "clinic", "healthcare": "clinic", "operator": "Municipal", "operator_type": "public", "name": "Centro De Salud 22 Hipolito Irigoyen De Campana", "addr_full": "Quinquela Martin S\/N", "addr_postcode": "2804", "phone": "", "ref_sisa_codigo": 50061262201293, "ref_sisa_tipologia": "ESSIDT", "wikidata": "", "wikipedia": "" }, "geometry": { "type": "Point", "coordinates": [ -58.908855, -34.288363 ] } },
{ "type": "Feature", "properties": { "amenity": "clinic", "healthcare": "clinic", "operator": "Municipal", "operator_type": "public", "name": "Centro Periferico 11 De Campana", "addr_full": "Gurrea 445 E\/ Nash Y Antiguo Camino - Santa Lucia", "addr_postcode": "2804", "phone": "03489-430278", "ref_sisa_codigo": 50061262201475, "ref_sisa_tipologia": "ESSIDT", "wikidata": "", "wikipedia": "" }, "geometry": { "type": "Point", "coordinates": [ -59.005387, -34.146714 ] } },
{ "type": "Feature", "properties": { "amenity": "clinic", "healthcare": "clinic", "operator": "Municipal", "operator_type": "public", "name": "Centro Periferico 12 De Campana", "addr_full": "Dorrego 1324 - San Felipe", "addr_postcode": "2804", "phone": "03489-437551", "ref_sisa_codigo": 50061262201476, "ref_sisa_tipologia": "ESSIDT", "wikidata": "", "wikipedia": "" }, "geometry": { "type": "Point", "coordinates": [ -58.9743733, -34.1808053 ] } },
{ "type": "Feature", "properties": { "amenity": "clinic", "healthcare": "clinic", "operator": "Municipal", "operator_type": "public", "name": "Centro Periferico 13 De Campana", "addr_full": "P. Modarelli Esquina La Rioja", "addr_postcode": "2804", "phone": "03489-441393", "ref_sisa_codigo": 50061262201477, "ref_sisa_tipologia": "ESSIDT", "wikidata": "", "wikipedia": "" }, "geometry": { "type": "Point", "coordinates": [ -58.9376915, -34.18574 ] } },
{ "type": "Feature", "properties": { "amenity": "clinic", "healthcare": "clinic", "operator": "Municipal", "operator_type": "public", "name": "Centro Periferico 18 Barrio Siderca De Campana", "addr_full": "Lavezzari Y Colectora Sur S\/N", "addr_postcode": "2804", "phone": "03489-448420", "ref_sisa_codigo": 50061262201482, "ref_sisa_tipologia": "ESSIDT", "wikidata": "", "wikipedia": "" }, "geometry": { "type": "Point", "coordinates": [ -58.9419701, -34.1944895 ] } },
{ "type": "Feature", "properties": { "amenity": "clinic", "healthcare": "clinic", "operator": "Municipal", "operator_type": "public", "name": "Centro Periferico 2 De Campana", "addr_full": "Raul Ayos Entre Otamendi Y Cordero", "addr_postcode": "2804", "phone": "03489-447489", "ref_sisa_codigo": 50061262201483, "ref_sisa_tipologia": "ESSIDT", "wikidata": "", "wikipedia": "" }, "geometry": { "type": "Point", "coordinates": [ -58.9084876, -34.2273806 ] } },
{ "type": "Feature", "properties": { "amenity": "clinic", "healthcare": "clinic", "operator": "Municipal", "operator_type": "public", "name": "Centro Periferico 4 De Campana", "addr_full": "Zarate Entre  S.Dellepiane Y Ugartemendia - San Cayetano", "addr_postcode": "2804", "phone": "03489-430184", "ref_sisa_codigo": 50061262201486, "ref_sisa_tipologia": "ESSIDT", "wikidata": "", "wikipedia": "" }, "geometry": { "type": "Point", "coordinates": [ -59.0063131, -34.1550975 ] } },
{ "type": "Feature", "properties": { "amenity": "clinic", "healthcare": "clinic", "operator": "Municipal", "operator_type": "public", "name": "Centro Periferico 9 Barrio Ballpra De Campana", "addr_full": "Maipu 714", "addr_postcode": "2804", "phone": "03489-437550", "ref_sisa_codigo": 50061262201491, "ref_sisa_tipologia": "ESSIDT", "wikidata": "", "wikipedia": "" }, "geometry": { "type": "Point", "coordinates": [ -58.9589968, -34.1841682 ] } },
{ "type": "Feature", "properties": { "amenity": "clinic", "healthcare": "clinic", "operator": "Municipal", "operator_type": "public", "name": "Cic Lubo", "addr_full": "Modarelli Y La Rioja", "addr_postcode": "2804", "phone": "", "ref_sisa_codigo": 50061262206933, "ref_sisa_tipologia": "ESSIDT", "wikidata": "", "wikipedia": "" }, "geometry": { "type": "Point", "coordinates": [ -58.9377022, -34.1857755 ] } },
{ "type": "Feature", "properties": { "amenity": "clinic", "healthcare": "clinic", "operator": "Municipal", "operator_type": "public", "name": "Cic San Cayetano", "addr_full": "Zárate 3245", "addr_postcode": "2804", "phone": "", "ref_sisa_codigo": 50061262206901, "ref_sisa_tipologia": "ESSIDT", "wikidata": "", "wikipedia": "" }, "geometry": { "type": "Point", "coordinates": [ -59.006864, -34.154662 ] } },
{ "type": "Feature", "properties": { "amenity": "hospital", "healthcare": "hospital", "operator": "Privado", "operator_type": "private", "name": "Clinica Delta Sa", "addr_full": "Boulevard Sarmiento 154", "addr_postcode": "2804", "phone": "(03489) 420668", "ref_sisa_codigo": 10061262300050, "ref_sisa_tipologia": "ESCIG", "wikidata": "", "wikipedia": "" }, "geometry": { "type": "Point", "coordinates": [ -58.9628808, -34.1593942 ] } },
{ "type": "Feature", "properties": { "amenity": "hospital", "healthcare": "hospital", "operator": "Privado", "operator_type": "private", "name": "Clinica Privada Campana", "addr_full": "Avenida Mitre 731", "addr_postcode": "2804", "phone": "03489-420493", "ref_sisa_codigo": 10061262300078, "ref_sisa_tipologia": "ESCIG", "wikidata": "", "wikipedia": "" }, "geometry": { "type": "Point", "coordinates": [ -58.9575457, -34.1632841 ] } },
{ "type": "Feature", "properties": { "amenity": "hospital", "healthcare": "hospital", "operator": "Privado", "operator_type": "private", "name": "Clinica San Camilo", "addr_full": "Sivori 814", "addr_postcode": "2804", "phone": "", "ref_sisa_codigo": 10061262304998, "ref_sisa_tipologia": "ESCIG", "wikidata": "", "wikipedia": "" }, "geometry": { "type": "Point", "coordinates": [ -58.9603803, -34.1717496 ] } },
{ "type": "Feature", "properties": { "amenity": "clinic", "healthcare": "clinic", "operator": "Municipal", "operator_type": "public", "name": "Escuela 24 Isla De Campana", "addr_full": "Maffei 566 Barrio Los Pioneros", "addr_postcode": "2804", "phone": "", "ref_sisa_codigo": 50061262201618, "ref_sisa_tipologia": "ESSIDT", "wikidata": "", "wikipedia": "" }, "geometry": { "type": "Point", "coordinates": [ -58.9663696, -34.1697721 ] } },
{ "type": "Feature", "properties": { "amenity": "hospital", "healthcare": "hospital", "operator": "Obra social", "operator_type": "private", "name": "Sanatorio Augusto Timoteo Vandor", "addr_full": "General Belgrano 76", "addr_postcode": "2804", "phone": "(03489) 43-9488", "ref_sisa_codigo": 10061262706093, "ref_sisa_tipologia": "ESCIG", "wikidata": "", "wikipedia": "" }, "geometry": { "type": "Point", "coordinates": [ -58.9575143, -34.1581539 ] } },
{ "type": "Feature", "properties": { "amenity": "hospital", "healthcare": "hospital", "operator": "Municipal", "operator_type": "public", "name": "Unidad Hospitalaria San Jose", "addr_full": "Juan Bautista Alberdi 576", "addr_postcode": "2804", "phone": "(03489) 42-2427", "ref_sisa_codigo": 10061262200484, "ref_sisa_tipologia": "ESCIG", "wikidata": "", "wikipedia": "" }, "geometry": { "type": "Point", "coordinates": [ -58.9541057, -34.1673791 ] } }
]
}
