{
"type": "FeatureCollection",
"name": "021-comuna_11",
"features": [
{ "type": "Feature", "properties": { "amenity": "clinic", "healthcare": "clinic", "operator": "Municipal", "operator_type": "public", "name": "CESAC 34", "addr_full": "General Jose G. Artigas 2262", "addr_postcode": "1416", "phone": "(011) 4585-1514", "ref_sisa_codigo": 50020012115368, "ref_sisa_tipologia": "ESSIDT", "wikidata": "", "wikipedia": "" }, "geometry": { "type": "Point", "coordinates": [ -58.4781003, -34.6064466 ] } },
{ "type": "Feature", "properties": { "amenity": "hospital", "healthcare": "hospital", "operator": "Privado", "operator_type": "private", "name": "Clinica De La Esperanza", "addr_full": "Tres Arroyos 2060", "addr_postcode": "1416", "phone": "(011) 4588-5700", "ref_sisa_codigo": 10020012315192, "ref_sisa_tipologia": "ESCIG", "wikidata": "Q93139821", "wikipedia": "" }, "geometry": { "type": "Point", "coordinates": [ -58.4663394, -34.6121536 ] } },
{ "type": "Feature", "properties": { "amenity": "clinic", "healthcare": "clinic", "operator": "Municipal", "operator_type": "public", "name": "CMB 13", "addr_full": "Camarones 2834", "addr_postcode": "1416", "phone": "(011) 4582-1563", "ref_sisa_codigo": 50020012115390, "ref_sisa_tipologia": "ESSIDT", "wikidata": "", "wikipedia": "" }, "geometry": { "type": "Point", "coordinates": [ -58.4797656, -34.6119806 ] } },
{ "type": "Feature", "properties": { "amenity": "clinic", "healthcare": "clinic", "operator": "Municipal", "operator_type": "public", "name": "CMB 2", "addr_full": "Emilio La Marca 1022", "addr_postcode": "1416", "phone": "(011) 4672-0744", "ref_sisa_codigo": 50020012115397, "ref_sisa_tipologia": "ESSIDT", "wikidata": "", "wikipedia": "" }, "geometry": { "type": "Point", "coordinates": [ -58.48001, -34.6213425 ] } },
{ "type": "Feature", "properties": { "amenity": "hospital", "healthcare": "hospital", "operator": "Servicio Penitenciario Federal", "operator_type": "public", "name": "CPFCABA  Penitenciario Federal De La Ciudad Autonoma De Buenos Aires", "addr_full": "Bermúdez 2651", "addr_postcode": "1417", "phone": "(011) 4567-8538", "ref_sisa_codigo": 10020012416998, "ref_sisa_tipologia": "ESCIG", "wikidata": "Q93140091", "wikipedia": "" }, "geometry": { "type": "Point", "coordinates": [ -58.516016, -34.6144556 ] } },
{ "type": "Feature", "properties": { "amenity": "hospital", "healthcare": "hospital", "operator": "Municipal", "operator_type": "public", "name": "Hospital General De Agudos Doctor Abel Zubizarreta", "addr_full": "Nueva York 3952", "addr_postcode": "1419", "phone": "4501-5555 \/ 0683 \/ 5985", "ref_sisa_codigo": 10020012215216, "ref_sisa_tipologia": "ESCIG", "wikidata": "Q93140622", "wikipedia": "" }, "geometry": { "type": "Point", "coordinates": [ -58.5115743, -34.6001149 ] } },
{ "type": "Feature", "properties": { "amenity": "hospital", "healthcare": "hospital", "operator": "Privado", "operator_type": "private", "name": "Hospital Israelita Ezrah", "addr_full": "Terrada 1164", "addr_postcode": "1416", "phone": "(011) 4586-8100", "ref_sisa_codigo": 10020012315223, "ref_sisa_tipologia": "ESCIG", "wikidata": "Q93141042", "wikipedia": "" }, "geometry": { "type": "Point", "coordinates": [ -58.4733582, -34.6192942 ] } },
{ "type": "Feature", "properties": { "amenity": "hospital", "healthcare": "hospital", "operator": "Privado", "operator_type": "private", "name": "Instituto Del Corazon Denton A. Cooley (sanatorio)", "addr_full": "Av. Nazca 1169", "addr_postcode": "1416", "phone": "(011) 4582-9770", "ref_sisa_codigo": 10020012315455, "ref_sisa_tipologia": "ESCIG", "wikidata": "Q93141355", "wikipedia": "" }, "geometry": { "type": "Point", "coordinates": [ -58.4746027, -34.6200712 ] } },
{ "type": "Feature", "properties": { "amenity": "hospital", "healthcare": "hospital", "operator": "Obra social", "operator_type": "private", "name": "Instituto Medico Rodriguez Peńa - Obra Social Personal Perfumista", "addr_full": "Av. San Martín 3175", "addr_postcode": "1416", "phone": "(011) 4581-8276", "ref_sisa_codigo": 10020012715229, "ref_sisa_tipologia": "ESCIG", "wikidata": "Q93141372", "wikipedia": "" }, "geometry": { "type": "Point", "coordinates": [ -58.46838, -34.602199 ] } }
]
}
