{
"type": "FeatureCollection",
"name": "022-general_donovan",
"features": [
{ "type": "Feature", "properties": { "amenity": "clinic", "healthcare": "clinic", "operator": "Provincial", "operator_type": "public", "name": "Centro De Salud Colonia El 54", "addr_full": "Zona Rural- Colonia El 54", "addr_postcode": "3514", "phone": "", "ref_sisa_codigo": 50220562126191, "ref_sisa_tipologia": "ESSIDT", "wikidata": "", "wikipedia": "" }, "geometry": { "type": "Point", "coordinates": [ -59.2882776, -27.2080376 ] } },
{ "type": "Feature", "properties": { "amenity": "clinic", "healthcare": "clinic", "operator": "Provincial", "operator_type": "public", "name": "Centro De Salud Km 548", "addr_full": "Zona Rural- Km 548", "addr_postcode": "3514", "phone": "", "ref_sisa_codigo": 50220562126283, "ref_sisa_tipologia": "ESSIDT", "wikidata": "", "wikipedia": "" }, "geometry": { "type": "Point", "coordinates": [ -59.4444466, -27.1046721 ] } },
{ "type": "Feature", "properties": { "amenity": "clinic", "healthcare": "clinic", "operator": "Provincial", "operator_type": "public", "name": "Centro De Salud Lapachito Doctor Humberto Farias", "addr_full": "25 De Mayo S\/NÂº", "addr_postcode": "3514", "phone": "(03722) 496022", "ref_sisa_codigo": 50220562126312, "ref_sisa_tipologia": "ESSIDT", "wikidata": "", "wikipedia": "" }, "geometry": { "type": "Point", "coordinates": [ -59.386703, -27.1593675 ] } },
{ "type": "Feature", "properties": { "amenity": "clinic", "healthcare": "clinic", "operator": "Provincial", "operator_type": "public", "name": "Centro De Salud Legua 41 L Quiroga", "addr_full": "Zona Rural-Legua 41- L Quiroga", "addr_postcode": "3718", "phone": "(03722) 491017", "ref_sisa_codigo": 50220562126326, "ref_sisa_tipologia": "ESSIDT", "wikidata": "", "wikipedia": "" }, "geometry": { "type": "Point", "coordinates": [ -59.3828201, -27.1335492 ] } },
{ "type": "Feature", "properties": { "amenity": "hospital", "healthcare": "hospital", "operator": "Provincial", "operator_type": "public", "name": "Hospital Doctor Angel Rodriguez Gusalli", "addr_full": "9 De Julio S\/n", "addr_postcode": "3514", "phone": "0364-4491017", "ref_sisa_codigo": 10220562126031, "ref_sisa_tipologia": "ESCIG", "wikidata": "", "wikipedia": "" }, "geometry": { "type": "Point", "coordinates": [ -59.3789917, -27.1238772 ] } },
{ "type": "Feature", "properties": { "amenity": "hospital", "healthcare": "hospital", "operator": "Provincial", "operator_type": "public", "name": "Hospital Doctor Carlos A. Delgado", "addr_full": "Planta Urbana  Sin Numero", "addr_postcode": "3514", "phone": "0362- 4499004", "ref_sisa_codigo": 10220562126037, "ref_sisa_tipologia": "ESCIG", "wikidata": "", "wikipedia": "" }, "geometry": { "type": "Point", "coordinates": [ -59.44654, -27.1032 ] } },
{ "type": "Feature", "properties": { "amenity": "hospital", "healthcare": "hospital", "operator": "Provincial", "operator_type": "public", "name": "Hospital General Donovan", "addr_full": "Avenida Juan Bautista Alberdi Y Sargento Cabral", "addr_postcode": "3514", "phone": "(0362)- 449-5018", "ref_sisa_codigo": 10220562126055, "ref_sisa_tipologia": "ESCIG", "wikidata": "", "wikipedia": "" }, "geometry": { "type": "Point", "coordinates": [ -59.2881489, -27.2081521 ] } }
]
}
