{
"type": "FeatureCollection",
"name": "023-lujan",
"features": [
{ "type": "Feature", "properties": { "amenity": "clinic", "healthcare": "clinic", "operator": "Municipal", "operator_type": "public", "name": "CAPS La Palomita", "addr_full": "Pascual Simone S\/N Barrio La Palomita", "addr_postcode": "6700", "phone": "011-1554503310", "ref_sisa_codigo": 50064972201074, "ref_sisa_tipologia": "ESSIDT", "wikidata": "", "wikipedia": "" }, "geometry": { "type": "Point", "coordinates": [ -59.1128826, -34.5885627 ] } },
{ "type": "Feature", "properties": { "amenity": "clinic", "healthcare": "clinic", "operator": "Municipal", "operator_type": "public", "name": "CAPS Loreto", "addr_full": "Tomas Espora Y Flinges", "addr_postcode": "6700", "phone": "", "ref_sisa_codigo": 50064972215018, "ref_sisa_tipologia": "ESSIDT", "wikidata": "", "wikipedia": "" }, "geometry": { "type": "Point", "coordinates": [ -59.1119385, -34.5495492 ] } },
{ "type": "Feature", "properties": { "amenity": "clinic", "healthcare": "clinic", "operator": "Municipal", "operator_type": "public", "name": "CAPS Open Door", "addr_full": "Corrientes Esquina Santiago Del Estero", "addr_postcode": "6708", "phone": "02323-496230", "ref_sisa_codigo": 50064972201142, "ref_sisa_tipologia": "ESSIDT", "wikidata": "", "wikipedia": "" }, "geometry": { "type": "Point", "coordinates": [ -59.0749004, -34.4904013 ] } },
{ "type": "Feature", "properties": { "amenity": "clinic", "healthcare": "clinic", "operator": "Municipal", "operator_type": "public", "name": "CAPS Padre Varela", "addr_full": "El Maestro Argentino Y Rivadavia S\/N Barrio Padre Varela", "addr_postcode": "6700", "phone": "02323-155828118", "ref_sisa_codigo": 50064972201143, "ref_sisa_tipologia": "ESSIDT", "wikidata": "", "wikipedia": "" }, "geometry": { "type": "Point", "coordinates": [ -59.1243732, -34.5778747 ] } },
{ "type": "Feature", "properties": { "amenity": "clinic", "healthcare": "clinic", "operator": "Municipal", "operator_type": "public", "name": "Centro De Salud La Loma", "addr_full": "Los Helechos Esquina Los Tulipanes S\/N Barrio La Loma", "addr_postcode": "6700", "phone": "011-1554501921", "ref_sisa_codigo": 50064972201255, "ref_sisa_tipologia": "ESSIDT", "wikidata": "", "wikipedia": "" }, "geometry": { "type": "Point", "coordinates": [ -59.1193736, -34.5517937 ] } },
{ "type": "Feature", "properties": { "amenity": "clinic", "healthcare": "clinic", "operator": "Municipal", "operator_type": "public", "name": "Centro De Salud San Francisco", "addr_full": "Uruguay Y Republica Argentina S\/N Barrio San Francisco", "addr_postcode": "6700", "phone": "02323-429965", "ref_sisa_codigo": 50064972201353, "ref_sisa_tipologia": "ESSIDT", "wikidata": "", "wikipedia": "" }, "geometry": { "type": "Point", "coordinates": [ -59.142991, -34.545751 ] } },
{ "type": "Feature", "properties": { "amenity": "clinic", "healthcare": "clinic", "operator": "Municipal", "operator_type": "public", "name": "Centro Periferico Ameghino", "addr_full": "José Ingenieros Y Ameghino", "addr_postcode": "6700", "phone": "(02323) 15-582-8106", "ref_sisa_codigo": 50064972201450, "ref_sisa_tipologia": "ESSIDT", "wikidata": "", "wikipedia": "" }, "geometry": { "type": "Point", "coordinates": [ -59.083337, -34.56 ] } },
{ "type": "Feature", "properties": { "amenity": "clinic", "healthcare": "clinic", "operator": "Municipal", "operator_type": "public", "name": "Centro Periferico De Salud Carlos Keen", "addr_full": "San Carlos S\/N", "addr_postcode": "6700", "phone": "02323-495100", "ref_sisa_codigo": 50064972201460, "ref_sisa_tipologia": "ESSIDT", "wikidata": "", "wikipedia": "" }, "geometry": { "type": "Point", "coordinates": [ -59.2204285, -34.4870329 ] } },
{ "type": "Feature", "properties": { "amenity": "clinic", "healthcare": "clinic", "operator": "Municipal", "operator_type": "public", "name": "Centro Periferico De Salud El Milagro", "addr_full": "Manuel Gálvez Y San Antonio - Barrio El Milagro", "addr_postcode": "6700", "phone": "02323-429868", "ref_sisa_codigo": 50064972201461, "ref_sisa_tipologia": "ESSIDT", "wikidata": "", "wikipedia": "" }, "geometry": { "type": "Point", "coordinates": [ -59.106178, -34.551258 ] } },
{ "type": "Feature", "properties": { "amenity": "clinic", "healthcare": "clinic", "operator": "Municipal", "operator_type": "public", "name": "Centro Periferico De Salud Parque Lasa", "addr_full": "Moyarano S\/N Esquina Ferrari - Parque Lasa", "addr_postcode": "6700", "phone": "(02323) 15-582-8116", "ref_sisa_codigo": 50064972201463, "ref_sisa_tipologia": "ESSIDT", "wikidata": "", "wikipedia": "" }, "geometry": { "type": "Point", "coordinates": [ -59.09454, -34.582816 ] } },
{ "type": "Feature", "properties": { "amenity": "clinic", "healthcare": "clinic", "operator": "Municipal", "operator_type": "public", "name": "Centro Periferico De Salud San Cayetano", "addr_full": "Alsina Esquina Saavedra S\/N", "addr_postcode": "6700", "phone": "02323-429808", "ref_sisa_codigo": 50064972201464, "ref_sisa_tipologia": "ESSIDT", "wikidata": "", "wikipedia": "" }, "geometry": { "type": "Point", "coordinates": [ -59.1167643, -34.5757272 ] } },
{ "type": "Feature", "properties": { "amenity": "clinic", "healthcare": "clinic", "operator": "Municipal", "operator_type": "public", "name": "Centro Periferico De Salud Santa Elena", "addr_full": "San Lorenzo Y Champagnat S\/N Barrio Santa Elena", "addr_postcode": "6700", "phone": "02323-429845", "ref_sisa_codigo": 50064972201465, "ref_sisa_tipologia": "ESSIDT", "wikidata": "", "wikipedia": "" }, "geometry": { "type": "Point", "coordinates": [ -59.1331279, -34.5655774 ] } },
{ "type": "Feature", "properties": { "amenity": "clinic", "healthcare": "clinic", "operator": "Municipal", "operator_type": "public", "name": "Centro Periferico De Salud Torres", "addr_full": "Capitan Hernandez E\/ Calderon De La Barca Y Blomberg", "addr_postcode": "6700", "phone": "02323-493295", "ref_sisa_codigo": 50064972201467, "ref_sisa_tipologia": "ESSIDT", "wikidata": "", "wikipedia": "" }, "geometry": { "type": "Point", "coordinates": [ -59.1293063, -34.4304246 ] } },
{ "type": "Feature", "properties": { "amenity": "clinic", "healthcare": "clinic", "operator": "Municipal", "operator_type": "public", "name": "Cic San Fermin", "addr_full": "Los Rosales Entre Las Madreselvas Y Los Lotos", "addr_postcode": "6700", "phone": "", "ref_sisa_codigo": 50064972201529, "ref_sisa_tipologia": "ESSIDT", "wikidata": "", "wikipedia": "" }, "geometry": { "type": "Point", "coordinates": [ -59.1186079, -34.5464276 ] } },
{ "type": "Feature", "properties": { "amenity": "hospital", "healthcare": "hospital", "operator": "Privado", "operator_type": "private", "name": "Clinica Privada Guemes", "addr_full": "Mariano Moreno 1360", "addr_postcode": "6700", "phone": "(02323) 438495", "ref_sisa_codigo": 10064972300043, "ref_sisa_tipologia": "ESCIG", "wikidata": "", "wikipedia": "" }, "geometry": { "type": "Point", "coordinates": [ -59.1157323, -34.5701208 ] } },
{ "type": "Feature", "properties": { "amenity": "clinic", "healthcare": "clinic", "operator": "Provincial", "operator_type": "public", "name": "Hospital Interzonal Especializado Colonia Doctor Domingo Cabred", "addr_full": "Juan De Dios Filiberto Y Bv. Dr. Domingo Cabred", "addr_postcode": "6708", "phone": "02323-4966515", "ref_sisa_codigo": 13064972100615, "ref_sisa_tipologia": "ESCIESM", "wikidata": "", "wikipedia": "" }, "geometry": { "type": "Point", "coordinates": [ -59.070053, -34.501886 ] } },
{ "type": "Feature", "properties": { "amenity": "hospital", "healthcare": "hospital", "operator": "Municipal", "operator_type": "public", "name": "Hospital Zonal Municipal Nuestra Seńora De Lujan", "addr_full": "San Martin 1750", "addr_postcode": "6700", "phone": "02323-420437", "ref_sisa_codigo": 10064972200409, "ref_sisa_tipologia": "ESCIG", "wikidata": "", "wikipedia": "" }, "geometry": { "type": "Point", "coordinates": [ -59.097645, -34.5707804 ] } },
{ "type": "Feature", "properties": { "amenity": "hospital", "healthcare": "hospital", "operator": "Privado", "operator_type": "private", "name": "Sanatorio Clinica San Jose Obrero", "addr_full": "Flandes Y San Martin S\/n", "addr_postcode": "6706", "phone": "02323 49-7255", "ref_sisa_codigo": 10064972300446, "ref_sisa_tipologia": "ESCIG", "wikidata": "", "wikipedia": "" }, "geometry": { "type": "Point", "coordinates": [ -59.1767, -34.594276 ] } },
{ "type": "Feature", "properties": { "amenity": "clinic", "healthcare": "clinic", "operator": "Municipal", "operator_type": "public", "name": "Unidad Sanitaria Barrio Los Laureles", "addr_full": "Las Estrellas Y Venus S\/N Barrio Los Laureles", "addr_postcode": "6700", "phone": "02323-428951", "ref_sisa_codigo": 50064972202102, "ref_sisa_tipologia": "ESSIDT", "wikidata": "", "wikipedia": "" }, "geometry": { "type": "Point", "coordinates": [ -59.0534749, -34.5903725 ] } },
{ "type": "Feature", "properties": { "amenity": "clinic", "healthcare": "clinic", "operator": "Municipal", "operator_type": "public", "name": "Unidad Sanitaria Juan Xxiii De Lujan", "addr_full": "Repetto Y La Plata", "addr_postcode": "6700", "phone": "02323-429873", "ref_sisa_codigo": 50064972202354, "ref_sisa_tipologia": "ESSIDT", "wikidata": "", "wikipedia": "" }, "geometry": { "type": "Point", "coordinates": [ -59.1051986, -34.5478959 ] } },
{ "type": "Feature", "properties": { "amenity": "clinic", "healthcare": "clinic", "operator": "Municipal", "operator_type": "public", "name": "Unidad Sanitaria Lanusse", "addr_full": "Dr. Luppi Y La Plata S\/N Barrio Lanusse", "addr_postcode": "6700", "phone": "011-1554502083", "ref_sisa_codigo": 50064972202390, "ref_sisa_tipologia": "ESSIDT", "wikidata": "", "wikipedia": "" }, "geometry": { "type": "Point", "coordinates": [ -59.0879145, -34.5733597 ] } },
{ "type": "Feature", "properties": { "amenity": "clinic", "healthcare": "clinic", "operator": "Municipal", "operator_type": "public", "name": "Unidad Sanitaria Los Gallitos", "addr_full": "33 Orientales Y Pascual Simoni", "addr_postcode": "6700", "phone": "", "ref_sisa_codigo": 50064972215015, "ref_sisa_tipologia": "ESSIDT", "wikidata": "", "wikipedia": "" }, "geometry": { "type": "Point", "coordinates": [ -59.1123945, -34.5889503 ] } },
{ "type": "Feature", "properties": { "amenity": "clinic", "healthcare": "clinic", "operator": "Municipal", "operator_type": "public", "name": "Unidad Sanitaria Olivera", "addr_full": "Martin Gil Y Avenida Juan Xxiii", "addr_postcode": "6700", "phone": "02323-483146", "ref_sisa_codigo": 50064972202699, "ref_sisa_tipologia": "ESSIDT", "wikidata": "", "wikipedia": "" }, "geometry": { "type": "Point", "coordinates": [ -59.253473, -34.625628 ] } },
{ "type": "Feature", "properties": { "amenity": "clinic", "healthcare": "clinic", "operator": "Municipal", "operator_type": "public", "name": "Unidad Sanitaria San Bernardo", "addr_full": "Joaquin V. Gonzalez 372 S\/N Barrio San Bernardo", "addr_postcode": "6700", "phone": "02323-429866", "ref_sisa_codigo": 50064972202774, "ref_sisa_tipologia": "ESSIDT", "wikidata": "", "wikipedia": "" }, "geometry": { "type": "Point", "coordinates": [ -59.110805, -34.556396 ] } },
{ "type": "Feature", "properties": { "amenity": "clinic", "healthcare": "clinic", "operator": "Municipal", "operator_type": "public", "name": "Unidad Sanitaria San Pedro De Lujan", "addr_full": "Las Margaritas S\/N Y Las Calas - Barrio San Pedro", "addr_postcode": "6700", "phone": "(02323) 42-9872", "ref_sisa_codigo": 50064972202802, "ref_sisa_tipologia": "ESSIDT", "wikidata": "", "wikipedia": "" }, "geometry": { "type": "Point", "coordinates": [ -59.121618, -34.538694 ] } },
{ "type": "Feature", "properties": { "amenity": "clinic", "healthcare": "clinic", "operator": "Municipal", "operator_type": "public", "name": "Unidad Sanitaria Santa Maria De Jose Maria Jauregui", "addr_full": "Tropero Moreira Y Estrada", "addr_postcode": "6706", "phone": "02323-494534", "ref_sisa_codigo": 50064972202820, "ref_sisa_tipologia": "ESSIDT", "wikidata": "", "wikipedia": "" }, "geometry": { "type": "Point", "coordinates": [ -59.181387, -34.571046 ] } },
{ "type": "Feature", "properties": { "amenity": "clinic", "healthcare": "clinic", "operator": "Municipal", "operator_type": "public", "name": "Unidad Sanitaria Santo Cristo", "addr_full": "Gral Mosconi Y Avda Muñiz", "addr_postcode": "6712", "phone": "02323-488232", "ref_sisa_codigo": 50064972202833, "ref_sisa_tipologia": "ESSIDT", "wikidata": "", "wikipedia": "" }, "geometry": { "type": "Point", "coordinates": [ -59.203543, -34.557046 ] } }
]
}
