{
"type": "FeatureCollection",
"name": "024-jose_c_paz",
"features": [
{ "type": "Feature", "properties": { "amenity": "clinic", "healthcare": "clinic", "operator": "Municipal", "operator_type": "public", "name": "Area Prog. Y Operac. De Emerg. Social Y Sanit", "addr_full": "Hipolito Irigoyen  2945", "addr_postcode": "1665", "phone": "02320-440511 INT 24", "ref_sisa_codigo": 50064122201060, "ref_sisa_tipologia": "ESSIDT", "wikidata": "", "wikipedia": "" }, "geometry": { "type": "Point", "coordinates": [ -58.763799, -34.524246 ] } },
{ "type": "Feature", "properties": { "amenity": "clinic", "healthcare": "clinic", "operator": "Municipal", "operator_type": "public", "name": "Centro Asistencial Suizo Infico", "addr_full": "Balcarce 3812", "addr_postcode": "1665", "phone": "02320-437049", "ref_sisa_codigo": 50064122201100, "ref_sisa_tipologia": "ESSIDT", "wikidata": "", "wikipedia": "" }, "geometry": { "type": "Point", "coordinates": [ -58.7473002, -34.5377636 ] } },
{ "type": "Feature", "properties": { "amenity": "clinic", "healthcare": "clinic", "operator": "Municipal", "operator_type": "public", "name": "Centro Asistencial Trailer Barrio Piñeiro", "addr_full": "Pedernera Y Lacroce S\/N", "addr_postcode": "1665", "phone": "02320-431127", "ref_sisa_codigo": 50064122201101, "ref_sisa_tipologia": "ESSIDT", "wikidata": "", "wikipedia": "" }, "geometry": { "type": "Point", "coordinates": [ -58.7677145, -34.516193 ] } },
{ "type": "Feature", "properties": { "amenity": "clinic", "healthcare": "clinic", "operator": "Municipal", "operator_type": "public", "name": "Centro De Salud Rincon De Tortuguitas", "addr_full": "Santiago De Liniers 4070", "addr_postcode": "1665", "phone": "", "ref_sisa_codigo": 50064122201350, "ref_sisa_tipologia": "ESSIDT", "wikidata": "", "wikipedia": "" }, "geometry": { "type": "Point", "coordinates": [ -58.8082002, -34.4962186 ] } },
{ "type": "Feature", "properties": { "amenity": "clinic", "healthcare": "clinic", "operator": "Municipal", "operator_type": "public", "name": "Centro De Salud Santa Paula", "addr_full": "Piñero 755", "addr_postcode": "1665", "phone": "(02320) 447291", "ref_sisa_codigo": 50064122201357, "ref_sisa_tipologia": "ESSIDT", "wikidata": "", "wikipedia": "" }, "geometry": { "type": "Point", "coordinates": [ -58.7473303, -34.505949 ] } },
{ "type": "Feature", "properties": { "amenity": "clinic", "healthcare": "clinic", "operator": "Municipal", "operator_type": "public", "name": "Centro De Salud Suizo Ideal", "addr_full": "Chile Y Roque Saenz Peña", "addr_postcode": "1665", "phone": "02320-438808", "ref_sisa_codigo": 50064122201360, "ref_sisa_tipologia": "ESSIDT", "wikidata": "", "wikipedia": "" }, "geometry": { "type": "Point", "coordinates": [ -58.7405062, -34.5338185 ] } },
{ "type": "Feature", "properties": { "amenity": "clinic", "healthcare": "clinic", "operator": "Municipal", "operator_type": "public", "name": "Cic Jose C. Paz", "addr_full": "Coronel Arias Equina Sarmiento", "addr_postcode": "1665", "phone": "", "ref_sisa_codigo": 50064122201507, "ref_sisa_tipologia": "ESSIDT", "wikidata": "", "wikipedia": "" }, "geometry": { "type": "Point", "coordinates": [ -58.774327, -34.537578 ] } },
{ "type": "Feature", "properties": { "amenity": "hospital", "healthcare": "hospital", "operator": "Privado", "operator_type": "private", "name": "Clinica Jose C. Paz Sa (ex Clinica San Antonio)", "addr_full": "Santiago De Compostela 102", "addr_postcode": "1665", "phone": "(02320) 42-5745", "ref_sisa_codigo": 10064122300087, "ref_sisa_tipologia": "ESCIG", "wikidata": "", "wikipedia": "" }, "geometry": { "type": "Point", "coordinates": [ -58.750545, -34.5171333 ] } },
{ "type": "Feature", "properties": { "amenity": "clinic", "healthcare": "clinic", "operator": "Municipal", "operator_type": "public", "name": "Direccion De Primer Nivel De Atencion", "addr_full": "Chile", "addr_postcode": "1665", "phone": "02320-440800", "ref_sisa_codigo": 50064122216367, "ref_sisa_tipologia": "ESSIDT", "wikidata": "", "wikipedia": "" }, "geometry": { "type": "Point", "coordinates": [ -58.7311077, -34.5251123 ] } },
{ "type": "Feature", "properties": { "amenity": "hospital", "healthcare": "hospital", "operator": "Privado", "operator_type": "private", "name": "Hospital Privado Doctor Alberto Duhau", "addr_full": "General Lavalle 2066", "addr_postcode": "1665", "phone": "(02320) 423419", "ref_sisa_codigo": 10064122300347, "ref_sisa_tipologia": "ESCIG", "wikidata": "", "wikipedia": "" }, "geometry": { "type": "Point", "coordinates": [ -58.7527519, -34.5242936 ] } },
{ "type": "Feature", "properties": { "amenity": "hospital", "healthcare": "hospital", "operator": "Municipal", "operator_type": "public", "name": "Hospital Unidad De Diagnostico Precoz De Alta Complejidad Ruben Caporaletti", "addr_full": "Avenida Croacia 2312 - Barrio Vucetich", "addr_postcode": "1665", "phone": "02320-353102 int. 217\/ 213\/ 212", "ref_sisa_codigo": 10064122217889, "ref_sisa_tipologia": "ESCIG", "wikidata": "", "wikipedia": "" }, "geometry": { "type": "Point", "coordinates": [ -58.7964714, -34.5125155 ] } },
{ "type": "Feature", "properties": { "amenity": "hospital", "healthcare": "hospital", "operator": "Provincial", "operator_type": "public", "name": "Hospital Zonal General De Agudos Gobernador Domingo Mercante", "addr_full": "Coronel Arias 880", "addr_postcode": "1665", "phone": "02320-43193", "ref_sisa_codigo": 10064122100400, "ref_sisa_tipologia": "ESCIG", "wikidata": "", "wikipedia": "" }, "geometry": { "type": "Point", "coordinates": [ -58.7400942, -34.5174801 ] } },
{ "type": "Feature", "properties": { "amenity": "clinic", "healthcare": "clinic", "operator": "Municipal", "operator_type": "public", "name": "Trailler I", "addr_full": "Avenida Hipólito Irigoyen 2945 Entre Casacuberta Y Martel", "addr_postcode": "1665", "phone": "(02320) 58-9583", "ref_sisa_codigo": 50064122201991, "ref_sisa_tipologia": "ESSIDT", "wikidata": "", "wikipedia": "" }, "geometry": { "type": "Point", "coordinates": [ -58.764948, -34.525012 ] } },
{ "type": "Feature", "properties": { "amenity": "clinic", "healthcare": "clinic", "operator": "Municipal", "operator_type": "public", "name": "Trailler Ii", "addr_full": "Av. Hipolito Irigoyen 2945 E\/ Casacuberta Y Martel", "addr_postcode": "1665", "phone": "02320-436978", "ref_sisa_codigo": 50064122201992, "ref_sisa_tipologia": "ESSIDT", "wikidata": "", "wikipedia": "" }, "geometry": { "type": "Point", "coordinates": [ -58.7647319, -34.5249267 ] } },
{ "type": "Feature", "properties": { "amenity": "clinic", "healthcare": "clinic", "operator": "Municipal", "operator_type": "public", "name": "Unidad Sanitaria 9 De Julio De Jose C. Paz", "addr_full": "Maestro Angel D' Elia 4265", "addr_postcode": "1665", "phone": "(02320) 43-6930", "ref_sisa_codigo": 50064122202941, "ref_sisa_tipologia": "ESSIDT", "wikidata": "", "wikipedia": "" }, "geometry": { "type": "Point", "coordinates": [ -58.737506, -34.52082 ] } },
{ "type": "Feature", "properties": { "amenity": "clinic", "healthcare": "clinic", "operator": "Municipal", "operator_type": "public", "name": "Unidad Sanitaria Alberdi", "addr_full": "Montes De Oca Y Florida", "addr_postcode": "1665", "phone": "(02320) 46-5917", "ref_sisa_codigo": 50064122202045, "ref_sisa_tipologia": "ESSIDT", "wikidata": "", "wikipedia": "" }, "geometry": { "type": "Point", "coordinates": [ -58.761195, -34.506162 ] } },
{ "type": "Feature", "properties": { "amenity": "clinic", "healthcare": "clinic", "operator": "Municipal", "operator_type": "public", "name": "Unidad Sanitaria El Ombu", "addr_full": "General Arenales 362", "addr_postcode": "1665", "phone": "(02320) 43-6966", "ref_sisa_codigo": 50064122202267, "ref_sisa_tipologia": "ESSIDT", "wikidata": "", "wikipedia": "" }, "geometry": { "type": "Point", "coordinates": [ -58.738064, -34.509221 ] } },
{ "type": "Feature", "properties": { "amenity": "clinic", "healthcare": "clinic", "operator": "Municipal", "operator_type": "public", "name": "Unidad Sanitaria Frino Sur", "addr_full": "Cesáreo B. De Quirós 1956 Esquina Ugarteche", "addr_postcode": "1665", "phone": "(02320) 46-5723", "ref_sisa_codigo": 50064122202302, "ref_sisa_tipologia": "ESSIDT", "wikidata": "", "wikipedia": "" }, "geometry": { "type": "Point", "coordinates": [ -58.771838, -34.506675 ] } },
{ "type": "Feature", "properties": { "amenity": "clinic", "healthcare": "clinic", "operator": "Municipal", "operator_type": "public", "name": "Unidad Sanitaria La Paz", "addr_full": "Oribe Y Castañeda", "addr_postcode": "1665", "phone": "(02320) 42-4672", "ref_sisa_codigo": 50064122202374, "ref_sisa_tipologia": "ESSIDT", "wikidata": "", "wikipedia": "" }, "geometry": { "type": "Point", "coordinates": [ -58.772439, -34.522146 ] } },
{ "type": "Feature", "properties": { "amenity": "clinic", "healthcare": "clinic", "operator": "Municipal", "operator_type": "public", "name": "Unidad Sanitaria Las Acacias", "addr_full": "General Pinto Y Eva Duarte De Perón S\/Nº", "addr_postcode": "1665", "phone": "(02320) 46-3432", "ref_sisa_codigo": 50064122202391, "ref_sisa_tipologia": "ESSIDT", "wikidata": "", "wikipedia": "" }, "geometry": { "type": "Point", "coordinates": [ -58.760036, -34.540654 ] } },
{ "type": "Feature", "properties": { "amenity": "clinic", "healthcare": "clinic", "operator": "Municipal", "operator_type": "public", "name": "Unidad Sanitaria Las Heras De Jose C. Paz", "addr_full": "Coronel Arias Y Avenida Presidente Sarmiento", "addr_postcode": "1665", "phone": "(02320) 46-2604", "ref_sisa_codigo": 50064122202399, "ref_sisa_tipologia": "ESSIDT", "wikidata": "", "wikipedia": "" }, "geometry": { "type": "Point", "coordinates": [ -58.7740502, -34.537917 ] } },
{ "type": "Feature", "properties": { "amenity": "clinic", "healthcare": "clinic", "operator": "Municipal", "operator_type": "public", "name": "Unidad Sanitaria Mirador Altube", "addr_full": "Ruta Provincial 24 (Ex 197) Y Tres Marías", "addr_postcode": "1665", "phone": "(02320) 43-9580", "ref_sisa_codigo": 50064122202450, "ref_sisa_tipologia": "ESSIDT", "wikidata": "", "wikipedia": "" }, "geometry": { "type": "Point", "coordinates": [ -58.790807, -34.535581 ] } },
{ "type": "Feature", "properties": { "amenity": "clinic", "healthcare": "clinic", "operator": "Municipal", "operator_type": "public", "name": "Unidad Sanitaria Piñeyro Ii", "addr_full": "11 De Septiembre Y Carmen Puch", "addr_postcode": "1665", "phone": "(02320) 42-1983", "ref_sisa_codigo": 50064122202724, "ref_sisa_tipologia": "ESSIDT", "wikidata": "", "wikipedia": "" }, "geometry": { "type": "Point", "coordinates": [ -58.78306, -34.513111 ] } },
{ "type": "Feature", "properties": { "amenity": "clinic", "healthcare": "clinic", "operator": "Municipal", "operator_type": "public", "name": "Unidad Sanitaria Primavera", "addr_full": "Ayacucho Y Santa Marta", "addr_postcode": "1665", "phone": "(02320) 45-1999", "ref_sisa_codigo": 50064122202735, "ref_sisa_tipologia": "ESSIDT", "wikidata": "", "wikipedia": "" }, "geometry": { "type": "Point", "coordinates": [ -58.794326, -34.5295 ] } },
{ "type": "Feature", "properties": { "amenity": "clinic", "healthcare": "clinic", "operator": "Municipal", "operator_type": "public", "name": "Unidad Sanitaria Sagrada Familia", "addr_full": "Uspallata Entre Londres Y Roma", "addr_postcode": "1665", "phone": "(02320) 44-5857", "ref_sisa_codigo": 50064122202761, "ref_sisa_tipologia": "ESSIDT", "wikidata": "", "wikipedia": "" }, "geometry": { "type": "Point", "coordinates": [ -58.786665, -34.509823 ] } },
{ "type": "Feature", "properties": { "amenity": "clinic", "healthcare": "clinic", "operator": "Municipal", "operator_type": "public", "name": "Unidad Sanitaria San Atilio", "addr_full": "Guillermo Miller Entre San Blas Y Managua", "addr_postcode": "1665", "phone": "(02320) 45-2072", "ref_sisa_codigo": 50064122202773, "ref_sisa_tipologia": "ESSIDT", "wikidata": "", "wikipedia": "" }, "geometry": { "type": "Point", "coordinates": [ -58.815998, -34.510477 ] } },
{ "type": "Feature", "properties": { "amenity": "clinic", "healthcare": "clinic", "operator": "Municipal", "operator_type": "public", "name": "Unidad Sanitaria San Roque De Jose C. Paz", "addr_full": "Pavón 3545", "addr_postcode": "1665", "phone": "(011) 4451-4327", "ref_sisa_codigo": 50064122202804, "ref_sisa_tipologia": "ESSIDT", "wikidata": "", "wikipedia": "" }, "geometry": { "type": "Point", "coordinates": [ -58.722853, -34.5191122 ] } },
{ "type": "Feature", "properties": { "amenity": "clinic", "healthcare": "clinic", "operator": "Municipal", "operator_type": "public", "name": "Unidad Sanitaria Sol Y Verde", "addr_full": "Dinamarca Esquina Finlay", "addr_postcode": "1665", "phone": "(02320) 49-1561", "ref_sisa_codigo": 50064122202843, "ref_sisa_tipologia": "ESSIDT", "wikidata": "", "wikipedia": "" }, "geometry": { "type": "Point", "coordinates": [ -58.798617, -34.502237 ] } },
{ "type": "Feature", "properties": { "amenity": "clinic", "healthcare": "clinic", "operator": "Municipal", "operator_type": "public", "name": "Unidad Sanitaria Urquiza", "addr_full": "Caracas S\/N Entre Bolivar Y Canal De Panamá", "addr_postcode": "1665", "phone": "(02320) 43-7666", "ref_sisa_codigo": 50064122202855, "ref_sisa_tipologia": "ESSIDT", "wikidata": "", "wikipedia": "" }, "geometry": { "type": "Point", "coordinates": [ -58.81149, -34.505431 ] } },
{ "type": "Feature", "properties": { "amenity": "clinic", "healthcare": "clinic", "operator": "Municipal", "operator_type": "public", "name": "Unidad Sanitaria Vucetich", "addr_full": "Guanacaste Y Crucero La Argentina 442", "addr_postcode": "1665", "phone": "(02320) 43-7098", "ref_sisa_codigo": 50064122202912, "ref_sisa_tipologia": "ESSIDT", "wikidata": "", "wikipedia": "" }, "geometry": { "type": "Point", "coordinates": [ -58.799797, -34.51152 ] } },
{ "type": "Feature", "properties": { "amenity": "clinic", "healthcare": "clinic", "operator": "Municipal", "operator_type": "public", "name": "Unidad Sanitaria Zona Norte", "addr_full": "Malnati 3759", "addr_postcode": "1665", "phone": "(02320) 425432", "ref_sisa_codigo": 50064122202916, "ref_sisa_tipologia": "ESSIDT", "wikidata": "", "wikipedia": "" }, "geometry": { "type": "Point", "coordinates": [ -58.7275433, -34.5209114 ] } }
]
}
