{
"type": "FeatureCollection",
"name": "025-san_fernando",
"features": [
{ "type": "Feature", "properties": { "amenity": "hospital", "healthcare": "hospital", "operator": "Privado", "operator_type": "private", "name": "C M Q R Centro Medico Quirurgico Resistencia", "addr_full": "Avenida 9 De Julio 1698", "addr_postcode": "3500", "phone": "0362 4413309", "ref_sisa_codigo": 10221402326935, "ref_sisa_tipologia": "ESCIG", "wikidata": "", "wikipedia": "" }, "geometry": { "type": "Point", "coordinates": [ -58.9709682, -27.4648409 ] } },
{ "type": "Feature", "properties": { "amenity": "clinic", "healthcare": "clinic", "operator": "Provincial", "operator_type": "public", "name": "Casa De  Medio Camino La Casita", "addr_full": "Ameghino Y Calle 12", "addr_postcode": "3500", "phone": "0362 445254", "ref_sisa_codigo": 52221402127149, "ref_sisa_tipologia": "ESSIT", "wikidata": "", "wikipedia": "" }, "geometry": { "type": "Point", "coordinates": [ -58.9716911, -27.4706202 ] } },
{ "type": "Feature", "properties": { "amenity": "clinic", "healthcare": "clinic", "operator": "Provincial", "operator_type": "public", "name": "Centro Comunitario De Ayuda Al Niño Desnutrido Cruz Roja", "addr_full": "Mz 16- Pc 24- Barrio Juan Bautista Alberdi", "addr_postcode": "3500", "phone": "03722-478472", "ref_sisa_codigo": 52221402126653, "ref_sisa_tipologia": "ESSIT", "wikidata": "", "wikipedia": "" }, "geometry": { "type": "Point", "coordinates": [ -58.986454, -27.476598 ] } },
{ "type": "Feature", "properties": { "amenity": "clinic", "healthcare": "clinic", "operator": "Provincial", "operator_type": "public", "name": "Centro De Aplicaciones Bionucleares - C.A.B.I.N.", "addr_full": "Avenida 9 De Julio 1100", "addr_postcode": "3500", "phone": "0362 4425409", "ref_sisa_codigo": 52221402127277, "ref_sisa_tipologia": "ESSIT", "wikidata": "", "wikipedia": "" }, "geometry": { "type": "Point", "coordinates": [ -58.9766704, -27.4599445 ] } },
{ "type": "Feature", "properties": { "amenity": "clinic", "healthcare": "clinic", "operator": "Provincial", "operator_type": "public", "name": "Centro De Dia Infanto-Juvenil Juan B. Alberdi", "addr_full": "Mz 16- Pc 24- Barrio Juan Bautista Alberdi", "addr_postcode": "3500", "phone": "362 4478472", "ref_sisa_codigo": 52221402127451, "ref_sisa_tipologia": "ESSIT", "wikidata": "", "wikipedia": "" }, "geometry": { "type": "Point", "coordinates": [ -58.986417, -27.480611 ] } },
{ "type": "Feature", "properties": { "amenity": "clinic", "healthcare": "clinic", "operator": "Provincial", "operator_type": "public", "name": "Centro De La Medida De Seguridad Curativa", "addr_full": "San Lorenzo 440", "addr_postcode": "3500", "phone": "0362 4420222", "ref_sisa_codigo": 50221402127148, "ref_sisa_tipologia": "ESSIDT", "wikidata": "", "wikipedia": "" }, "geometry": { "type": "Point", "coordinates": [ -58.9840484, -27.4599187 ] } },
{ "type": "Feature", "properties": { "amenity": "clinic", "healthcare": "clinic", "operator": "Provincial", "operator_type": "public", "name": "Centro De Referencia Doctor Pedro Biolchi", "addr_full": "Avenida Laprida 5602", "addr_postcode": "3503", "phone": "03722-480030", "ref_sisa_codigo": 50221402126123, "ref_sisa_tipologia": "ESSIDT", "wikidata": "", "wikipedia": "" }, "geometry": { "type": "Point", "coordinates": [ -58.9300051, -27.4883868 ] } },
{ "type": "Feature", "properties": { "amenity": "clinic", "healthcare": "clinic", "operator": "Provincial", "operator_type": "public", "name": "Centro De Salud Barrio 500 Viv Doctor Ramon Carrillo", "addr_full": "Tatane Y Marmol", "addr_postcode": "3503", "phone": "03722-480584", "ref_sisa_codigo": 50221402126166, "ref_sisa_tipologia": "ESSIDT", "wikidata": "", "wikipedia": "" }, "geometry": { "type": "Point", "coordinates": [ -58.9515209, -27.4935779 ] } },
{ "type": "Feature", "properties": { "amenity": "clinic", "healthcare": "clinic", "operator": "Provincial", "operator_type": "public", "name": "Centro De Salud Barrio Ciudad De Los Milagros Barranqueras", "addr_full": "Fortin Tapenaga Y Calle 7", "addr_postcode": "3500", "phone": "", "ref_sisa_codigo": 50221402126128, "ref_sisa_tipologia": "ESSIDT", "wikidata": "", "wikipedia": "" }, "geometry": { "type": "Point", "coordinates": [ -58.9612198, -27.5099843 ] } },
{ "type": "Feature", "properties": { "amenity": "clinic", "healthcare": "clinic", "operator": "Provincial", "operator_type": "public", "name": "Centro De Salud Barrio España", "addr_full": "Calle Fray Bertaca - Barrio España", "addr_postcode": "3500", "phone": "(03722)- 46-8561", "ref_sisa_codigo": 50221402126140, "ref_sisa_tipologia": "ESSIDT", "wikidata": "", "wikipedia": "" }, "geometry": { "type": "Point", "coordinates": [ -59.0152938, -27.4446269 ] } },
{ "type": "Feature", "properties": { "amenity": "clinic", "healthcare": "clinic", "operator": "Provincial", "operator_type": "public", "name": "Centro De Salud Barrio Guiraldes", "addr_full": "Soldado Aguilera  Barrio Guiraldes", "addr_postcode": "3500", "phone": "(0362)-447-8404", "ref_sisa_codigo": 50221402126142, "ref_sisa_tipologia": "ESSIDT", "wikidata": "", "wikipedia": "" }, "geometry": { "type": "Point", "coordinates": [ -58.9896684, -27.482417 ] } },
{ "type": "Feature", "properties": { "amenity": "clinic", "healthcare": "clinic", "operator": "Provincial", "operator_type": "public", "name": "Centro De Salud Barrio Las Malvinas  4 De Junio", "addr_full": "Lapacho 201", "addr_postcode": "3503", "phone": "03722-480091", "ref_sisa_codigo": 50221402126147, "ref_sisa_tipologia": "ESSIDT", "wikidata": "", "wikipedia": "" }, "geometry": { "type": "Point", "coordinates": [ -58.9536705, -27.4921703 ] } },
{ "type": "Feature", "properties": { "amenity": "clinic", "healthcare": "clinic", "operator": "Provincial", "operator_type": "public", "name": "Centro De Salud Barrio Mapic", "addr_full": "Lote 126 - Barrio Mapic", "addr_postcode": "3500", "phone": "", "ref_sisa_codigo": 50221402126149, "ref_sisa_tipologia": "ESSIDT", "wikidata": "", "wikipedia": "" }, "geometry": { "type": "Point", "coordinates": [ -58.9861107, -27.4070521 ] } },
{ "type": "Feature", "properties": { "amenity": "clinic", "healthcare": "clinic", "operator": "Provincial", "operator_type": "public", "name": "Centro De Salud Barrio Santa Catalina", "addr_full": "Pueyrredón 1300", "addr_postcode": "3500", "phone": "(03722)- 45-3496", "ref_sisa_codigo": 50221402126159, "ref_sisa_tipologia": "ESSIDT", "wikidata": "", "wikipedia": "" }, "geometry": { "type": "Point", "coordinates": [ -58.9761972, -27.4393359 ] } },
{ "type": "Feature", "properties": { "amenity": "clinic", "healthcare": "clinic", "operator": "Provincial", "operator_type": "public", "name": "Centro De Salud Barrio Santa Ines", "addr_full": "Mz 86 C 683 Bc Santa Inés", "addr_postcode": "3500", "phone": "(03722) 424394", "ref_sisa_codigo": 50221402126135, "ref_sisa_tipologia": "ESSIDT", "wikidata": "", "wikipedia": "" }, "geometry": { "type": "Point", "coordinates": [ -59.0202713, -27.4577876 ] } },
{ "type": "Feature", "properties": { "amenity": "clinic", "healthcare": "clinic", "operator": "Provincial", "operator_type": "public", "name": "Centro De Salud Barrio Toba", "addr_full": "Pasaje  Cruz Roja 111", "addr_postcode": "3500", "phone": "(03722) 468562", "ref_sisa_codigo": 50221402126163, "ref_sisa_tipologia": "ESSIDT", "wikidata": "", "wikipedia": "" }, "geometry": { "type": "Point", "coordinates": [ -59.0069246, -27.4261188 ] } },
{ "type": "Feature", "properties": { "amenity": "clinic", "healthcare": "clinic", "operator": "Provincial", "operator_type": "public", "name": "Centro De Salud Ciudad De Los Milagros", "addr_full": "Barrio Ciudad De Los Milagros", "addr_postcode": "3503", "phone": "02722-488131", "ref_sisa_codigo": 50221402126184, "ref_sisa_tipologia": "ESSIDT", "wikidata": "", "wikipedia": "" }, "geometry": { "type": "Point", "coordinates": [ -58.9485168, -27.5185861 ] } },
{ "type": "Feature", "properties": { "amenity": "clinic", "healthcare": "clinic", "operator": "Provincial", "operator_type": "public", "name": "Centro De Salud Colonia Tacuari", "addr_full": "Zona Rural", "addr_postcode": "3514", "phone": "", "ref_sisa_codigo": 50221402126199, "ref_sisa_tipologia": "ESSIDT", "wikidata": "", "wikipedia": "" }, "geometry": { "type": "Point", "coordinates": [ -58.9403629, -27.5143614 ] } },
{ "type": "Feature", "properties": { "amenity": "clinic", "healthcare": "clinic", "operator": "Provincial", "operator_type": "public", "name": "Centro De Salud Doctora Grierson", "addr_full": "Barrio Mujeres Argentinas", "addr_postcode": "3500", "phone": "(03722) 453492", "ref_sisa_codigo": 50221402126141, "ref_sisa_tipologia": "ESSIDT", "wikidata": "", "wikipedia": "" }, "geometry": { "type": "Point", "coordinates": [ -58.94901, -27.46324 ] } },
{ "type": "Feature", "properties": { "amenity": "clinic", "healthcare": "clinic", "operator": "Provincial", "operator_type": "public", "name": "Centro De Salud Doctor Laureano R. Maradona (Lote 202)", "addr_full": "Lagraña 1200", "addr_postcode": "3500", "phone": "03722-452549", "ref_sisa_codigo": 50221402126208, "ref_sisa_tipologia": "ESSIDT", "wikidata": "", "wikipedia": "" }, "geometry": { "type": "Point", "coordinates": [ -58.9603615, -27.4534463 ] } },
{ "type": "Feature", "properties": { "amenity": "clinic", "healthcare": "clinic", "operator": "Provincial", "operator_type": "public", "name": "Centro De Salud El Paraisal", "addr_full": "Zona Rural-El Paraisal", "addr_postcode": "3536", "phone": "", "ref_sisa_codigo": 50221332126237, "ref_sisa_tipologia": "ESSIDT", "wikidata": "", "wikipedia": "" }, "geometry": { "type": "Point", "coordinates": [ -59.0140057, -27.5306505 ] } },
{ "type": "Feature", "properties": { "amenity": "clinic", "healthcare": "clinic", "operator": "Provincial", "operator_type": "public", "name": "Centro De Salud El Salado", "addr_full": "Zona Rural-El Salado", "addr_postcode": "3505", "phone": "", "ref_sisa_codigo": 50221402126244, "ref_sisa_tipologia": "ESSIDT", "wikidata": "", "wikipedia": "" }, "geometry": { "type": "Point", "coordinates": [ -59.3073397, -27.5600977 ] } },
{ "type": "Feature", "properties": { "amenity": "clinic", "healthcare": "clinic", "operator": "Provincial", "operator_type": "public", "name": "Centro De Salud El Tacuruzal", "addr_full": "Zona Rural-El Tacuruzal", "addr_postcode": "3530", "phone": "", "ref_sisa_codigo": 50221332126247, "ref_sisa_tipologia": "ESSIDT", "wikidata": "", "wikipedia": "" }, "geometry": { "type": "Point", "coordinates": [ -59.0144348, -27.5323249 ] } },
{ "type": "Feature", "properties": { "amenity": "clinic", "healthcare": "clinic", "operator": "Provincial", "operator_type": "public", "name": "Centro De Salud Enrique Finochietto", "addr_full": "Irigoyen Y 20 De Junio", "addr_postcode": "3503", "phone": "03722-488605", "ref_sisa_codigo": 50221402126253, "ref_sisa_tipologia": "ESSIDT", "wikidata": "", "wikipedia": "" }, "geometry": { "type": "Point", "coordinates": [ -58.9390755, -27.5132957 ] } },
{ "type": "Feature", "properties": { "amenity": "clinic", "healthcare": "clinic", "operator": "Provincial", "operator_type": "public", "name": "Centro De Salud General Obligado", "addr_full": "Cervantes Y Calle 15", "addr_postcode": "3500", "phone": "(03722)- 47-8407", "ref_sisa_codigo": 50221402126265, "ref_sisa_tipologia": "ESSIDT", "wikidata": "", "wikipedia": "" }, "geometry": { "type": "Point", "coordinates": [ -58.9716911, -27.47557 ] } },
{ "type": "Feature", "properties": { "amenity": "clinic", "healthcare": "clinic", "operator": "Provincial", "operator_type": "public", "name": "Centro De Salud Inmaculada Concepcion - Villa Tte. Saavedra", "addr_full": "Tránsito Cocomarola (Calle 20) Y Rodríguez Peña (Al Lado De La Vía)", "addr_postcode": "3500", "phone": "(03722)- 45-3498", "ref_sisa_codigo": 50221402126272, "ref_sisa_tipologia": "ESSIDT", "wikidata": "", "wikipedia": "" }, "geometry": { "type": "Point", "coordinates": [ -58.9668632, -27.4775308 ] } },
{ "type": "Feature", "properties": { "amenity": "clinic", "healthcare": "clinic", "operator": "Provincial", "operator_type": "public", "name": "Centro De Salud Jose F Cusolito La Toma", "addr_full": "Avenida Rio Negro Esq. Av Sebastian Gaboto Barrio La Toma", "addr_postcode": "3503", "phone": "03722 488604", "ref_sisa_codigo": 50221402126276, "ref_sisa_tipologia": "ESSIDT", "wikidata": "", "wikipedia": "" }, "geometry": { "type": "Point", "coordinates": [ -58.9153862, -27.4756081 ] } },
{ "type": "Feature", "properties": { "amenity": "clinic", "healthcare": "clinic", "operator": "Provincial", "operator_type": "public", "name": "Centro De Salud Juan De Garay El Tala", "addr_full": "Jujuy 2775", "addr_postcode": "3500", "phone": "(03722)- 46-8564", "ref_sisa_codigo": 50221402126278, "ref_sisa_tipologia": "ESSIDT", "wikidata": "", "wikipedia": "" }, "geometry": { "type": "Point", "coordinates": [ -59.0167576, -27.4339602 ] } },
{ "type": "Feature", "properties": { "amenity": "clinic", "healthcare": "clinic", "operator": "Provincial", "operator_type": "public", "name": "Centro De Salud Km 34", "addr_full": "Zona Rural-Km 34", "addr_postcode": "3503", "phone": "", "ref_sisa_codigo": 50221402126282, "ref_sisa_tipologia": "ESSIDT", "wikidata": "", "wikipedia": "" }, "geometry": { "type": "Point", "coordinates": [ -59.289093, -27.8550133 ] } },
{ "type": "Feature", "properties": { "amenity": "clinic", "healthcare": "clinic", "operator": "Provincial", "operator_type": "public", "name": "Centro De Salud Las Mercedes", "addr_full": "Zona Rural", "addr_postcode": "3503", "phone": "", "ref_sisa_codigo": 50221402126317, "ref_sisa_tipologia": "ESSIDT", "wikidata": "", "wikipedia": "" }, "geometry": { "type": "Point", "coordinates": [ -59.2894793, -27.8547666 ] } },
{ "type": "Feature", "properties": { "amenity": "clinic", "healthcare": "clinic", "operator": "Provincial", "operator_type": "public", "name": "Centro De Salud Lote 203", "addr_full": "Sargento Cabral 1800", "addr_postcode": "3500", "phone": "(03722)- 45-3494", "ref_sisa_codigo": 50221402126349, "ref_sisa_tipologia": "ESSIDT", "wikidata": "", "wikipedia": "" }, "geometry": { "type": "Point", "coordinates": [ -58.9661576, -27.4549185 ] } },
{ "type": "Feature", "properties": { "amenity": "clinic", "healthcare": "clinic", "operator": "Provincial", "operator_type": "public", "name": "Centro De Salud Mental La Lomita", "addr_full": "Gabardini Y Fray Mocho", "addr_postcode": "3503", "phone": "03722-488606", "ref_sisa_codigo": 50221402126684, "ref_sisa_tipologia": "ESSIDT", "wikidata": "", "wikipedia": "" }, "geometry": { "type": "Point", "coordinates": [ -58.928329, -27.47833 ] } },
{ "type": "Feature", "properties": { "amenity": "clinic", "healthcare": "clinic", "operator": "Provincial", "operator_type": "public", "name": "Centro De Salud Nestor C. Kirchner", "addr_full": "Fotheringham 4200", "addr_postcode": "3500", "phone": "0362 4979085", "ref_sisa_codigo": 50221402127409, "ref_sisa_tipologia": "ESSIDT", "wikidata": "", "wikipedia": "" }, "geometry": { "type": "Point", "coordinates": [ -59.0248041, -27.4553366 ] } },
{ "type": "Feature", "properties": { "amenity": "clinic", "healthcare": "clinic", "operator": "Provincial", "operator_type": "public", "name": "Centro De Salud Pampa Esperanza", "addr_full": "Zona Rural-Pampa Esperanza", "addr_postcode": "3536", "phone": "", "ref_sisa_codigo": 50221332126386, "ref_sisa_tipologia": "ESSIDT", "wikidata": "", "wikipedia": "" }, "geometry": { "type": "Point", "coordinates": [ -59.0144348, -27.5324771 ] } },
{ "type": "Feature", "properties": { "amenity": "clinic", "healthcare": "clinic", "operator": "Provincial", "operator_type": "public", "name": "Centro De Salud Paralelo 28", "addr_full": "Zona Rural-Paralelo 28", "addr_postcode": "3503", "phone": "", "ref_sisa_codigo": 50221402126406, "ref_sisa_tipologia": "ESSIDT", "wikidata": "", "wikipedia": "" }, "geometry": { "type": "Point", "coordinates": [ -59.2806, -27.886934 ] } },
{ "type": "Feature", "properties": { "amenity": "clinic", "healthcare": "clinic", "operator": "Provincial", "operator_type": "public", "name": "Centro De Salud Playa Ford", "addr_full": "Zona Rural-Playa Ford", "addr_postcode": "3503", "phone": "", "ref_sisa_codigo": 50221402126412, "ref_sisa_tipologia": "ESSIDT", "wikidata": "", "wikipedia": "" }, "geometry": { "type": "Point", "coordinates": [ -59.29871, -27.95377 ] } },
{ "type": "Feature", "properties": { "amenity": "clinic", "healthcare": "clinic", "operator": "Provincial", "operator_type": "public", "name": "Centro De Salud Rio Araza Puerto Vicentini", "addr_full": "Avenida Alvear 4000", "addr_postcode": "3514", "phone": "03722 468557", "ref_sisa_codigo": 50221402126432, "ref_sisa_tipologia": "ESSIDT", "wikidata": "", "wikipedia": "" }, "geometry": { "type": "Point", "coordinates": [ -59.0307573, -27.4245794 ] } },
{ "type": "Feature", "properties": { "amenity": "clinic", "healthcare": "clinic", "operator": "Provincial", "operator_type": "public", "name": "Centro De Salud San Fernando", "addr_full": "Fortín Aguilar Y Pasaje Bibiano Meza", "addr_postcode": "3500", "phone": "03722-478420", "ref_sisa_codigo": 50221402126651, "ref_sisa_tipologia": "ESSIDT", "wikidata": "", "wikipedia": "" }, "geometry": { "type": "Point", "coordinates": [ -58.9790726, -27.490875 ] } },
{ "type": "Feature", "properties": { "amenity": "clinic", "healthcare": "clinic", "operator": "Provincial", "operator_type": "public", "name": "Centro De Salud Santa Rita", "addr_full": "Ezequiel 2051 - Mz 52 - Barrio 100 Viviendas", "addr_postcode": "3500", "phone": "CENTREX 67373", "ref_sisa_codigo": 50221402126450, "ref_sisa_tipologia": "ESSIDT", "wikidata": "", "wikipedia": "" }, "geometry": { "type": "Point", "coordinates": [ -59.024069, -27.450248 ] } },
{ "type": "Feature", "properties": { "amenity": "clinic", "healthcare": "clinic", "operator": "Provincial", "operator_type": "public", "name": "Centro De Salud Villa Alvear", "addr_full": "Jujuy 1046", "addr_postcode": "3500", "phone": "(03722)- 42-4920", "ref_sisa_codigo": 50221402126469, "ref_sisa_tipologia": "ESSIDT", "wikidata": "", "wikipedia": "" }, "geometry": { "type": "Point", "coordinates": [ -59.000719, -27.447705 ] } },
{ "type": "Feature", "properties": { "amenity": "clinic", "healthcare": "clinic", "operator": "Provincial", "operator_type": "public", "name": "Centro De Salud Villa Barberan", "addr_full": "Lestani Y Calle 2 - Barrio Barberan", "addr_postcode": "3500", "phone": "(03722)- 46-8566 Int.68566", "ref_sisa_codigo": 50221402126470, "ref_sisa_tipologia": "ESSIDT", "wikidata": "", "wikipedia": "" }, "geometry": { "type": "Point", "coordinates": [ -59.0347767, -27.4529893 ] } },
{ "type": "Feature", "properties": { "amenity": "clinic", "healthcare": "clinic", "operator": "Provincial", "operator_type": "public", "name": "Centro De Salud Villa Cristo Rey", "addr_full": "Rotonda Ruta 11 - Km 1008 - Barrio Villa Cristo Rey", "addr_postcode": "3500", "phone": "03722 - 468563 int. 68563", "ref_sisa_codigo": 50221402126472, "ref_sisa_tipologia": "ESSIDT", "wikidata": "", "wikipedia": "" }, "geometry": { "type": "Point", "coordinates": [ -58.9984703, -27.4101761 ] } },
{ "type": "Feature", "properties": { "amenity": "clinic", "healthcare": "clinic", "operator": "Provincial", "operator_type": "public", "name": "Centro De Salud Villa Don Alberto", "addr_full": "Brasilia 55", "addr_postcode": "3400", "phone": "(03722)- 45-3501 int 53501", "ref_sisa_codigo": 50221402126473, "ref_sisa_tipologia": "ESSIDT", "wikidata": "", "wikipedia": "" }, "geometry": { "type": "Point", "coordinates": [ -59.0101702, -27.4714458 ] } },
{ "type": "Feature", "properties": { "amenity": "clinic", "healthcare": "clinic", "operator": "Provincial", "operator_type": "public", "name": "Centro De Salud Villa Don Andres", "addr_full": "Julio Florencio Acosta 3300 Y Haiti", "addr_postcode": "3500", "phone": "0362 4765014", "ref_sisa_codigo": 50221402126474, "ref_sisa_tipologia": "ESSIDT", "wikidata": "", "wikipedia": "" }, "geometry": { "type": "Point", "coordinates": [ -58.9969254, -27.4901517 ] } },
{ "type": "Feature", "properties": { "amenity": "clinic", "healthcare": "clinic", "operator": "Provincial", "operator_type": "public", "name": "Centro De Salud Villa Elba", "addr_full": "Juan Domingo Perón 3300", "addr_postcode": "3514", "phone": "(03722) 468556", "ref_sisa_codigo": 50221402126475, "ref_sisa_tipologia": "ESSIDT", "wikidata": "", "wikipedia": "" }, "geometry": { "type": "Point", "coordinates": [ -59.0086655, -27.4344072 ] } },
{ "type": "Feature", "properties": { "amenity": "clinic", "healthcare": "clinic", "operator": "Provincial", "operator_type": "public", "name": "Centro De Salud Villa Forestacion", "addr_full": "Avenida 9 De Julio 5400 Barrio Ucal", "addr_postcode": "3503", "phone": "(03722) 410111", "ref_sisa_codigo": 50221402126476, "ref_sisa_tipologia": "ESSIDT", "wikidata": "", "wikipedia": "" }, "geometry": { "type": "Point", "coordinates": [ -58.939456, -27.493047 ] } },
{ "type": "Feature", "properties": { "amenity": "clinic", "healthcare": "clinic", "operator": "Provincial", "operator_type": "public", "name": "Centro De Salud Villa General Belgrano", "addr_full": "Avenida Marconi 420 ( Donovan Y Belgrano)", "addr_postcode": "3500", "phone": "(03722) 453490", "ref_sisa_codigo": 50221402126477, "ref_sisa_tipologia": "ESSIDT", "wikidata": "", "wikipedia": "" }, "geometry": { "type": "Point", "coordinates": [ -59.0051651, -27.4601486 ] } },
{ "type": "Feature", "properties": { "amenity": "clinic", "healthcare": "clinic", "operator": "Provincial", "operator_type": "public", "name": "Centro De Salud Villa Ghio Doctor Alvarez Lotero", "addr_full": "Pasaje Rivadavia Y Calle 18", "addr_postcode": "3500", "phone": "(3722) 468558", "ref_sisa_codigo": 50221402126478, "ref_sisa_tipologia": "ESSIDT", "wikidata": "", "wikipedia": "" }, "geometry": { "type": "Point", "coordinates": [ -59.0078259, -27.427052 ] } },
{ "type": "Feature", "properties": { "amenity": "clinic", "healthcare": "clinic", "operator": "Provincial", "operator_type": "public", "name": "Centro De Salud Villa Hortensia", "addr_full": "Avenida Pasteur 4560", "addr_postcode": "3503", "phone": "03722 488612", "ref_sisa_codigo": 50221402126479, "ref_sisa_tipologia": "ESSIDT", "wikidata": "", "wikipedia": "" }, "geometry": { "type": "Point", "coordinates": [ -58.9303464, -27.4739621 ] } },
{ "type": "Feature", "properties": { "amenity": "clinic", "healthcare": "clinic", "operator": "Provincial", "operator_type": "public", "name": "Centro De Salud Villa Los Lirios", "addr_full": "Ayacucho Y J. Alsina", "addr_postcode": "3500", "phone": "(03722)- 45-3504 int 53504", "ref_sisa_codigo": 50221402126481, "ref_sisa_tipologia": "ESSIDT", "wikidata": "", "wikipedia": "" }, "geometry": { "type": "Point", "coordinates": [ -58.9658761, -27.4633092 ] } },
{ "type": "Feature", "properties": { "amenity": "clinic", "healthcare": "clinic", "operator": "Provincial", "operator_type": "public", "name": "Centro De Salud Villa Luzuriaga Dra Micucci", "addr_full": "Roger Balet Y Dodero", "addr_postcode": "3500", "phone": "(03722) 478405", "ref_sisa_codigo": 50221402126482, "ref_sisa_tipologia": "ESSIDT", "wikidata": "", "wikipedia": "" }, "geometry": { "type": "Point", "coordinates": [ -58.970214, -27.484569 ] } },
{ "type": "Feature", "properties": { "amenity": "clinic", "healthcare": "clinic", "operator": "Provincial", "operator_type": "public", "name": "Centro De Salud Villa Odorico", "addr_full": "Raúl B. Díaz  865", "addr_postcode": "3500", "phone": "(03722) 468559", "ref_sisa_codigo": 50221402126483, "ref_sisa_tipologia": "ESSIDT", "wikidata": "", "wikipedia": "" }, "geometry": { "type": "Point", "coordinates": [ -58.9914322, -27.4332608 ] } },
{ "type": "Feature", "properties": { "amenity": "clinic", "healthcare": "clinic", "operator": "Provincial", "operator_type": "public", "name": "Centro De Salud Villa Pegoraro", "addr_full": "Fotheringham 555", "addr_postcode": "3500", "phone": "03722 - 468568 Int. 68568", "ref_sisa_codigo": 50221402126484, "ref_sisa_tipologia": "ESSIDT", "wikidata": "", "wikipedia": "" }, "geometry": { "type": "Point", "coordinates": [ -59.0209337, -27.4518881 ] } },
{ "type": "Feature", "properties": { "amenity": "clinic", "healthcare": "clinic", "operator": "Provincial", "operator_type": "public", "name": "Centro De Salud Villa Rio Negro", "addr_full": "Avenida Sabin 75", "addr_postcode": "3500", "phone": "(03722)- 45-3495", "ref_sisa_codigo": 50221402126485, "ref_sisa_tipologia": "ESSIDT", "wikidata": "", "wikipedia": "" }, "geometry": { "type": "Point", "coordinates": [ -58.9822884, -27.4337597 ] } },
{ "type": "Feature", "properties": { "amenity": "clinic", "healthcare": "clinic", "operator": "Provincial", "operator_type": "public", "name": "Centro De Salud Villa San Martin", "addr_full": "Monteagudo 1610", "addr_postcode": "3500", "phone": "(03722)- 45-3519", "ref_sisa_codigo": 50221402126486, "ref_sisa_tipologia": "ESSIDT", "wikidata": "", "wikipedia": "" }, "geometry": { "type": "Point", "coordinates": [ -58.966698, -27.44287 ] } },
{ "type": "Feature", "properties": { "amenity": "clinic", "healthcare": "clinic", "operator": "Provincial", "operator_type": "public", "name": "Centro De Salud Villa Urquiza", "addr_full": "Pje Warnes 2325", "addr_postcode": "3500", "phone": "(3722) 478406", "ref_sisa_codigo": 50221402126487, "ref_sisa_tipologia": "ESSIDT", "wikidata": "", "wikipedia": "" }, "geometry": { "type": "Point", "coordinates": [ -58.9892113, -27.4756557 ] } },
{ "type": "Feature", "properties": { "amenity": "clinic", "healthcare": "clinic", "operator": "Provincial", "operator_type": "public", "name": "Centro De Tratamiento De Residuos Especiales (Cetre)", "addr_full": "Ruta 11 Km 1008", "addr_postcode": "3500", "phone": "", "ref_sisa_codigo": 53221402126672, "ref_sisa_tipologia": "ESCL", "wikidata": "", "wikipedia": "" }, "geometry": { "type": "Point", "coordinates": [ -59.0020752, -27.4080427 ] } },
{ "type": "Feature", "properties": { "amenity": "clinic", "healthcare": "clinic", "operator": "Provincial", "operator_type": "public", "name": "Centro Dermatologico Doctor Manuel M. Gimenez", "addr_full": "Ameghino 1205", "addr_postcode": "3500", "phone": "(03722) 452602", "ref_sisa_codigo": 50221402126494, "ref_sisa_tipologia": "ESSIDT", "wikidata": "", "wikipedia": "" }, "geometry": { "type": "Point", "coordinates": [ -58.9792485, -27.4637448 ] } },
{ "type": "Feature", "properties": { "amenity": "clinic", "healthcare": "clinic", "operator": "Provincial", "operator_type": "public", "name": "Centro Integral De Salud Mental Y Adicciones Don Orione", "addr_full": "Avenida Pasteur 4615", "addr_postcode": "3503", "phone": "0362 4488625", "ref_sisa_codigo": 50221402127147, "ref_sisa_tipologia": "ESSIDT", "wikidata": "", "wikipedia": "" }, "geometry": { "type": "Point", "coordinates": [ -58.92993, -27.474326 ] } },
{ "type": "Feature", "properties": { "amenity": "clinic", "healthcare": "clinic", "operator": "Provincial", "operator_type": "public", "name": "Centro Odontologico Santa Apolonia", "addr_full": "Parcela 53- Barrip Provincias Unidas", "addr_postcode": "3500", "phone": "362 4416801", "ref_sisa_codigo": 50221402126512, "ref_sisa_tipologia": "ESSIDT", "wikidata": "", "wikipedia": "" }, "geometry": { "type": "Point", "coordinates": [ -59.0182114, -27.4508376 ] } },
{ "type": "Feature", "properties": { "amenity": "clinic", "healthcare": "clinic", "operator": "Provincial", "operator_type": "public", "name": "Centro Regional De Referencia Villa Libertad A. M. De Justo", "addr_full": "Avenida Las Heras 1691", "addr_postcode": "3500", "phone": "(03722)- 47-4231 Int. 74231", "ref_sisa_codigo": 50221402126517, "ref_sisa_tipologia": "ESSIDT", "wikidata": "", "wikipedia": "" }, "geometry": { "type": "Point", "coordinates": [ -58.9944617, -27.4710778 ] } },
{ "type": "Feature", "properties": { "amenity": "clinic", "healthcare": "clinic", "operator": "Municipal", "operator_type": "public", "name": "Cic Dario Montiel", "addr_full": "Barrio 444 Viviendas Mz 63 Chacra 46", "addr_postcode": "3514", "phone": "362 4 758563", "ref_sisa_codigo": 50221402227342, "ref_sisa_tipologia": "ESSIDT", "wikidata": "", "wikipedia": "" }, "geometry": { "type": "Point", "coordinates": [ -59.0480375, -27.419681 ] } },
{ "type": "Feature", "properties": { "amenity": "hospital", "healthcare": "hospital", "operator": "Privado", "operator_type": "private", "name": "Clinica Klinic", "addr_full": "Av. 9 De Julio 4202", "addr_postcode": "3503", "phone": "(0362)- 448-5606", "ref_sisa_codigo": 10221402326015, "ref_sisa_tipologia": "ESCIG", "wikidata": "", "wikipedia": "" }, "geometry": { "type": "Point", "coordinates": [ -58.9496895, -27.4847526 ] } },
{ "type": "Feature", "properties": { "amenity": "clinic", "healthcare": "clinic", "operator": "Provincial", "operator_type": "public", "name": "Gringo Pintos", "addr_full": "Km 999 Ruta 11 Barrio 17 De Julio", "addr_postcode": "3500", "phone": "0362 15 4 855544", "ref_sisa_codigo": 50221402127282, "ref_sisa_tipologia": "ESSIDT", "wikidata": "", "wikipedia": "" }, "geometry": { "type": "Point", "coordinates": [ -59.0535736, -27.4754811 ] } },
{ "type": "Feature", "properties": { "amenity": "hospital", "healthcare": "hospital", "operator": "Provincial", "operator_type": "public", "name": "Hospital Basail", "addr_full": "Planta Urbana S\/n", "addr_postcode": "3516", "phone": "(0362)- 449-0006", "ref_sisa_codigo": 10221402126023, "ref_sisa_tipologia": "ESCIG", "wikidata": "", "wikipedia": "" }, "geometry": { "type": "Point", "coordinates": [ -59.2893076, -27.8549753 ] } },
{ "type": "Feature", "properties": { "amenity": "clinic", "healthcare": "clinic", "operator": "Provincial", "operator_type": "public", "name": "Hospital Central De Odontologia Leonor Soria", "addr_full": "Ameghino 353", "addr_postcode": "3500", "phone": "0362-4424393", "ref_sisa_codigo": 50221402126522, "ref_sisa_tipologia": "ESSIDT", "wikidata": "", "wikipedia": "" }, "geometry": { "type": "Point", "coordinates": [ -58.9867726, -27.4569062 ] } },
{ "type": "Feature", "properties": { "amenity": "hospital", "healthcare": "hospital", "operator": "Provincial", "operator_type": "public", "name": "Hospital Doctor Julio Cecilio Perrando", "addr_full": "Avenida 9 De Julio 1100", "addr_postcode": "3500", "phone": "0362-4425050", "ref_sisa_codigo": 10221402126044, "ref_sisa_tipologia": "ESCIG", "wikidata": "", "wikipedia": "" }, "geometry": { "type": "Point", "coordinates": [ -58.9769156, -27.4597908 ] } },
{ "type": "Feature", "properties": { "amenity": "hospital", "healthcare": "hospital", "operator": "Provincial", "operator_type": "public", "name": "Hospital Eva Peron", "addr_full": "Avenida 9 De Julio 4902", "addr_postcode": "3503", "phone": "0362 4488627", "ref_sisa_codigo": 10221402127102, "ref_sisa_tipologia": "ESCIG", "wikidata": "", "wikipedia": "" }, "geometry": { "type": "Point", "coordinates": [ -58.9424477, -27.4902205 ] } },
{ "type": "Feature", "properties": { "amenity": "hospital", "healthcare": "hospital", "operator": "Provincial", "operator_type": "public", "name": "Hospital Geriatrico Colonia Baranda", "addr_full": "Ruta 89 S\/n", "addr_postcode": "3505", "phone": "420332", "ref_sisa_codigo": 10221402126059, "ref_sisa_tipologia": "ESCIG", "wikidata": "", "wikipedia": "" }, "geometry": { "type": "Point", "coordinates": [ -59.2999935, -27.5669877 ] } },
{ "type": "Feature", "properties": { "amenity": "hospital", "healthcare": "hospital", "operator": "Provincial", "operator_type": "public", "name": "Hospital Luis Fleitas", "addr_full": "Salta 4550", "addr_postcode": "3514", "phone": "0362 476-5258", "ref_sisa_codigo": 10221402127103, "ref_sisa_tipologia": "ESCIG", "wikidata": "", "wikipedia": "" }, "geometry": { "type": "Point", "coordinates": [ -59.031241, -27.415838 ] } },
{ "type": "Feature", "properties": { "amenity": "clinic", "healthcare": "clinic", "operator": "Provincial", "operator_type": "public", "name": "Hospital Pediatrico Doctor Avelino Lorenzo Castelan", "addr_full": "Avenida Velez Sarfield 150", "addr_postcode": "3500", "phone": "(03722)- 44-1477", "ref_sisa_codigo": 11221402126091, "ref_sisa_tipologia": "ESCIEP", "wikidata": "", "wikipedia": "" }, "geometry": { "type": "Point", "coordinates": [ -58.97773, -27.45685 ] } },
{ "type": "Feature", "properties": { "amenity": "clinic", "healthcare": "clinic", "operator": "Provincial", "operator_type": "public", "name": "Laboratorio Central De Salud Publica Dra. Francisca Luna De Bolsi", "addr_full": "Avenida Vélez Sarsfield 98", "addr_postcode": "3500", "phone": "03722-452588", "ref_sisa_codigo": 51221402126623, "ref_sisa_tipologia": "ESSID", "wikidata": "", "wikipedia": "" }, "geometry": { "type": "Point", "coordinates": [ -58.9783613, -27.4570218 ] } },
{ "type": "Feature", "properties": { "amenity": "hospital", "healthcare": "hospital", "operator": "Privado", "operator_type": "private", "name": "Sanatorio Antartida Centro Medico Para La Mujer S.r.l.", "addr_full": "San Lorenzo 180", "addr_postcode": "3500", "phone": "(0362)- 442-9155", "ref_sisa_codigo": 10221402326072, "ref_sisa_tipologia": "ESCIG", "wikidata": "", "wikipedia": "" }, "geometry": { "type": "Point", "coordinates": [ -58.98215, -27.45787 ] } },
{ "type": "Feature", "properties": { "amenity": "hospital", "healthcare": "hospital", "operator": "Privado", "operator_type": "private", "name": "Sanatorio Chaco S.r.l.", "addr_full": "Almirante Brown 315", "addr_postcode": "3500", "phone": "(0362)- 444-5111", "ref_sisa_codigo": 10221402326076, "ref_sisa_tipologia": "ESCIG", "wikidata": "", "wikipedia": "" }, "geometry": { "type": "Point", "coordinates": [ -58.98165, -27.45191 ] } },
{ "type": "Feature", "properties": { "amenity": "hospital", "healthcare": "hospital", "operator": "Privado", "operator_type": "private", "name": "Sanatorio Chaco S.r.l. Sucursal Oeste", "addr_full": "Avenida  Marconi 1486", "addr_postcode": "3500", "phone": "0362- 446-2566", "ref_sisa_codigo": 10221402326077, "ref_sisa_tipologia": "ESCIG", "wikidata": "", "wikipedia": "" }, "geometry": { "type": "Point", "coordinates": [ -59.01388, -27.45216 ] } },
{ "type": "Feature", "properties": { "amenity": "hospital", "healthcare": "hospital", "operator": "Privado", "operator_type": "private", "name": "Sanatorio Femechaco De La Comunidad", "addr_full": "San Lorenzo 168", "addr_postcode": "3500", "phone": "(0362)- 442-1959", "ref_sisa_codigo": 10221402326078, "ref_sisa_tipologia": "ESCIG", "wikidata": "", "wikipedia": "" }, "geometry": { "type": "Point", "coordinates": [ -58.98198, -27.45776 ] } },
{ "type": "Feature", "properties": { "amenity": "hospital", "healthcare": "hospital", "operator": "Privado", "operator_type": "private", "name": "Sanatorio Frangioli De Salud 2000 S.r.l.", "addr_full": "Córdoba 198", "addr_postcode": "3500", "phone": "(0362)- 444-4333", "ref_sisa_codigo": 10221402326079, "ref_sisa_tipologia": "ESCIG", "wikidata": "", "wikipedia": "" }, "geometry": { "type": "Point", "coordinates": [ -58.9787149, -27.4472926 ] } },
{ "type": "Feature", "properties": { "amenity": "hospital", "healthcare": "hospital", "operator": "Privado", "operator_type": "private", "name": "Sanatorio Galeno S.r.l.", "addr_full": "Necochea 268", "addr_postcode": "3500", "phone": "0362- 441-1017", "ref_sisa_codigo": 10221402326080, "ref_sisa_tipologia": "ESCIG", "wikidata": "", "wikipedia": "" }, "geometry": { "type": "Point", "coordinates": [ -58.9914489, -27.4509245 ] } },
{ "type": "Feature", "properties": { "amenity": "hospital", "healthcare": "hospital", "operator": "Privado", "operator_type": "private", "name": "Sanatorio Guemes", "addr_full": "Güemes 501", "addr_postcode": "3500", "phone": "(03622)- 444-6500", "ref_sisa_codigo": 10221402326082, "ref_sisa_tipologia": "ESCIG", "wikidata": "", "wikipedia": "" }, "geometry": { "type": "Point", "coordinates": [ -58.981138, -27.44776 ] } },
{ "type": "Feature", "properties": { "amenity": "hospital", "healthcare": "hospital", "operator": "Privado", "operator_type": "private", "name": "Sanatorio La Sagrada Familia", "addr_full": "Avenida Italia 266", "addr_postcode": "3500", "phone": "362 4411969", "ref_sisa_codigo": 10221402326800, "ref_sisa_tipologia": "ESCIG", "wikidata": "", "wikipedia": "" }, "geometry": { "type": "Point", "coordinates": [ -58.979678, -27.453122 ] } },
{ "type": "Feature", "properties": { "amenity": "hospital", "healthcare": "hospital", "operator": "Privado", "operator_type": "private", "name": "Sanatorio Modelo", "addr_full": "Av. Sarmiento 184", "addr_postcode": "3500", "phone": "(0362)- 443-7500", "ref_sisa_codigo": 10221402326086, "ref_sisa_tipologia": "ESCIG", "wikidata": "", "wikipedia": "" }, "geometry": { "type": "Point", "coordinates": [ -58.984991, -27.4498 ] } },
{ "type": "Feature", "properties": { "amenity": "hospital", "healthcare": "hospital", "operator": "Privado", "operator_type": "private", "name": "Sanatorio Palacio S.r.l.", "addr_full": "Córdoba 421", "addr_postcode": "3500", "phone": "(0362)- 442-3891", "ref_sisa_codigo": 10221402326087, "ref_sisa_tipologia": "ESCIG", "wikidata": "", "wikipedia": "" }, "geometry": { "type": "Point", "coordinates": [ -58.9765445, -27.4487385 ] } },
{ "type": "Feature", "properties": { "amenity": "hospital", "healthcare": "hospital", "operator": "Privado", "operator_type": "private", "name": "Sanatorio Sarmiento", "addr_full": "Avenida Sarmiento 391", "addr_postcode": "3500", "phone": "0362 -4424922", "ref_sisa_codigo": 10221402326089, "ref_sisa_tipologia": "ESCIG", "wikidata": "", "wikipedia": "" }, "geometry": { "type": "Point", "coordinates": [ -58.9832808, -27.4479732 ] } },
{ "type": "Feature", "properties": { "amenity": "clinic", "healthcare": "clinic", "operator": "Provincial", "operator_type": "public", "name": "Unidad Central De Coordinacion De Emergencias Medicas U.C.C.E.M.", "addr_full": "Avenida 9 De Julio 1100", "addr_postcode": "3500", "phone": "numero de emergencias107", "ref_sisa_codigo": 53221402126799, "ref_sisa_tipologia": "ESCL", "wikidata": "", "wikipedia": "" }, "geometry": { "type": "Point", "coordinates": [ -58.9769156, -27.4597908 ] } },
{ "type": "Feature", "properties": { "amenity": "clinic", "healthcare": "clinic", "operator": "Provincial", "operator_type": "public", "name": "Unidad Movil Odontologica - Direccion Provincial De Odontologia - Programa Boca Sana", "addr_full": "Marcelo T De Alvear 145 - 8 Piso", "addr_postcode": "3500", "phone": "0362 4448000", "ref_sisa_codigo": 53221402127345, "ref_sisa_tipologia": "ESCL", "wikidata": "", "wikipedia": "" }, "geometry": { "type": "Point", "coordinates": [ -58.9869046, -27.4492572 ] } }
]
}
