{
"type": "FeatureCollection",
"name": "026-ensenada",
"features": [
{ "type": "Feature", "properties": { "amenity": "clinic", "healthcare": "clinic", "operator": "Municipal", "operator_type": "public", "name": "CAP Dr Pascual Giudice", "addr_full": "La Paz Y San Martin", "addr_postcode": "1925", "phone": "0221-4691268", "ref_sisa_codigo": 50062452215027, "ref_sisa_tipologia": "ESSIDT", "wikidata": "", "wikipedia": "" }, "geometry": { "type": "Point", "coordinates": [ -57.9069078, -34.8601802 ] } },
{ "type": "Feature", "properties": { "amenity": "clinic", "healthcare": "clinic", "operator": "Municipal", "operator_type": "public", "name": "Cic Ensenada", "addr_full": "Calle 126 43", "addr_postcode": "1925", "phone": "", "ref_sisa_codigo": 50062452201519, "ref_sisa_tipologia": "ESSIDT", "wikidata": "", "wikipedia": "" }, "geometry": { "type": "Point", "coordinates": [ -57.9514394, -34.8849237 ] } },
{ "type": "Feature", "properties": { "amenity": "hospital", "healthcare": "hospital", "operator": "Privado", "operator_type": "private", "name": "Clinica De La Comunidad", "addr_full": "La Merced 383", "addr_postcode": "1925", "phone": "(0221) 460-2400", "ref_sisa_codigo": 10062452300037, "ref_sisa_tipologia": "ESCIG", "wikidata": "", "wikipedia": "" }, "geometry": { "type": "Point", "coordinates": [ -57.9058632, -34.8583414 ] } },
{ "type": "Feature", "properties": { "amenity": "hospital", "healthcare": "hospital", "operator": "Privado", "operator_type": "private", "name": "Clinica Instituto Medico De La Ribera", "addr_full": "La Merced 286", "addr_postcode": "1925", "phone": "0221-4602100", "ref_sisa_codigo": 10062452300048, "ref_sisa_tipologia": "ESCIG", "wikidata": "", "wikipedia": "" }, "geometry": { "type": "Point", "coordinates": [ -57.9042943, -34.8596165 ] } },
{ "type": "Feature", "properties": { "amenity": "clinic", "healthcare": "clinic", "operator": "Provincial", "operator_type": "public", "name": "Ente Descentralizado Hospital Integrado Region Sanitaria Xi", "addr_full": "129 Y 53", "addr_postcode": "1925", "phone": "(0221) 4820184", "ref_sisa_codigo": 50062452116818, "ref_sisa_tipologia": "ESCL", "wikidata": "", "wikipedia": "" }, "geometry": { "type": "Point", "coordinates": [ -57.9079056, -34.8649472 ] } },
{ "type": "Feature", "properties": { "amenity": "clinic", "healthcare": "clinic", "operator": "Provincial", "operator_type": "public", "name": "Hospital Zonal Especializado En Cronicos El Dique", "addr_full": "Calle 129 Entre 51 Y 53", "addr_postcode": "1925", "phone": "0221-4235175", "ref_sisa_codigo": 14062452100664, "ref_sisa_tipologia": "ESCIE", "wikidata": "", "wikipedia": "" }, "geometry": { "type": "Point", "coordinates": [ -57.9288139, -34.8966311 ] } },
{ "type": "Feature", "properties": { "amenity": "hospital", "healthcare": "hospital", "operator": "Provincial", "operator_type": "public", "name": "Hospital Zonal General Agudos Horacio Cestino", "addr_full": "San Martín 328", "addr_postcode": "1925", "phone": "(0221) 469-1041", "ref_sisa_codigo": 10062452100388, "ref_sisa_tipologia": "ESCIG", "wikidata": "", "wikipedia": "" }, "geometry": { "type": "Point", "coordinates": [ -57.9066052, -34.8604388 ] } },
{ "type": "Feature", "properties": { "amenity": "hospital", "healthcare": "hospital", "operator": "Privado", "operator_type": "private", "name": "Instituto Medico De La Ribera", "addr_full": "La Merced E\/ Perú y Sarmiento  286", "addr_postcode": "1925", "phone": "", "ref_sisa_codigo": 10062452316923, "ref_sisa_tipologia": "ESCIG", "wikidata": "", "wikipedia": "" }, "geometry": { "type": "Point", "coordinates": [ -57.9042943, -34.8596165 ] } },
{ "type": "Feature", "properties": { "amenity": "hospital", "healthcare": "hospital", "operator": "Privado", "operator_type": "private", "name": "Instituto Medico Privado Alberti", "addr_full": "Sidotti 167", "addr_postcode": "1925", "phone": "0221-4694387", "ref_sisa_codigo": 10062452300423, "ref_sisa_tipologia": "ESCIG", "wikidata": "", "wikipedia": "" }, "geometry": { "type": "Point", "coordinates": [ -57.903186, -34.861799 ] } },
{ "type": "Feature", "properties": { "amenity": "clinic", "healthcare": "clinic", "operator": "Municipal", "operator_type": "public", "name": "Unidad Sanitaria 1° De Mayo De Ensenada", "addr_full": "Ecuador Y Saenz Peña Barrio 1° De Mayo 17", "addr_postcode": "1925", "phone": "0221-4601260", "ref_sisa_codigo": 50062452202917, "ref_sisa_tipologia": "ESSIDT", "wikidata": "", "wikipedia": "" }, "geometry": { "type": "Point", "coordinates": [ -57.918128, -34.862992 ] } },
{ "type": "Feature", "properties": { "amenity": "clinic", "healthcare": "clinic", "operator": "Municipal", "operator_type": "public", "name": "Unidad Sanitaria Barrio 5 De Mayo De Ensenada", "addr_full": "Quintana  Entre Bolivia Contarelli S\/N Barrio 5 De Mayo", "addr_postcode": "1925", "phone": "0221-4602357", "ref_sisa_codigo": 50062452202144, "ref_sisa_tipologia": "ESSIDT", "wikidata": "", "wikipedia": "" }, "geometry": { "type": "Point", "coordinates": [ -57.918128, -34.8608678 ] } },
{ "type": "Feature", "properties": { "amenity": "clinic", "healthcare": "clinic", "operator": "Municipal", "operator_type": "public", "name": "Unidad Sanitaria Barrio Mosconi", "addr_full": "J. V.  González Y Betinotti S\/N - Barrio Mosconi", "addr_postcode": "1925", "phone": "(0221) 460-2358", "ref_sisa_codigo": 50062452202108, "ref_sisa_tipologia": "ESSIDT", "wikidata": "", "wikipedia": "" }, "geometry": { "type": "Point", "coordinates": [ -57.913529, -34.875164 ] } },
{ "type": "Feature", "properties": { "amenity": "clinic", "healthcare": "clinic", "operator": "Municipal", "operator_type": "public", "name": "Unidad Sanitaria El Molino", "addr_full": "Columna 361", "addr_postcode": "1931", "phone": "0221-4660291", "ref_sisa_codigo": 50062452202266, "ref_sisa_tipologia": "ESSIDT", "wikidata": "", "wikipedia": "" }, "geometry": { "type": "Point", "coordinates": [ -57.985675, -34.823799 ] } },
{ "type": "Feature", "properties": { "amenity": "clinic", "healthcare": "clinic", "operator": "Municipal", "operator_type": "public", "name": "Unidad Sanitaria Malvinas Argentinas", "addr_full": "Combatientes De Malvinas Y Quintana", "addr_postcode": "1925", "phone": "", "ref_sisa_codigo": 50062452215008, "ref_sisa_tipologia": "ESSIDT", "wikidata": "", "wikipedia": "" }, "geometry": { "type": "Point", "coordinates": [ -57.918511, -34.8604256 ] } },
{ "type": "Feature", "properties": { "amenity": "clinic", "healthcare": "clinic", "operator": "Municipal", "operator_type": "public", "name": "Unidad Sanitaria 184 De Ensenada", "addr_full": "Columna 184 E\/ 90 Y 92  Camino Costanero", "addr_postcode": "1931", "phone": "0221-4661334", "ref_sisa_codigo": 50062452202540, "ref_sisa_tipologia": "ESSIDT", "wikidata": "", "wikipedia": "" }, "geometry": { "type": "Point", "coordinates": [ -57.9787567, -34.8133444 ] } },
{ "type": "Feature", "properties": { "amenity": "clinic", "healthcare": "clinic", "operator": "Municipal", "operator_type": "public", "name": "Unidad Sanitaria 298 De Ensenada", "addr_full": "Alte. Brown 298 E\/ 106 Y 108", "addr_postcode": "1931", "phone": "0221-4660144", "ref_sisa_codigo": 50062452202585, "ref_sisa_tipologia": "ESSIDT", "wikidata": "", "wikipedia": "" }, "geometry": { "type": "Point", "coordinates": [ -57.9842713, -34.8056189 ] } },
{ "type": "Feature", "properties": { "amenity": "clinic", "healthcare": "clinic", "operator": "Municipal", "operator_type": "public", "name": "Unidad Sanitaria 8 Isla Santiago De Ensenada", "addr_full": "Isla Santiago Dentro De La Escuela 8", "addr_postcode": "1925", "phone": "0221-4277597", "ref_sisa_codigo": 50062452202668, "ref_sisa_tipologia": "ESSIDT", "wikidata": "", "wikipedia": "" }, "geometry": { "type": "Point", "coordinates": [ -57.8812122, -34.8348355 ] } },
{ "type": "Feature", "properties": { "amenity": "clinic", "healthcare": "clinic", "operator": "Municipal", "operator_type": "public", "name": "Unidad Sanitaria 80 De Ensenada", "addr_full": "Calle 36 Entre 125 Y 126 S\/N Villa Catela", "addr_postcode": "1925", "phone": "0221-4212584", "ref_sisa_codigo": 50062452202672, "ref_sisa_tipologia": "ESSIDT", "wikidata": "", "wikipedia": "" }, "geometry": { "type": "Point", "coordinates": [ -57.9456797, -34.8876286 ] } },
{ "type": "Feature", "properties": { "amenity": "clinic", "healthcare": "clinic", "operator": "Municipal", "operator_type": "public", "name": "Unidad Sanitaria Villa Tranquila", "addr_full": "Liniers S\/N Y Bernardo De Yrigoyen - Villa Tranquila", "addr_postcode": "1925", "phone": "(0221) 460-1219", "ref_sisa_codigo": 50062452202907, "ref_sisa_tipologia": "ESSIDT", "wikidata": "", "wikipedia": "" }, "geometry": { "type": "Point", "coordinates": [ -57.921565, -34.854477 ] } },
{ "type": "Feature", "properties": { "amenity": "clinic", "healthcare": "clinic", "operator": "Provincial", "operator_type": "public", "name": "Unidades Moviles", "addr_full": "129 E\/ 51Y 53", "addr_postcode": "1925", "phone": "", "ref_sisa_codigo": 50062452106681, "ref_sisa_tipologia": "ESSIDT", "wikidata": "", "wikipedia": "" }, "geometry": { "type": "Point", "coordinates": [ -57.925072, -34.846987 ] } }
]
}
