{
"type": "FeatureCollection",
"name": "027-comuna_12",
"features": [
{ "type": "Feature", "properties": { "amenity": "hospital", "healthcare": "hospital", "operator": "Privado", "operator_type": "private", "name": "CEMIC - Hospital Universitario Sede Saavedra", "addr_full": "Galván 4102", "addr_postcode": "1431", "phone": "(011) 4546-8200", "ref_sisa_codigo": 10020012315173, "ref_sisa_tipologia": "ESCIG", "wikidata": "Q11682610", "wikipedia": "ES:Hospital Universitario sede Saavedra" }, "geometry": { "type": "Point", "coordinates": [ -58.4951864, -34.5568571 ] } },
{ "type": "Feature", "properties": { "amenity": "clinic", "healthcare": "clinic", "operator": "Municipal", "operator_type": "public", "name": "CAPS UAP Ravazzoli", "addr_full": "Moldes 4900", "addr_postcode": "1603", "phone": "(011) 4513-1942", "ref_sisa_codigo": 50068612201998, "ref_sisa_tipologia": "ESSIDT", "wikidata": "", "wikipedia": "" }, "geometry": { "type": "Point", "coordinates": [ -58.4760605, -34.541324 ] } },
{ "type": "Feature", "properties": { "amenity": "clinic", "healthcare": "clinic", "operator": "Municipal", "operator_type": "public", "name": "CESAC 12", "addr_full": "Olazabal 3960", "addr_postcode": "1430", "phone": "(011) 4543-2494", "ref_sisa_codigo": 50020012115346, "ref_sisa_tipologia": "ESSIDT", "wikidata": "Q90206239", "wikipedia": "" }, "geometry": { "type": "Point", "coordinates": [ -58.4741735, -34.569712 ] } },
{ "type": "Feature", "properties": { "amenity": "clinic", "healthcare": "clinic", "operator": "Municipal", "operator_type": "public", "name": "CESAC 2", "addr_full": "Terrada 5850", "addr_postcode": "1419", "phone": "(011) 4572-9520\/ 6798\/ 3581", "ref_sisa_codigo": 50020012115353, "ref_sisa_tipologia": "ESSIDT", "wikidata": "Q90206241", "wikipedia": "" }, "geometry": { "type": "Point", "coordinates": [ -58.5093206, -34.5764837 ] } },
{ "type": "Feature", "properties": { "amenity": "clinic", "healthcare": "clinic", "operator": "Municipal", "operator_type": "public", "name": "CESAC 27", "addr_full": "Arias 3783", "addr_postcode": "1430", "phone": "(011) 4543-2998", "ref_sisa_codigo": 50020012115360, "ref_sisa_tipologia": "ESSIDT", "wikidata": "Q90206202", "wikipedia": "" }, "geometry": { "type": "Point", "coordinates": [ -58.4866101, -34.5477146 ] } },
{ "type": "Feature", "properties": { "amenity": "clinic", "healthcare": "clinic", "operator": "Municipal", "operator_type": "public", "name": "CMB 17", "addr_full": "Nuñez 5019", "addr_postcode": "1431", "phone": "(011) 4545-8668", "ref_sisa_codigo": 50020012115394, "ref_sisa_tipologia": "ESSIDT", "wikidata": "", "wikipedia": "" }, "geometry": { "type": "Point", "coordinates": [ -58.4911396, -34.5627111 ] } },
{ "type": "Feature", "properties": { "amenity": "clinic", "healthcare": "clinic", "operator": "Municipal", "operator_type": "public", "name": "CMB 33", "addr_full": "Cramer 4354", "addr_postcode": "1429", "phone": "(011) 4702-5661", "ref_sisa_codigo": 50020012115412, "ref_sisa_tipologia": "ESSIDT", "wikidata": "", "wikipedia": "" }, "geometry": { "type": "Point", "coordinates": [ -58.4766067, -34.5447401 ] } },
{ "type": "Feature", "properties": { "amenity": "hospital", "healthcare": "hospital", "operator": "Privado", "operator_type": "private", "name": "Hospital Asociacion De Beneficencia Hospital Sirio Libanes", "addr_full": "Campana 4658", "addr_postcode": "1419", "phone": "(011) 4574-4343", "ref_sisa_codigo": 10020012315205, "ref_sisa_tipologia": "ESCIG", "wikidata": "Q93140196", "wikipedia": "" }, "geometry": { "type": "Point", "coordinates": [ -58.5070467, -34.5898699 ] } },
{ "type": "Feature", "properties": { "amenity": "hospital", "healthcare": "hospital", "operator": "Municipal", "operator_type": "public", "name": "Hospital General De Agudos Doctor Ignacio Pirovano", "addr_full": "Monroe 3555", "addr_postcode": "", "phone": "(011) 4542-9906", "ref_sisa_codigo": 10020012215219, "ref_sisa_tipologia": "ESCIG", "wikidata": "Q5908544", "wikipedia": "ES:Hospital Pirovano" }, "geometry": { "type": "Point", "coordinates": [ -58.471384, -34.5648529 ] } }
]
}
