{
"type": "FeatureCollection",
"name": "028-zarate",
"features": [
{ "type": "Feature", "properties": { "amenity": "clinic", "healthcare": "clinic", "operator": "Municipal", "operator_type": "public", "name": "CAPS Unidad Sanitaria San Martin De Porres", "addr_full": "Pellegrini 1940", "addr_postcode": "2800", "phone": "03487-427663", "ref_sisa_codigo": 50068822201885, "ref_sisa_tipologia": "ESSIDT", "wikidata": "", "wikipedia": "" }, "geometry": { "type": "Point", "coordinates": [ -59.0292952, -34.108817 ] } },
{ "type": "Feature", "properties": { "amenity": "clinic", "healthcare": "clinic", "operator": "Municipal", "operator_type": "public", "name": "Catamaran", "addr_full": "Pellegrini 1940", "addr_postcode": "2800", "phone": "(03487) 422574", "ref_sisa_codigo": 50068822201079, "ref_sisa_tipologia": "ESSIDT", "wikidata": "", "wikipedia": "" }, "geometry": { "type": "Point", "coordinates": [ -59.0291767, -34.1088155 ] } },
{ "type": "Feature", "properties": { "amenity": "clinic", "healthcare": "clinic", "operator": "Municipal", "operator_type": "public", "name": "Centro De Salud 23 Rio Lujan De Campana", "addr_full": "Ruta 12 Km. 102 - Islas Del Delta", "addr_postcode": "2804", "phone": "", "ref_sisa_codigo": 50061262201297, "ref_sisa_tipologia": "ESSIDT", "wikidata": "", "wikipedia": "" }, "geometry": { "type": "Point", "coordinates": [ -59.014658, -34.120269 ] } },
{ "type": "Feature", "properties": { "amenity": "clinic", "healthcare": "clinic", "operator": "Municipal", "operator_type": "public", "name": "Cic Zarate", "addr_full": "Pellegrini 2200", "addr_postcode": "2800", "phone": "03487-422574", "ref_sisa_codigo": 50068822201531, "ref_sisa_tipologia": "ESSIDT", "wikidata": "", "wikipedia": "" }, "geometry": { "type": "Point", "coordinates": [ -59.0312943, -34.1098819 ] } },
{ "type": "Feature", "properties": { "amenity": "hospital", "healthcare": "hospital", "operator": "Privado", "operator_type": "private", "name": "Clinica Privada Del Carmen Srl", "addr_full": "Avenida Rivadavia 585", "addr_postcode": "2800", "phone": "03487-422565", "ref_sisa_codigo": 10068822300097, "ref_sisa_tipologia": "ESCIG", "wikidata": "", "wikipedia": "" }, "geometry": { "type": "Point", "coordinates": [ -59.0232381, -34.0943965 ] } },
{ "type": "Feature", "properties": { "amenity": "hospital", "healthcare": "hospital", "operator": "Privado", "operator_type": "private", "name": "Clinica Santa Clara (525)", "addr_full": "Hipólito Yrigoyen 525", "addr_postcode": "2800", "phone": "", "ref_sisa_codigo": 10068822317888, "ref_sisa_tipologia": "ESCIG", "wikidata": "", "wikipedia": "" }, "geometry": { "type": "Point", "coordinates": [ -59.0181248, -34.1005658 ] } },
{ "type": "Feature", "properties": { "amenity": "hospital", "healthcare": "hospital", "operator": "Municipal", "operator_type": "public", "name": "Hospital Intermedio Municipal Doctor Rene Favaloro", "addr_full": "Avenida Antártida Argentina", "addr_postcode": "2800", "phone": "", "ref_sisa_codigo": 10068822217960, "ref_sisa_tipologia": "ESCIG", "wikidata": "", "wikipedia": "" }, "geometry": { "type": "Point", "coordinates": [ -59.0550384, -34.1102632 ] } },
{ "type": "Feature", "properties": { "amenity": "hospital", "healthcare": "hospital", "operator": "Provincial", "operator_type": "public", "name": "Hospital Zonal General De Agudos Virgen Del Carmen De Zarate", "addr_full": "Félix Pagola 1502 - Villa Mazzoni", "addr_postcode": "2800", "phone": "(03487) 42-2300\/3166", "ref_sisa_codigo": 10068822100396, "ref_sisa_tipologia": "ESCIG", "wikidata": "", "wikipedia": "" }, "geometry": { "type": "Point", "coordinates": [ -59.0340664, -34.0837024 ] } },
{ "type": "Feature", "properties": { "amenity": "clinic", "healthcare": "clinic", "operator": "Municipal", "operator_type": "public", "name": "Sala De Prim Aux Union Vecinal Barrio San Miguel", "addr_full": "56 Y Belgrano - Barrio San Miguel", "addr_postcode": "2800", "phone": "", "ref_sisa_codigo": 50068822106691, "ref_sisa_tipologia": "ESSIDT", "wikidata": "", "wikipedia": "" }, "geometry": { "type": "Point", "coordinates": [ -59.0597105, -34.1158551 ] } },
{ "type": "Feature", "properties": { "amenity": "clinic", "healthcare": "clinic", "operator": "Municipal", "operator_type": "public", "name": "Sala De Primeros Auxilios  Almirante Brown", "addr_full": "Garibaldi  593", "addr_postcode": "2800", "phone": "", "ref_sisa_codigo": 50068822216381, "ref_sisa_tipologia": "ESSIDT", "wikidata": "", "wikipedia": "" }, "geometry": { "type": "Point", "coordinates": [ -59.036753, -34.095427 ] } },
{ "type": "Feature", "properties": { "amenity": "clinic", "healthcare": "clinic", "operator": "Municipal", "operator_type": "public", "name": "Sala De Primeros Auxilios Burgar", "addr_full": "Ameghino 3209", "addr_postcode": "2800", "phone": "", "ref_sisa_codigo": 50068822201800, "ref_sisa_tipologia": "ESSIDT", "wikidata": "", "wikipedia": "" }, "geometry": { "type": "Point", "coordinates": [ -59.0433662, -34.1107023 ] } },
{ "type": "Feature", "properties": { "amenity": "clinic", "healthcare": "clinic", "operator": "Municipal", "operator_type": "public", "name": "Sala De Primeros Auxilios Club Chacarita", "addr_full": "Calle España 3850", "addr_postcode": "2800", "phone": "", "ref_sisa_codigo": 50068822201805, "ref_sisa_tipologia": "ESSIDT", "wikidata": "", "wikipedia": "" }, "geometry": { "type": "Point", "coordinates": [ -59.0609922, -34.1019391 ] } },
{ "type": "Feature", "properties": { "amenity": "clinic", "healthcare": "clinic", "operator": "Municipal", "operator_type": "public", "name": "Sala De Primeros Auxilios Eugenia Drubich", "addr_full": "Calle 14 2800", "addr_postcode": "2800", "phone": "", "ref_sisa_codigo": 50068822201827, "ref_sisa_tipologia": "ESSIDT", "wikidata": "", "wikipedia": "" }, "geometry": { "type": "Point", "coordinates": [ -59.0382108, -34.1228857 ] } },
{ "type": "Feature", "properties": { "amenity": "clinic", "healthcare": "clinic", "operator": "Municipal", "operator_type": "public", "name": "Sala De Primeros Auxilios Fonavi", "addr_full": "Pacheco 1200", "addr_postcode": "2800", "phone": "", "ref_sisa_codigo": 50068822201829, "ref_sisa_tipologia": "ESSIDT", "wikidata": "", "wikipedia": "" }, "geometry": { "type": "Point", "coordinates": [ -59.0169644, -34.113808 ] } },
{ "type": "Feature", "properties": { "amenity": "clinic", "healthcare": "clinic", "operator": "Municipal", "operator_type": "public", "name": "Sala De Primeros Auxilios J. M. Guerci Villa Florida", "addr_full": "San Lorenzo 276 - Villa Florida", "addr_postcode": "2800", "phone": "", "ref_sisa_codigo": 50068822201842, "ref_sisa_tipologia": "ESSIDT", "wikidata": "", "wikipedia": "" }, "geometry": { "type": "Point", "coordinates": [ -59.0135765, -34.1039162 ] } },
{ "type": "Feature", "properties": { "amenity": "clinic", "healthcare": "clinic", "operator": "Municipal", "operator_type": "public", "name": "Sala De Primeros Auxilios Juana Maria", "addr_full": "Belisario Roldán 403", "addr_postcode": "2800", "phone": "", "ref_sisa_codigo": 50068822201844, "ref_sisa_tipologia": "ESSIDT", "wikidata": "", "wikipedia": "" }, "geometry": { "type": "Point", "coordinates": [ -59.0454382, -34.1005359 ] } },
{ "type": "Feature", "properties": { "amenity": "clinic", "healthcare": "clinic", "operator": "Municipal", "operator_type": "public", "name": "Sala De Primeros Auxilios Malvicino San Luis", "addr_full": "Larrea 3100", "addr_postcode": "2800", "phone": "", "ref_sisa_codigo": 50068822201855, "ref_sisa_tipologia": "ESSIDT", "wikidata": "", "wikipedia": "" }, "geometry": { "type": "Point", "coordinates": [ -59.0359554, -34.1184101 ] } },
{ "type": "Feature", "properties": { "amenity": "clinic", "healthcare": "clinic", "operator": "Municipal", "operator_type": "public", "name": "Sala De Primeros Auxilios Mariano Moreno", "addr_full": "Islas Malvinas 1533", "addr_postcode": "2800", "phone": "", "ref_sisa_codigo": 50068822201860, "ref_sisa_tipologia": "ESSIDT", "wikidata": "", "wikipedia": "" }, "geometry": { "type": "Point", "coordinates": [ -59.0293634, -34.1144131 ] } },
{ "type": "Feature", "properties": { "amenity": "clinic", "healthcare": "clinic", "operator": "Municipal", "operator_type": "public", "name": "Sala De Primeros Auxilios Monseñor D. Andrea Escalada", "addr_full": "Ruta 193 Km 5", "addr_postcode": "2801", "phone": "", "ref_sisa_codigo": 50068822201863, "ref_sisa_tipologia": "ESSIDT", "wikidata": "", "wikipedia": "" }, "geometry": { "type": "Point", "coordinates": [ -59.103813, -34.16392 ] } },
{ "type": "Feature", "properties": { "amenity": "clinic", "healthcare": "clinic", "operator": "Municipal", "operator_type": "public", "name": "Sala De Primeros Auxilios P. Marina Villa Angus", "addr_full": "Doctor Félix Pagola 1900", "addr_postcode": "2800", "phone": "", "ref_sisa_codigo": 50068822201872, "ref_sisa_tipologia": "ESSIDT", "wikidata": "", "wikipedia": "" }, "geometry": { "type": "Point", "coordinates": [ -59.0381929, -34.0807175 ] } },
{ "type": "Feature", "properties": { "amenity": "clinic", "healthcare": "clinic", "operator": "Municipal", "operator_type": "public", "name": "Sala De Primeros Auxilios R. Martich 25 De Mayo", "addr_full": "Matheu 1506", "addr_postcode": "2800", "phone": "", "ref_sisa_codigo": 50068822201880, "ref_sisa_tipologia": "ESSIDT", "wikidata": "", "wikipedia": "" }, "geometry": { "type": "Point", "coordinates": [ -59.0397698, -34.0882645 ] } },
{ "type": "Feature", "properties": { "amenity": "clinic", "healthcare": "clinic", "operator": "Municipal", "operator_type": "public", "name": "Sala De Primeros Auxilios Villa Eugenia", "addr_full": "Alameda 1860", "addr_postcode": "2800", "phone": "(03487) 42-2574", "ref_sisa_codigo": 50068822201898, "ref_sisa_tipologia": "ESSIDT", "wikidata": "", "wikipedia": "" }, "geometry": { "type": "Point", "coordinates": [ -59.0038748, -34.1376995 ] } },
{ "type": "Feature", "properties": { "amenity": "clinic", "healthcare": "clinic", "operator": "Municipal", "operator_type": "public", "name": "Sala De Primeros Auxilios Villa Massoni", "addr_full": "Sarmiento 920 Villa Massoni", "addr_postcode": "2800", "phone": "03487-432382", "ref_sisa_codigo": 50068822216384, "ref_sisa_tipologia": "ESSIDT", "wikidata": "", "wikipedia": "" }, "geometry": { "type": "Point", "coordinates": [ -59.034161, -34.090396 ] } },
{ "type": "Feature", "properties": { "amenity": "clinic", "healthcare": "clinic", "operator": "Municipal", "operator_type": "public", "name": "Sala De Primeros Auxilios Villa Negri", "addr_full": "Sargento Cabral 3100", "addr_postcode": "2800", "phone": "(03487) 43-9263", "ref_sisa_codigo": 50068822201901, "ref_sisa_tipologia": "ESSIDT", "wikidata": "", "wikipedia": "" }, "geometry": { "type": "Point", "coordinates": [ -59.0393586, -34.1154469 ] } },
{ "type": "Feature", "properties": { "amenity": "clinic", "healthcare": "clinic", "operator": "Municipal", "operator_type": "public", "name": "Unidad Sanitaria 25 De Mayo Villa Carmencita De Zarate", "addr_full": "Bernardo De Irigoyen 1411", "addr_postcode": "2800", "phone": "", "ref_sisa_codigo": 50068822202936, "ref_sisa_tipologia": "ESSIDT", "wikidata": "", "wikipedia": "" }, "geometry": { "type": "Point", "coordinates": [ -59.0231701, -34.1086547 ] } },
{ "type": "Feature", "properties": { "amenity": "clinic", "healthcare": "clinic", "operator": "Municipal", "operator_type": "public", "name": "Unidad Sanitaria Covepam", "addr_full": "Calle España 2500", "addr_postcode": "2800", "phone": "(03487) 43-7311", "ref_sisa_codigo": 50068822202191, "ref_sisa_tipologia": "ESSIDT", "wikidata": "", "wikipedia": "" }, "geometry": { "type": "Point", "coordinates": [ -59.0479453, -34.0950284 ] } },
{ "type": "Feature", "properties": { "amenity": "clinic", "healthcare": "clinic", "operator": "Municipal", "operator_type": "public", "name": "Unidad Sanitaria Doctor Aleotti", "addr_full": "Calle 6 560", "addr_postcode": "2806", "phone": "03487-480015", "ref_sisa_codigo": 50068822202213, "ref_sisa_tipologia": "ESSIDT", "wikidata": "", "wikipedia": "" }, "geometry": { "type": "Point", "coordinates": [ -59.197628, -34.042942 ] } }
]
}
