{
"type": "FeatureCollection",
"name": "029-presidente_peron",
"features": [
{ "type": "Feature", "properties": { "amenity": "hospital", "healthcare": "hospital", "operator": "Provincial", "operator_type": "public", "name": "Hospital Dra. Cecilia Grierson", "addr_full": "Juan Bautista Alberdi 38", "addr_postcode": "1862", "phone": "(02224) 475291", "ref_sisa_codigo": 10066482100217, "ref_sisa_tipologia": "ESCIG", "wikidata": "", "wikipedia": "" }, "geometry": { "type": "Point", "coordinates": [ -58.3902686, -34.9198711 ] } },
{ "type": "Feature", "properties": { "amenity": "hospital", "healthcare": "hospital", "operator": "Privado", "operator_type": "private", "name": "Policlinico Guernica S.a.", "addr_full": "Avenida Eva Duarte De Perón 1693", "addr_postcode": "1862", "phone": "", "ref_sisa_codigo": 10066482316867, "ref_sisa_tipologia": "ESCIG", "wikidata": "", "wikipedia": "" }, "geometry": { "type": "Point", "coordinates": [ -58.3679037, -34.9094456 ] } },
{ "type": "Feature", "properties": { "amenity": "clinic", "healthcare": "clinic", "operator": "Municipal", "operator_type": "public", "name": "Unidad Sanitaria  Nazarena Gonzalez Villa Numancia", "addr_full": "Lorenzo Bernardo Entre Santa Fe Y Córdoba", "addr_postcode": "1862", "phone": "(02224) 47-3471", "ref_sisa_codigo": 50066482202897, "ref_sisa_tipologia": "ESSIDT", "wikidata": "", "wikipedia": "" }, "geometry": { "type": "Point", "coordinates": [ -58.405881, -34.916743 ] } },
{ "type": "Feature", "properties": { "amenity": "clinic", "healthcare": "clinic", "operator": "Municipal", "operator_type": "public", "name": "Unidad Sanitaria Doctor Raul Matera", "addr_full": "Florencio Parravicini", "addr_postcode": "1862", "phone": "(02224) 47-6357", "ref_sisa_codigo": 50066482202247, "ref_sisa_tipologia": "ESSIDT", "wikidata": "", "wikipedia": "" }, "geometry": { "type": "Point", "coordinates": [ -58.3792448, -34.9177572 ] } },
{ "type": "Feature", "properties": { "amenity": "clinic", "healthcare": "clinic", "operator": "Municipal", "operator_type": "public", "name": "Unidad Sanitaria General San Martin", "addr_full": "Ecuador Entre Remedios De Escalada Y San Lorenzo", "addr_postcode": "1862", "phone": "", "ref_sisa_codigo": 50066482202309, "ref_sisa_tipologia": "ESSIDT", "wikidata": "", "wikipedia": "" }, "geometry": { "type": "Point", "coordinates": [ -58.38324, -34.927191 ] } },
{ "type": "Feature", "properties": { "amenity": "clinic", "healthcare": "clinic", "operator": "Municipal", "operator_type": "public", "name": "Unidad Sanitaria Guernica", "addr_full": "Avenida Arturo Jauretche Entre 12 Y 14", "addr_postcode": "1862", "phone": "(02224) 47-1472", "ref_sisa_codigo": 50066482202318, "ref_sisa_tipologia": "ESSIDT", "wikidata": "", "wikipedia": "" }, "geometry": { "type": "Point", "coordinates": [ -58.3682309, -34.9157115 ] } },
{ "type": "Feature", "properties": { "amenity": "clinic", "healthcare": "clinic", "operator": "Municipal", "operator_type": "public", "name": "Unidad Sanitaria La Lata", "addr_full": "Ruta Pcial. 16 Y Chivilcoy", "addr_postcode": "1862", "phone": "", "ref_sisa_codigo": 50066482202401, "ref_sisa_tipologia": "ESSIDT", "wikidata": "", "wikipedia": "" }, "geometry": { "type": "Point", "coordinates": [ -58.435613, -34.908197 ] } },
{ "type": "Feature", "properties": { "amenity": "clinic", "healthcare": "clinic", "operator": "Municipal", "operator_type": "public", "name": "Unidad Sanitaria Madre Teresa De Calcuta", "addr_full": "Chascomús  1891 Entre Berisso Y Ensenada", "addr_postcode": "1862", "phone": "02224-490669", "ref_sisa_codigo": 50066482215009, "ref_sisa_tipologia": "ESSIDT", "wikidata": "", "wikipedia": "" }, "geometry": { "type": "Point", "coordinates": [ -58.3462644, -34.9181971 ] } },
{ "type": "Feature", "properties": { "amenity": "clinic", "healthcare": "clinic", "operator": "Municipal", "operator_type": "public", "name": "Unidad Sanitaria Parque Americano", "addr_full": "Panamaribo Y Ciudad De México - Barrio Parque Americano", "addr_postcode": "1862", "phone": "(02224) 47-0513", "ref_sisa_codigo": 50066482202706, "ref_sisa_tipologia": "ESSIDT", "wikidata": "", "wikipedia": "" }, "geometry": { "type": "Point", "coordinates": [ -58.374727, -34.935487 ] } }
]
}
