{
"type": "FeatureCollection",
"name": "030-capital",
"features": [
{ "type": "Feature", "properties": { "amenity": "hospital", "healthcare": "hospital", "operator": "Privado", "operator_type": "private", "name": "Aconcagua Sanatorio Privado", "addr_full": "Rondeau 455", "addr_postcode": "5000", "phone": "0351-5699910", "ref_sisa_codigo": 10140142331292, "ref_sisa_tipologia": "ESCIG", "wikidata": "", "wikipedia": "" }, "geometry": { "type": "Point", "coordinates": [ -64.1807227, -31.4238362 ] } },
{ "type": "Feature", "properties": { "amenity": "clinic", "healthcare": "clinic", "operator": "Provincial", "operator_type": "public", "name": "Banco Central De Sangre De La Provincia De Cordoba", "addr_full": "Rosario De Santa Fe 374", "addr_postcode": "5000", "phone": "", "ref_sisa_codigo": 53140142134291, "ref_sisa_tipologia": "ESCL", "wikidata": "", "wikipedia": "" }, "geometry": { "type": "Point", "coordinates": [ -64.1791427, -31.4175117 ] } },
{ "type": "Feature", "properties": { "amenity": "clinic", "healthcare": "clinic", "operator": "Provincial", "operator_type": "public", "name": "CAPS Centro Integral Materno Infantil Cecilia Grierson", "addr_full": "Entre Rios 650", "addr_postcode": "5000", "phone": "0351-4688625", "ref_sisa_codigo": 50140142133242, "ref_sisa_tipologia": "ESSIDT", "wikidata": "", "wikipedia": "" }, "geometry": { "type": "Point", "coordinates": [ -64.17626, -31.420853 ] } },
{ "type": "Feature", "properties": { "amenity": "clinic", "healthcare": "clinic", "operator": "Provincial", "operator_type": "public", "name": "CAPS Ciudad Ampliacion Ferreyra", "addr_full": "Barrio Ampliacion Ferreyra - Manzana 11", "addr_postcode": "5000", "phone": "", "ref_sisa_codigo": 50140142131383, "ref_sisa_tipologia": "ESSIDT", "wikidata": "", "wikipedia": "" }, "geometry": { "type": "Point", "coordinates": [ -64.186203, -31.3804891 ] } },
{ "type": "Feature", "properties": { "amenity": "clinic", "healthcare": "clinic", "operator": "Provincial", "operator_type": "public", "name": "CAPS Ciudad De Los Cuartetos", "addr_full": "Barrio Ciudad De Los Cuartetos Lote 16 Manzana 34", "addr_postcode": "5000", "phone": "", "ref_sisa_codigo": 50140142131384, "ref_sisa_tipologia": "ESSIDT", "wikidata": "", "wikipedia": "" }, "geometry": { "type": "Point", "coordinates": [ -64.1807099, -31.4191319 ] } },
{ "type": "Feature", "properties": { "amenity": "clinic", "healthcare": "clinic", "operator": "Provincial", "operator_type": "public", "name": "CAPS Ciudad De Los Niños", "addr_full": "Ruta 9 Norte Km 721", "addr_postcode": "5000", "phone": "", "ref_sisa_codigo": 50140142131385, "ref_sisa_tipologia": "ESSIDT", "wikidata": "", "wikipedia": "" }, "geometry": { "type": "Point", "coordinates": [ -64.126882, -31.401431 ] } },
{ "type": "Feature", "properties": { "amenity": "clinic", "healthcare": "clinic", "operator": "Provincial", "operator_type": "public", "name": "CAPS Ciudad De Mis Sueños", "addr_full": "Barrio Ciudad De Mis Sueños - Manzana 45", "addr_postcode": "5000", "phone": "", "ref_sisa_codigo": 50140142131386, "ref_sisa_tipologia": "ESSIDT", "wikidata": "", "wikipedia": "" }, "geometry": { "type": "Point", "coordinates": [ -64.2647694, -31.3718029 ] } },
{ "type": "Feature", "properties": { "amenity": "clinic", "healthcare": "clinic", "operator": "Provincial", "operator_type": "public", "name": "CAPS Ciudad Evita", "addr_full": "Manzana 50\/51- Calle San Lorenzo - Barrio Ciudad Evita - Frente A La Comisaria", "addr_postcode": "5000", "phone": "", "ref_sisa_codigo": 50140142131434, "ref_sisa_tipologia": "ESSIDT", "wikidata": "", "wikipedia": "" }, "geometry": { "type": "Point", "coordinates": [ -64.1800461, -31.4182138 ] } },
{ "type": "Feature", "properties": { "amenity": "clinic", "healthcare": "clinic", "operator": "Provincial", "operator_type": "public", "name": "CAPS Ciudad Obispo Angelelli", "addr_full": "Camino A San Antonio Km 8.5", "addr_postcode": "5000", "phone": "", "ref_sisa_codigo": 50140142131387, "ref_sisa_tipologia": "ESSIDT", "wikidata": "", "wikipedia": "" }, "geometry": { "type": "Point", "coordinates": [ -64.194144, -31.504826 ] } },
{ "type": "Feature", "properties": { "amenity": "clinic", "healthcare": "clinic", "operator": "Provincial", "operator_type": "public", "name": "CAPS Ciudad Villa Retiro", "addr_full": "Barrio Ciudad Villa Retiro - Manzana 14", "addr_postcode": "5000", "phone": "", "ref_sisa_codigo": 50140142131388, "ref_sisa_tipologia": "ESSIDT", "wikidata": "", "wikipedia": "" }, "geometry": { "type": "Point", "coordinates": [ -64.1745529, -31.4109084 ] } },
{ "type": "Feature", "properties": { "amenity": "clinic", "healthcare": "clinic", "operator": "Provincial", "operator_type": "public", "name": "CAPS Cuidad Ampliacion Cabildo", "addr_full": "Congreso6100 Barrio Ampliacion Cabildo", "addr_postcode": "5000", "phone": "", "ref_sisa_codigo": 50140142131390, "ref_sisa_tipologia": "ESSIDT", "wikidata": "", "wikipedia": "" }, "geometry": { "type": "Point", "coordinates": [ -64.1737976, -31.4149909 ] } },
{ "type": "Feature", "properties": { "amenity": "clinic", "healthcare": "clinic", "operator": "Provincial", "operator_type": "public", "name": "CAPS El Chingolo", "addr_full": "Manzana K Lote 7 - Barrio El Chingolo", "addr_postcode": "5000", "phone": "", "ref_sisa_codigo": 50140142131396, "ref_sisa_tipologia": "ESSIDT", "wikidata": "", "wikipedia": "" }, "geometry": { "type": "Point", "coordinates": [ -64.2578259, -31.4041836 ] } },
{ "type": "Feature", "properties": { "amenity": "clinic", "healthcare": "clinic", "operator": "Provincial", "operator_type": "public", "name": "CAPS General Savio", "addr_full": "Escolastico Magan 800", "addr_postcode": "5000", "phone": "0351-153916636", "ref_sisa_codigo": 50140142133241, "ref_sisa_tipologia": "ESSIDT", "wikidata": "", "wikipedia": "" }, "geometry": { "type": "Point", "coordinates": [ -64.155397, -31.371409 ] } },
{ "type": "Feature", "properties": { "amenity": "clinic", "healthcare": "clinic", "operator": "Municipal", "operator_type": "public", "name": "CAPS Ignacio Tisera (Ex Dispensario Municipal)", "addr_full": "9 De Julio 1055", "addr_postcode": "5967", "phone": "3573-480054", "ref_sisa_codigo": 50141192231398, "ref_sisa_tipologia": "ESSIDT", "wikidata": "", "wikipedia": "" }, "geometry": { "type": "Point", "coordinates": [ -64.1978776, -31.4107041 ] } },
{ "type": "Feature", "properties": { "amenity": "clinic", "healthcare": "clinic", "operator": "Provincial", "operator_type": "public", "name": "CAPS Juan Pablo Ii", "addr_full": "Barrio Ciudad Juan Pablo Ii Manzana 106 Lote 1", "addr_postcode": "5000", "phone": "", "ref_sisa_codigo": 50140142131399, "ref_sisa_tipologia": "ESSIDT", "wikidata": "", "wikipedia": "" }, "geometry": { "type": "Point", "coordinates": [ -64.2270927, -31.4345708 ] } },
{ "type": "Feature", "properties": { "amenity": "clinic", "healthcare": "clinic", "operator": "Provincial", "operator_type": "public", "name": "CAPS Mi Esperanza", "addr_full": "Barrio Ciudad Mi Esperanza Manzana 7", "addr_postcode": "5000", "phone": "", "ref_sisa_codigo": 50140142131405, "ref_sisa_tipologia": "ESSIDT", "wikidata": "", "wikipedia": "" }, "geometry": { "type": "Point", "coordinates": [ -64.2647694, -31.3718029 ] } },
{ "type": "Feature", "properties": { "amenity": "clinic", "healthcare": "clinic", "operator": "Provincial", "operator_type": "public", "name": "CAPS Mirizzi", "addr_full": "Viña Del Mar Esquina Carmelo Ibarra", "addr_postcode": "5000", "phone": "", "ref_sisa_codigo": 50140142131406, "ref_sisa_tipologia": "ESSIDT", "wikidata": "", "wikipedia": "" }, "geometry": { "type": "Point", "coordinates": [ -64.2076635, -31.474426 ] } },
{ "type": "Feature", "properties": { "amenity": "clinic", "healthcare": "clinic", "operator": "Provincial", "operator_type": "public", "name": "CAPS Parque Ituzaingo", "addr_full": "Manzana 10 Casa 32 - Barrio Parque Ituzaingo", "addr_postcode": "5000", "phone": "", "ref_sisa_codigo": 50140142131410, "ref_sisa_tipologia": "ESSIDT", "wikidata": "", "wikipedia": "" }, "geometry": { "type": "Point", "coordinates": [ -64.1678753, -31.3700785 ] } },
{ "type": "Feature", "properties": { "amenity": "clinic", "healthcare": "clinic", "operator": "Provincial", "operator_type": "public", "name": "CAPS Parque Las Rosas", "addr_full": "Barrio Ciudad Las Rosas - Calle Amsterdam Entre Roque Arias Y Luis Pasteur", "addr_postcode": "5000", "phone": "", "ref_sisa_codigo": 50140142131411, "ref_sisa_tipologia": "ESSIDT", "wikidata": "", "wikipedia": "" }, "geometry": { "type": "Point", "coordinates": [ -64.2276135, -31.3653198 ] } },
{ "type": "Feature", "properties": { "amenity": "clinic", "healthcare": "clinic", "operator": "Provincial", "operator_type": "public", "name": "CAPS Renacimiento", "addr_full": "Soto 919 - Escuela Panamericana", "addr_postcode": "5000", "phone": "0351-156310155", "ref_sisa_codigo": 50140142131412, "ref_sisa_tipologia": "ESSIDT", "wikidata": "", "wikipedia": "" }, "geometry": { "type": "Point", "coordinates": [ -64.12553, -31.420876 ] } },
{ "type": "Feature", "properties": { "amenity": "clinic", "healthcare": "clinic", "operator": "Provincial", "operator_type": "public", "name": "CAPS San Roque Viejo", "addr_full": "Rosario De Santa Fe 374", "addr_postcode": "5000", "phone": "0351-4342437", "ref_sisa_codigo": 50140142133243, "ref_sisa_tipologia": "ESSIDT", "wikidata": "", "wikipedia": "" }, "geometry": { "type": "Point", "coordinates": [ -64.179134, -31.417463 ] } },
{ "type": "Feature", "properties": { "amenity": "clinic", "healthcare": "clinic", "operator": "Provincial", "operator_type": "public", "name": "CAPS Sol Naciente", "addr_full": "Barrio Ciudad Sol Naciente - Manzana 11", "addr_postcode": "5000", "phone": "", "ref_sisa_codigo": 50140142131414, "ref_sisa_tipologia": "ESSIDT", "wikidata": "", "wikipedia": "" }, "geometry": { "type": "Point", "coordinates": [ -64.241554, -31.329412 ] } },
{ "type": "Feature", "properties": { "amenity": "clinic", "healthcare": "clinic", "operator": "Provincial", "operator_type": "public", "name": "CAPS Villa Boedo", "addr_full": "Barrio Villa Boedo - Escuela Maria Del Transito", "addr_postcode": "5000", "phone": "", "ref_sisa_codigo": 50140142131415, "ref_sisa_tipologia": "ESSIDT", "wikidata": "", "wikipedia": "" }, "geometry": { "type": "Point", "coordinates": [ -64.2350807, -31.4712782 ] } },
{ "type": "Feature", "properties": { "amenity": "clinic", "healthcare": "clinic", "operator": "Provincial", "operator_type": "public", "name": "CAPS Yofre Sur", "addr_full": "Padre Luis Monti 368 - Escuela Antartida Argentina", "addr_postcode": "5000", "phone": "", "ref_sisa_codigo": 50140142131416, "ref_sisa_tipologia": "ESSIDT", "wikidata": "", "wikipedia": "" }, "geometry": { "type": "Point", "coordinates": [ -64.142329, -31.392993 ] } },
{ "type": "Feature", "properties": { "amenity": "clinic", "healthcare": "clinic", "operator": "Provincial", "operator_type": "public", "name": "CAPS Zepa A", "addr_full": "Barrio Zepa A - Manzana 5 - Lote 15", "addr_postcode": "5000", "phone": "", "ref_sisa_codigo": 50140142131417, "ref_sisa_tipologia": "ESSIDT", "wikidata": "", "wikipedia": "" }, "geometry": { "type": "Point", "coordinates": [ -64.110203, -31.389067 ] } },
{ "type": "Feature", "properties": { "amenity": "clinic", "healthcare": "clinic", "operator": "Municipal", "operator_type": "public", "name": "Cenro De Salud 1 - Barrio General Mosconi", "addr_full": "Pedro Naon 1330", "addr_postcode": "5000", "phone": "0351-4335102", "ref_sisa_codigo": 50140142133186, "ref_sisa_tipologia": "ESSIDT", "wikidata": "", "wikipedia": "" }, "geometry": { "type": "Point", "coordinates": [ -64.148944, -31.364879 ] } },
{ "type": "Feature", "properties": { "amenity": "clinic", "healthcare": "clinic", "operator": "Provincial", "operator_type": "public", "name": "Centro Alto Rendimiento Deportivo - Agencia Cordoba Deportes", "addr_full": "Av. Cárcano S\/N", "addr_postcode": "5000", "phone": "0351-4348360", "ref_sisa_codigo": 50140142133609, "ref_sisa_tipologia": "ESSIDT", "wikidata": "", "wikipedia": "" }, "geometry": { "type": "Point", "coordinates": [ -64.1717224, -31.3921375 ] } },
{ "type": "Feature", "properties": { "amenity": "clinic", "healthcare": "clinic", "operator": "Municipal", "operator_type": "public", "name": "CAPS De Piquillin", "addr_full": "25 De Mayo 40", "addr_postcode": "5125", "phone": "(03574) 494-002\/107", "ref_sisa_codigo": 50141052231732, "ref_sisa_tipologia": "ESSIDT", "wikidata": "", "wikipedia": "" }, "geometry": { "type": "Point", "coordinates": [ -64.1829847, -31.4151141 ] } },
{ "type": "Feature", "properties": { "amenity": "clinic", "healthcare": "clinic", "operator": "Municipal", "operator_type": "public", "name": "CAPS Las Flores", "addr_full": "Avellaneda", "addr_postcode": "5151", "phone": "03543-469 660", "ref_sisa_codigo": 50140212235047, "ref_sisa_tipologia": "ESSIDT", "wikidata": "", "wikipedia": "" }, "geometry": { "type": "Point", "coordinates": [ -64.3060397, -31.316489 ] } },
{ "type": "Feature", "properties": { "amenity": "clinic", "healthcare": "clinic", "operator": "Provincial", "operator_type": "public", "name": "Centro De Rehabilitacion Hospital Misericordia", "addr_full": "Rosario De Santa Fe 374", "addr_postcode": "5000", "phone": "0351-4334365", "ref_sisa_codigo": 50140142133245, "ref_sisa_tipologia": "ESSIDT", "wikidata": "", "wikipedia": "" }, "geometry": { "type": "Point", "coordinates": [ -64.1791427, -31.4175117 ] } },
{ "type": "Feature", "properties": { "amenity": "clinic", "healthcare": "clinic", "operator": "Provincial", "operator_type": "public", "name": "Centro De Rehabilitacion Hospital Pediatrico Del Niño Jesus", "addr_full": "Castro Barros 650", "addr_postcode": "5000", "phone": "0351-4346060 int. 236", "ref_sisa_codigo": 50140142133406, "ref_sisa_tipologia": "ESSIDT", "wikidata": "", "wikipedia": "" }, "geometry": { "type": "Point", "coordinates": [ -64.197817, -31.399259 ] } },
{ "type": "Feature", "properties": { "amenity": "clinic", "healthcare": "clinic", "operator": "Provincial", "operator_type": "public", "name": "Centro De Rehabilitacion Sierras Chicas", "addr_full": "Rio Negro 441", "addr_postcode": "5109", "phone": "", "ref_sisa_codigo": 50140212133404, "ref_sisa_tipologia": "ESSIDT", "wikidata": "", "wikipedia": "" }, "geometry": { "type": "Point", "coordinates": [ -64.206824, -31.414388 ] } },
{ "type": "Feature", "properties": { "amenity": "clinic", "healthcare": "clinic", "operator": "Provincial", "operator_type": "public", "name": "Centro De Rehabilitacion Socio Laboral", "addr_full": "Américo Vespucio Esq. Arenales -  Barrio Juniors", "addr_postcode": "5000", "phone": "0351-4342432", "ref_sisa_codigo": 50140142333141, "ref_sisa_tipologia": "ESSIDT", "wikidata": "", "wikipedia": "" }, "geometry": { "type": "Point", "coordinates": [ -64.1595554, -31.4208263 ] } },
{ "type": "Feature", "properties": { "amenity": "clinic", "healthcare": "clinic", "operator": "Municipal", "operator_type": "public", "name": "Centro De Salud Charras", "addr_full": "San Martin 528", "addr_postcode": "5807", "phone": "0358-4885006", "ref_sisa_codigo": 50140562232293, "ref_sisa_tipologia": "ESSIDT", "wikidata": "", "wikipedia": "" }, "geometry": { "type": "Point", "coordinates": [ -64.1812594, -31.4098607 ] } },
{ "type": "Feature", "properties": { "amenity": "clinic", "healthcare": "clinic", "operator": "Provincial", "operator_type": "public", "name": "Centro De Salud Del Complejo Esperanza", "addr_full": "Camino 60 Cuadras Km 3 Y 1\/2", "addr_postcode": "5000", "phone": "0351-156150351", "ref_sisa_codigo": 52140142134548, "ref_sisa_tipologia": "ESSIT", "wikidata": "", "wikipedia": "" }, "geometry": { "type": "Point", "coordinates": [ -64.1478395, -31.4779396 ] } },
{ "type": "Feature", "properties": { "amenity": "clinic", "healthcare": "clinic", "operator": "Municipal", "operator_type": "public", "name": "Centro De Salud Los Cedros", "addr_full": "Aniseto Granado S\/N°", "addr_postcode": "5101", "phone": "0351-156626150", "ref_sisa_codigo": 50141472231444, "ref_sisa_tipologia": "ESSIDT", "wikidata": "", "wikipedia": "" }, "geometry": { "type": "Point", "coordinates": [ -64.1257782, -31.34531 ] } },
{ "type": "Feature", "properties": { "amenity": "clinic", "healthcare": "clinic", "operator": "Municipal", "operator_type": "public", "name": "Centro De Salud 10 - Barrio Colonia Lola", "addr_full": "Lola Mora 1340", "addr_postcode": "5000", "phone": "0351-4338763", "ref_sisa_codigo": 50140142233656, "ref_sisa_tipologia": "ESSIDT", "wikidata": "", "wikipedia": "" }, "geometry": { "type": "Point", "coordinates": [ -64.115102, -31.424909 ] } },
{ "type": "Feature", "properties": { "amenity": "clinic", "healthcare": "clinic", "operator": "Municipal", "operator_type": "public", "name": "Centro De Salud 13 - Barrio Hipolito Yrigoyen", "addr_full": "Avellaneda 3571", "addr_postcode": "5000", "phone": "0351-4335435", "ref_sisa_codigo": 50140142133188, "ref_sisa_tipologia": "ESSIDT", "wikidata": "", "wikipedia": "" }, "geometry": { "type": "Point", "coordinates": [ -64.1869, -31.372877 ] } },
{ "type": "Feature", "properties": { "amenity": "clinic", "healthcare": "clinic", "operator": "Municipal", "operator_type": "public", "name": "Centro De Salud 14 - General Bustos", "addr_full": "Diagonal Ica 990", "addr_postcode": "5000", "phone": "0351-4336003", "ref_sisa_codigo": 50140142133189, "ref_sisa_tipologia": "ESSIDT", "wikidata": "", "wikipedia": "" }, "geometry": { "type": "Point", "coordinates": [ -64.163883, -31.387217 ] } },
{ "type": "Feature", "properties": { "amenity": "clinic", "healthcare": "clinic", "operator": "Municipal", "operator_type": "public", "name": "Centro De Salud 15 - Barrio Remedios De Escalada", "addr_full": "Calle 5 Entre 14 Y 15", "addr_postcode": "5000", "phone": "0351-4332860", "ref_sisa_codigo": 50140142133190, "ref_sisa_tipologia": "ESSIDT", "wikidata": "", "wikipedia": "" }, "geometry": { "type": "Point", "coordinates": [ -64.1792965, -31.3395702 ] } },
{ "type": "Feature", "properties": { "amenity": "clinic", "healthcare": "clinic", "operator": "Municipal", "operator_type": "public", "name": "Centro De Salud 16 - Barrio Zumaran", "addr_full": "Sebastian Gaboto 2356", "addr_postcode": "5000", "phone": "0351-4335108", "ref_sisa_codigo": 50140142233272, "ref_sisa_tipologia": "ESSIDT", "wikidata": "", "wikipedia": "" }, "geometry": { "type": "Point", "coordinates": [ -64.205031, -31.375268 ] } },
{ "type": "Feature", "properties": { "amenity": "clinic", "healthcare": "clinic", "operator": "Municipal", "operator_type": "public", "name": "Centro De Salud 17 - Barrio Villa Azalais Oeste", "addr_full": "Acampis Esq. Gernuchoff", "addr_postcode": "5000", "phone": "0351-4335109", "ref_sisa_codigo": 50140142133191, "ref_sisa_tipologia": "ESSIDT", "wikidata": "", "wikipedia": "" }, "geometry": { "type": "Point", "coordinates": [ -64.1703701, -31.3844679 ] } },
{ "type": "Feature", "properties": { "amenity": "clinic", "healthcare": "clinic", "operator": "Municipal", "operator_type": "public", "name": "Centro De Salud 18 - Barrio San Jorge", "addr_full": "Barrancas Del Paraná Esq. José Melian", "addr_postcode": "5000", "phone": "", "ref_sisa_codigo": 50140142133192, "ref_sisa_tipologia": "ESSIDT", "wikidata": "", "wikipedia": "" }, "geometry": { "type": "Point", "coordinates": [ -64.1332054, -31.3742458 ] } },
{ "type": "Feature", "properties": { "amenity": "clinic", "healthcare": "clinic", "operator": "Municipal", "operator_type": "public", "name": "Centro De Salud 19 - Barrio Sargento Cabral", "addr_full": "Francisco Suarez 3170", "addr_postcode": "5000", "phone": "0351-4335110", "ref_sisa_codigo": 50140142133193, "ref_sisa_tipologia": "ESSIDT", "wikidata": "", "wikipedia": "" }, "geometry": { "type": "Point", "coordinates": [ -64.194905, -31.375817 ] } },
{ "type": "Feature", "properties": { "amenity": "clinic", "healthcare": "clinic", "operator": "Municipal", "operator_type": "public", "name": "Centro De Salud 20 - Barrio Las Margaritas", "addr_full": "Herminio Malvino 2662", "addr_postcode": "5000", "phone": "0351-4335104", "ref_sisa_codigo": 50140142233657, "ref_sisa_tipologia": "ESSIDT", "wikidata": "", "wikipedia": "" }, "geometry": { "type": "Point", "coordinates": [ -64.209716, -31.377743 ] } },
{ "type": "Feature", "properties": { "amenity": "clinic", "healthcare": "clinic", "operator": "Municipal", "operator_type": "public", "name": "Centro De Salud 21 - Barrio Marques De Sobremonte", "addr_full": "Nulfo De Aguilar 550 Esq. T. Irobi", "addr_postcode": "5000", "phone": "0351-4335105", "ref_sisa_codigo": 50140142233273, "ref_sisa_tipologia": "ESSIDT", "wikidata": "", "wikipedia": "" }, "geometry": { "type": "Point", "coordinates": [ -64.195692, -31.364209 ] } },
{ "type": "Feature", "properties": { "amenity": "clinic", "healthcare": "clinic", "operator": "Municipal", "operator_type": "public", "name": "Centro De Salud 22 - Barrio Alberdi", "addr_full": "Gabuno Blanco 2229 Esq. Avalos", "addr_postcode": "5000", "phone": "0351 - 4337310", "ref_sisa_codigo": 50140142233252, "ref_sisa_tipologia": "ESSIDT", "wikidata": "", "wikipedia": "" }, "geometry": { "type": "Point", "coordinates": [ -64.213589, -31.412531 ] } },
{ "type": "Feature", "properties": { "amenity": "clinic", "healthcare": "clinic", "operator": "Municipal", "operator_type": "public", "name": "Centro De Salud 23 - Barrio Rosedal Anexo", "addr_full": "Padre Lozano 2490  Esq. Lagunilla", "addr_postcode": "5000", "phone": "0351-4333302", "ref_sisa_codigo": 50140142233251, "ref_sisa_tipologia": "ESSIDT", "wikidata": "", "wikipedia": "" }, "geometry": { "type": "Point", "coordinates": [ -64.223353, -31.437232 ] } },
{ "type": "Feature", "properties": { "amenity": "clinic", "healthcare": "clinic", "operator": "Municipal", "operator_type": "public", "name": "Centro De Salud 24 - Barrio Cupani", "addr_full": "Isaac Albeniz 1454", "addr_postcode": "5000", "phone": "0351-4333303", "ref_sisa_codigo": 50140142233257, "ref_sisa_tipologia": "ESSIDT", "wikidata": "", "wikipedia": "" }, "geometry": { "type": "Point", "coordinates": [ -64.207934, -31.423799 ] } },
{ "type": "Feature", "properties": { "amenity": "clinic", "healthcare": "clinic", "operator": "Municipal", "operator_type": "public", "name": "Centro De Salud 25 - Barrio San Martin", "addr_full": "Uspallata 991", "addr_postcode": "5000", "phone": "0351-4336021", "ref_sisa_codigo": 50140142133196, "ref_sisa_tipologia": "ESSIDT", "wikidata": "", "wikipedia": "" }, "geometry": { "type": "Point", "coordinates": [ -64.19652, -31.394821 ] } },
{ "type": "Feature", "properties": { "amenity": "clinic", "healthcare": "clinic", "operator": "Municipal", "operator_type": "public", "name": "Centro De Salud 26 - Barrio La Madrid", "addr_full": "Gurruchaga 785", "addr_postcode": "5000", "phone": "0351-4337306", "ref_sisa_codigo": 50140142233663, "ref_sisa_tipologia": "ESSIDT", "wikidata": "", "wikipedia": "" }, "geometry": { "type": "Point", "coordinates": [ -64.232433, -31.414229 ] } },
{ "type": "Feature", "properties": { "amenity": "clinic", "healthcare": "clinic", "operator": "Municipal", "operator_type": "public", "name": "Centro De Salud 27 - Barrio Pilar", "addr_full": "Tapalque 2806", "addr_postcode": "5000", "phone": "0351-4338553", "ref_sisa_codigo": 50140142233660, "ref_sisa_tipologia": "ESSIDT", "wikidata": "", "wikipedia": "" }, "geometry": { "type": "Point", "coordinates": [ -64.159097, -31.443952 ] } },
{ "type": "Feature", "properties": { "amenity": "clinic", "healthcare": "clinic", "operator": "Municipal", "operator_type": "public", "name": "Centro De Salud 28 - Barrio Las Violetas", "addr_full": "Formosa Esq. Locatelli", "addr_postcode": "5000", "phone": "0351-4337302", "ref_sisa_codigo": 50140142233658, "ref_sisa_tipologia": "ESSIDT", "wikidata": "", "wikipedia": "" }, "geometry": { "type": "Point", "coordinates": [ -64.2480898, -31.4109437 ] } },
{ "type": "Feature", "properties": { "amenity": "clinic", "healthcare": "clinic", "operator": "Municipal", "operator_type": "public", "name": "Centro De Salud 31 - Barrio La Salle", "addr_full": "Curaquen 6500", "addr_postcode": "5000", "phone": "03543-449427", "ref_sisa_codigo": 50140142233260, "ref_sisa_tipologia": "ESSIDT", "wikidata": "", "wikipedia": "" }, "geometry": { "type": "Point", "coordinates": [ -64.274985, -31.343848 ] } },
{ "type": "Feature", "properties": { "amenity": "clinic", "healthcare": "clinic", "operator": "Municipal", "operator_type": "public", "name": "Centro De Salud 32 - Barrio Yapeyu", "addr_full": "Loreto 48", "addr_postcode": "5000", "phone": "0351-4339110", "ref_sisa_codigo": 50140142233655, "ref_sisa_tipologia": "ESSIDT", "wikidata": "", "wikipedia": "" }, "geometry": { "type": "Point", "coordinates": [ -64.149728, -31.41235 ] } },
{ "type": "Feature", "properties": { "amenity": "clinic", "healthcare": "clinic", "operator": "Municipal", "operator_type": "public", "name": "Centro De Salud 33 - Barrio Arguello", "addr_full": "Avenida Donato Alvarez 7375", "addr_postcode": "5000", "phone": "0351-4338335", "ref_sisa_codigo": 50140142233271, "ref_sisa_tipologia": "ESSIDT", "wikidata": "", "wikipedia": "" }, "geometry": { "type": "Point", "coordinates": [ -64.259771, -31.336906 ] } },
{ "type": "Feature", "properties": { "amenity": "clinic", "healthcare": "clinic", "operator": "Municipal", "operator_type": "public", "name": "Centro De Salud 34 Los Nogales - Barrio 9 De Julio", "addr_full": "Coquena 7892 Esq Huarpes", "addr_postcode": "5000", "phone": "03543-449422", "ref_sisa_codigo": 50140142233669, "ref_sisa_tipologia": "ESSIDT", "wikidata": "", "wikipedia": "" }, "geometry": { "type": "Point", "coordinates": [ -64.271122, -31.32879 ] } },
{ "type": "Feature", "properties": { "amenity": "clinic", "healthcare": "clinic", "operator": "Municipal", "operator_type": "public", "name": "Centro De Salud 38 - Barrio Urquiza", "addr_full": "Miguel De Marmol 2956", "addr_postcode": "5000", "phone": "0351-4338555", "ref_sisa_codigo": 50140142233665, "ref_sisa_tipologia": "ESSIDT", "wikidata": "", "wikipedia": "" }, "geometry": { "type": "Point", "coordinates": [ -64.147792, -31.439291 ] } },
{ "type": "Feature", "properties": { "amenity": "clinic", "healthcare": "clinic", "operator": "Municipal", "operator_type": "public", "name": "Centro De Salud 39 - Barrio Ferrer", "addr_full": "Bustos Y Ferreyra 3100", "addr_postcode": "5000", "phone": "0351-4334355", "ref_sisa_codigo": 50140142233258, "ref_sisa_tipologia": "ESSIDT", "wikidata": "", "wikipedia": "" }, "geometry": { "type": "Point", "coordinates": [ -64.210907, -31.445049 ] } },
{ "type": "Feature", "properties": { "amenity": "clinic", "healthcare": "clinic", "operator": "Municipal", "operator_type": "public", "name": "Centro De Salud 4 - Barrio Nueva Italia", "addr_full": "José De Quevedo S\/N Esq. Dos Barrios", "addr_postcode": "5000", "phone": "", "ref_sisa_codigo": 50140142133187, "ref_sisa_tipologia": "ESSIDT", "wikidata": "", "wikipedia": "" }, "geometry": { "type": "Point", "coordinates": [ -64.1431189, -31.3819766 ] } },
{ "type": "Feature", "properties": { "amenity": "clinic", "healthcare": "clinic", "operator": "Municipal", "operator_type": "public", "name": "Centro De Salud 40 - Barrio Las Flores", "addr_full": "Avenida Armada Argentina 105", "addr_postcode": "5000", "phone": "0351-4334353", "ref_sisa_codigo": 50140142233256, "ref_sisa_tipologia": "ESSIDT", "wikidata": "", "wikipedia": "" }, "geometry": { "type": "Point", "coordinates": [ -64.202038, -31.451078 ] } },
{ "type": "Feature", "properties": { "amenity": "clinic", "healthcare": "clinic", "operator": "Municipal", "operator_type": "public", "name": "Centro De Salud 41 - Barrio Villa El Libertador", "addr_full": "Chiclayo 150", "addr_postcode": "5000", "phone": "0351-4333211", "ref_sisa_codigo": 50140142233664, "ref_sisa_tipologia": "ESSIDT", "wikidata": "", "wikipedia": "" }, "geometry": { "type": "Point", "coordinates": [ -64.216121, -31.475212 ] } },
{ "type": "Feature", "properties": { "amenity": "clinic", "healthcare": "clinic", "operator": "Municipal", "operator_type": "public", "name": "Centro De Salud 44 - Barrio Bella Vista", "addr_full": "Alejandro Dumas Esq. Venus", "addr_postcode": "5000", "phone": "0351-4334281", "ref_sisa_codigo": 50140142233270, "ref_sisa_tipologia": "ESSIDT", "wikidata": "", "wikipedia": "" }, "geometry": { "type": "Point", "coordinates": [ -64.208826, -31.434504 ] } },
{ "type": "Feature", "properties": { "amenity": "clinic", "healthcare": "clinic", "operator": "Municipal", "operator_type": "public", "name": "Centro De Salud 45 - Barrio Cabo Farina", "addr_full": "Viña Del Mar 4651", "addr_postcode": "5000", "phone": "0351-4334356", "ref_sisa_codigo": 50140142233255, "ref_sisa_tipologia": "ESSIDT", "wikidata": "", "wikipedia": "" }, "geometry": { "type": "Point", "coordinates": [ -64.205264, -31.463705 ] } },
{ "type": "Feature", "properties": { "amenity": "clinic", "healthcare": "clinic", "operator": "Municipal", "operator_type": "public", "name": "Centro De Salud 46 - Barrio Santa Isabel", "addr_full": "Altos Del Tala S\/N", "addr_postcode": "5000", "phone": "0351-4333313", "ref_sisa_codigo": 50140142233661, "ref_sisa_tipologia": "ESSIDT", "wikidata": "", "wikipedia": "" }, "geometry": { "type": "Point", "coordinates": [ -64.2296791, -31.4773174 ] } },
{ "type": "Feature", "properties": { "amenity": "clinic", "healthcare": "clinic", "operator": "Municipal", "operator_type": "public", "name": "Centro De Salud 48 - Barrio Villa Azalais Este", "addr_full": "Milan 2960", "addr_postcode": "5000", "phone": "0351-4335106", "ref_sisa_codigo": 50140142133194, "ref_sisa_tipologia": "ESSIDT", "wikidata": "", "wikipedia": "" }, "geometry": { "type": "Point", "coordinates": [ -64.15064, -31.375384 ] } },
{ "type": "Feature", "properties": { "amenity": "clinic", "healthcare": "clinic", "operator": "Municipal", "operator_type": "public", "name": "Centro De Salud 49 - Barrio Colinas Del Cerro", "addr_full": "Las Acacias S\/N Esq. Ramón Mestre", "addr_postcode": "5000", "phone": "0351-4338405", "ref_sisa_codigo": 50140142233259, "ref_sisa_tipologia": "ESSIDT", "wikidata": "", "wikipedia": "" }, "geometry": { "type": "Point", "coordinates": [ -64.248928, -31.380533 ] } },
{ "type": "Feature", "properties": { "amenity": "clinic", "healthcare": "clinic", "operator": "Municipal", "operator_type": "public", "name": "Centro De Salud 5 - Barrio Yofre Norte", "addr_full": "Clairac 1875", "addr_postcode": "5000", "phone": "0351-4339103", "ref_sisa_codigo": 50140142233204, "ref_sisa_tipologia": "ESSIDT", "wikidata": "", "wikipedia": "" }, "geometry": { "type": "Point", "coordinates": [ -64.130406, -31.386711 ] } },
{ "type": "Feature", "properties": { "amenity": "clinic", "healthcare": "clinic", "operator": "Municipal", "operator_type": "public", "name": "Centro De Salud 50 - Barrio Villa Adela", "addr_full": "Gabriela Mistral 4711", "addr_postcode": "5000", "phone": "0351-4333304", "ref_sisa_codigo": 50140142233666, "ref_sisa_tipologia": "ESSIDT", "wikidata": "", "wikipedia": "" }, "geometry": { "type": "Point", "coordinates": [ -64.248195, -31.435802 ] } },
{ "type": "Feature", "properties": { "amenity": "clinic", "healthcare": "clinic", "operator": "Municipal", "operator_type": "public", "name": "Centro De Salud 51 - Barrio Guiñazu", "addr_full": "De La Caja Esq. Del Erquencho - Cno. A Jesús María", "addr_postcode": "5000", "phone": "0351-4995883", "ref_sisa_codigo": 50140142133195, "ref_sisa_tipologia": "ESSIDT", "wikidata": "", "wikipedia": "" }, "geometry": { "type": "Point", "coordinates": [ -64.177022, -31.3145029 ] } },
{ "type": "Feature", "properties": { "amenity": "clinic", "healthcare": "clinic", "operator": "Municipal", "operator_type": "public", "name": "Centro De Salud 52 - Barrio Villa Urquiza", "addr_full": "Humberto Primo 4884", "addr_postcode": "5000", "phone": "0351-4337338", "ref_sisa_codigo": 50140142233470, "ref_sisa_tipologia": "ESSIDT", "wikidata": "", "wikipedia": "" }, "geometry": { "type": "Point", "coordinates": [ -64.241435, -31.392039 ] } },
{ "type": "Feature", "properties": { "amenity": "clinic", "healthcare": "clinic", "operator": "Municipal", "operator_type": "public", "name": "Centro De Salud 53 - Barrio Inaudi", "addr_full": "Pasaje Teniente Nivoli (Al Lado Del Precinto)", "addr_postcode": "5000", "phone": "0351-4333314", "ref_sisa_codigo": 50140142233268, "ref_sisa_tipologia": "ESSIDT", "wikidata": "", "wikipedia": "" }, "geometry": { "type": "Point", "coordinates": [ -64.19198, -31.476622 ] } },
{ "type": "Feature", "properties": { "amenity": "clinic", "healthcare": "clinic", "operator": "Municipal", "operator_type": "public", "name": "Centro De Salud 54 - Barrio Los Boulevares", "addr_full": "Bv. De Los Hungaros Esq. De Los Lombardos", "addr_postcode": "5000", "phone": "0351-4335442", "ref_sisa_codigo": 50140142233261, "ref_sisa_tipologia": "ESSIDT", "wikidata": "", "wikipedia": "" }, "geometry": { "type": "Point", "coordinates": [ -64.21786, -31.344273 ] } },
{ "type": "Feature", "properties": { "amenity": "clinic", "healthcare": "clinic", "operator": "Municipal", "operator_type": "public", "name": "Centro De Salud 56 - Barrio Empalme", "addr_full": "Ariza 4800 (Entre Samaniego Y Pichanas)", "addr_postcode": "5000", "phone": "0351-4338561", "ref_sisa_codigo": 50140142233211, "ref_sisa_tipologia": "ESSIDT", "wikidata": "", "wikipedia": "" }, "geometry": { "type": "Point", "coordinates": [ -64.1225195, -31.4320101 ] } },
{ "type": "Feature", "properties": { "amenity": "clinic", "healthcare": "clinic", "operator": "Municipal", "operator_type": "public", "name": "Centro De Salud 57 - Barrio Arguello Ipv", "addr_full": "Mariano Martin S\/N Esq. Feje", "addr_postcode": "5000", "phone": "03543-449432", "ref_sisa_codigo": 50140142233262, "ref_sisa_tipologia": "ESSIDT", "wikidata": "", "wikipedia": "" }, "geometry": { "type": "Point", "coordinates": [ -64.2507935, -31.3498254 ] } },
{ "type": "Feature", "properties": { "amenity": "clinic", "healthcare": "clinic", "operator": "Municipal", "operator_type": "public", "name": "Centro De Salud 59 - Barrio Congreso", "addr_full": "Av. Curazao Esq. Ralico", "addr_postcode": "5000", "phone": "0351-4333305", "ref_sisa_codigo": 50140142233267, "ref_sisa_tipologia": "ESSIDT", "wikidata": "", "wikipedia": "" }, "geometry": { "type": "Point", "coordinates": [ -64.232472, -31.467673 ] } },
{ "type": "Feature", "properties": { "amenity": "clinic", "healthcare": "clinic", "operator": "Municipal", "operator_type": "public", "name": "Centro De Salud 61 - Barrio El Cerrito", "addr_full": "Mario Sesserego Esq Domingo Mariman", "addr_postcode": "5000", "phone": "03543-449421", "ref_sisa_codigo": 50140142233274, "ref_sisa_tipologia": "ESSIDT", "wikidata": "", "wikipedia": "" }, "geometry": { "type": "Point", "coordinates": [ -64.24863, -31.324955 ] } },
{ "type": "Feature", "properties": { "amenity": "clinic", "healthcare": "clinic", "operator": "Municipal", "operator_type": "public", "name": "Centro De Salud 62 - Villa Cornu", "addr_full": "Llanquen 9400", "addr_postcode": "5000", "phone": "0351-4337818", "ref_sisa_codigo": 50140142133202, "ref_sisa_tipologia": "ESSIDT", "wikidata": "", "wikipedia": "" }, "geometry": { "type": "Point", "coordinates": [ -64.269524, -31.314208 ] } },
{ "type": "Feature", "properties": { "amenity": "clinic", "healthcare": "clinic", "operator": "Municipal", "operator_type": "public", "name": "Centro De Salud 63 - Barrio Parque Republica", "addr_full": "Namuncurá Esq. Rosas", "addr_postcode": "5000", "phone": "0351-4337818", "ref_sisa_codigo": 50140142133201, "ref_sisa_tipologia": "ESSIDT", "wikidata": "", "wikipedia": "" }, "geometry": { "type": "Point", "coordinates": [ -64.2592907, -31.4155086 ] } },
{ "type": "Feature", "properties": { "amenity": "clinic", "healthcare": "clinic", "operator": "Municipal", "operator_type": "public", "name": "Centro De Salud 64 - Barrio Bialet Masse", "addr_full": "Los Hornillos 2300", "addr_postcode": "5000", "phone": "0351-4334288", "ref_sisa_codigo": 50140142233675, "ref_sisa_tipologia": "ESSIDT", "wikidata": "", "wikipedia": "" }, "geometry": { "type": "Point", "coordinates": [ -64.165172, -31.452489 ] } },
{ "type": "Feature", "properties": { "amenity": "clinic", "healthcare": "clinic", "operator": "Municipal", "operator_type": "public", "name": "Centro De Salud 7 - Barrio Pueyrredon", "addr_full": "Pje. Urtybey Esq. Faray Bracco", "addr_postcode": "5000", "phone": "0351-4339135", "ref_sisa_codigo": 50140142233205, "ref_sisa_tipologia": "ESSIDT", "wikidata": "", "wikipedia": "" }, "geometry": { "type": "Point", "coordinates": [ -64.154942, -31.4002862 ] } },
{ "type": "Feature", "properties": { "amenity": "clinic", "healthcare": "clinic", "operator": "Municipal", "operator_type": "public", "name": "Centro De Salud 8 - Barrio Acosta", "addr_full": "Corrientes 4309 Esq. Río Paraná", "addr_postcode": "5000", "phone": "0351-4338551", "ref_sisa_codigo": 50140142233206, "ref_sisa_tipologia": "ESSIDT", "wikidata": "", "wikipedia": "" }, "geometry": { "type": "Point", "coordinates": [ -64.1301651, -31.4224701 ] } },
{ "type": "Feature", "properties": { "amenity": "clinic", "healthcare": "clinic", "operator": "Municipal", "operator_type": "public", "name": "Centro De Salud 9 - Barrio Alberdi Oeste", "addr_full": "Dr. Pedro Chutro 169", "addr_postcode": "5000", "phone": "0351-4337909", "ref_sisa_codigo": 50140142233254, "ref_sisa_tipologia": "ESSIDT", "wikidata": "", "wikipedia": "" }, "geometry": { "type": "Point", "coordinates": [ -64.213933, -31.40491 ] } },
{ "type": "Feature", "properties": { "amenity": "clinic", "healthcare": "clinic", "operator": "Municipal", "operator_type": "public", "name": "Centro De Salud 60 - Barrio Marquez Anexo", "addr_full": "Del Molino Esq. Del Precursor", "addr_postcode": "5000", "phone": "0351-4335122", "ref_sisa_codigo": 50140142233263, "ref_sisa_tipologia": "ESSIDT", "wikidata": "", "wikipedia": "" }, "geometry": { "type": "Point", "coordinates": [ -64.190565, -31.371978 ] } },
{ "type": "Feature", "properties": { "amenity": "hospital", "healthcare": "hospital", "operator": "Privado", "operator_type": "private", "name": "Centro Integral De Ginecologia Obstetricia Y Reproduccion Cigor", "addr_full": "Boulevard Chacabuco 1089", "addr_postcode": "5000", "phone": "0351-4694466", "ref_sisa_codigo": 10140142334136, "ref_sisa_tipologia": "ESCIG", "wikidata": "", "wikipedia": "" }, "geometry": { "type": "Point", "coordinates": [ -64.1851253, -31.4297664 ] } },
{ "type": "Feature", "properties": { "amenity": "hospital", "healthcare": "hospital", "operator": "Provincial", "operator_type": "public", "name": "Centro Medico Complejo Carcelario 1 Reverendo Padre Luchesse", "addr_full": "Ruta Nacional 36 Km 797", "addr_postcode": "5000", "phone": "351-434 2613", "ref_sisa_codigo": 10140142135177, "ref_sisa_tipologia": "ESCIG", "wikidata": "", "wikipedia": "" }, "geometry": { "type": "Point", "coordinates": [ -64.2027812, -31.465501 ] } },
{ "type": "Feature", "properties": { "amenity": "hospital", "healthcare": "hospital", "operator": "Privado", "operator_type": "private", "name": "Centro Privado De Cirugia Plastica Doctor Rafael Cinelli", "addr_full": "Manuel Pizarro 2072", "addr_postcode": "5000", "phone": "0351-4812726", "ref_sisa_codigo": 10140142334320, "ref_sisa_tipologia": "ESCIG", "wikidata": "", "wikipedia": "" }, "geometry": { "type": "Point", "coordinates": [ -64.236201, -31.365244 ] } },
{ "type": "Feature", "properties": { "amenity": "hospital", "healthcare": "hospital", "operator": "Privado", "operator_type": "private", "name": "Clinica Chutro S.r.l.", "addr_full": "Avenida Colón 788", "addr_postcode": "5000", "phone": "0351-4222027", "ref_sisa_codigo": 10140142331030, "ref_sisa_tipologia": "ESCIG", "wikidata": "", "wikipedia": "" }, "geometry": { "type": "Point", "coordinates": [ -64.1937642, -31.4103486 ] } },
{ "type": "Feature", "properties": { "amenity": "hospital", "healthcare": "hospital", "operator": "Privado", "operator_type": "private", "name": "Clinica De La Familia I", "addr_full": "25 De Mayo 881", "addr_postcode": "5000", "phone": "4251010", "ref_sisa_codigo": 10140142331007, "ref_sisa_tipologia": "ESCIG", "wikidata": "", "wikipedia": "" }, "geometry": { "type": "Point", "coordinates": [ -64.1708052, -31.4162092 ] } },
{ "type": "Feature", "properties": { "amenity": "hospital", "healthcare": "hospital", "operator": "Privado", "operator_type": "private", "name": "Clinica De La Salud Y El Trabajo", "addr_full": "Deán Funes 581", "addr_postcode": "5000", "phone": "0351-4114528", "ref_sisa_codigo": 10140142333233, "ref_sisa_tipologia": "ESCIG", "wikidata": "", "wikipedia": "" }, "geometry": { "type": "Point", "coordinates": [ -64.1918775, -31.4137528 ] } },
{ "type": "Feature", "properties": { "amenity": "hospital", "healthcare": "hospital", "operator": "Privado", "operator_type": "private", "name": "Clinica Privada Caraffa S.r.l.", "addr_full": "Avenida Emilio Caraffa 2532", "addr_postcode": "5000", "phone": "0351-4800641", "ref_sisa_codigo": 10140142331025, "ref_sisa_tipologia": "ESCIG", "wikidata": "", "wikipedia": "" }, "geometry": { "type": "Point", "coordinates": [ -64.2130353, -31.3875225 ] } },
{ "type": "Feature", "properties": { "amenity": "hospital", "healthcare": "hospital", "operator": "Privado", "operator_type": "private", "name": "Clinica Privada Del Prado S.r.l", "addr_full": "Deán Funes 1162", "addr_postcode": "5016", "phone": "0351-4261971", "ref_sisa_codigo": 10140142331046, "ref_sisa_tipologia": "ESCIG", "wikidata": "", "wikipedia": "" }, "geometry": { "type": "Point", "coordinates": [ -64.1997467, -31.4111997 ] } },
{ "type": "Feature", "properties": { "amenity": "hospital", "healthcare": "hospital", "operator": "Privado", "operator_type": "private", "name": "Clinica Privada Del Sol S.a", "addr_full": "Boulevard Chacabuco 709", "addr_postcode": "5000", "phone": "0351-5680600", "ref_sisa_codigo": 10140142333303, "ref_sisa_tipologia": "ESCIG", "wikidata": "", "wikipedia": "" }, "geometry": { "type": "Point", "coordinates": [ -64.1835623, -31.425715 ] } },
{ "type": "Feature", "properties": { "amenity": "hospital", "healthcare": "hospital", "operator": "Privado", "operator_type": "private", "name": "Clinica Privada Gallia", "addr_full": "Evangelista Torricelli 5615", "addr_postcode": "5147", "phone": "0810-444-2554", "ref_sisa_codigo": 10140142331059, "ref_sisa_tipologia": "ESCIG", "wikidata": "", "wikipedia": "" }, "geometry": { "type": "Point", "coordinates": [ -64.2473167, -31.3585494 ] } },
{ "type": "Feature", "properties": { "amenity": "hospital", "healthcare": "hospital", "operator": "Privado", "operator_type": "private", "name": "Clinica Privada Sanagec", "addr_full": "Boulevard Guzmán 65", "addr_postcode": "5000", "phone": "0351-4222042", "ref_sisa_codigo": 51140142331595, "ref_sisa_tipologia": "ESCIG", "wikidata": "", "wikipedia": "" }, "geometry": { "type": "Point", "coordinates": [ -64.1763646, -31.4175466 ] } },
{ "type": "Feature", "properties": { "amenity": "hospital", "healthcare": "hospital", "operator": "Privado", "operator_type": "private", "name": "Clinica Privada Velez Sarsfielfd", "addr_full": "Naciones Unidas 984", "addr_postcode": "5016", "phone": "0351-4680700", "ref_sisa_codigo": 10140142331135, "ref_sisa_tipologia": "ESCIG", "wikidata": "", "wikipedia": "" }, "geometry": { "type": "Point", "coordinates": [ -64.207988, -31.441071 ] } },
{ "type": "Feature", "properties": { "amenity": "hospital", "healthcare": "hospital", "operator": "Privado", "operator_type": "private", "name": "Clinica Romagosa S.a.", "addr_full": "Deán Funes 429", "addr_postcode": "5000", "phone": "0351-5705000", "ref_sisa_codigo": 10140142331096, "ref_sisa_tipologia": "ESCIG", "wikidata": "", "wikipedia": "" }, "geometry": { "type": "Point", "coordinates": [ -64.1899186, -31.4143305 ] } },
{ "type": "Feature", "properties": { "amenity": "hospital", "healthcare": "hospital", "operator": "Privado", "operator_type": "private", "name": "Clinica Sucre S.r.l.", "addr_full": "Santa Rosa 770", "addr_postcode": "5000", "phone": "0351-4466800", "ref_sisa_codigo": 10140142331146, "ref_sisa_tipologia": "ESCIG", "wikidata": "", "wikipedia": "" }, "geometry": { "type": "Point", "coordinates": [ -64.1930615, -31.4094151 ] } },
{ "type": "Feature", "properties": { "amenity": "hospital", "healthcare": "hospital", "operator": "Privado", "operator_type": "private", "name": "Clinica Universitaria Reina Fabiola", "addr_full": "Oncativo 1248", "addr_postcode": "5000", "phone": "0351-4142121", "ref_sisa_codigo": 10140142331147, "ref_sisa_tipologia": "ESCIG", "wikidata": "", "wikipedia": "" }, "geometry": { "type": "Point", "coordinates": [ -64.1681116, -31.4098416 ] } },
{ "type": "Feature", "properties": { "amenity": "clinic", "healthcare": "clinic", "operator": "Provincial", "operator_type": "public", "name": "Cordoba Alto Rendimiento ( C.A.R - Cenard)", "addr_full": "Av. Cárcano S\/N", "addr_postcode": "5000", "phone": "0351-4348360 int. 137", "ref_sisa_codigo": 50140142133516, "ref_sisa_tipologia": "ESSIDT", "wikidata": "", "wikipedia": "" }, "geometry": { "type": "Point", "coordinates": [ -64.1717224, -31.3921375 ] } },
{ "type": "Feature", "properties": { "amenity": "clinic", "healthcare": "clinic", "operator": "Municipal", "operator_type": "public", "name": "Direccion De Especialidades Medicas - Dem Norte", "addr_full": "Anacreonte Y Jujuy", "addr_postcode": "5000", "phone": "0351-4708880", "ref_sisa_codigo": 50140142233693, "ref_sisa_tipologia": "ESSIDT", "wikidata": "", "wikipedia": "" }, "geometry": { "type": "Point", "coordinates": [ -64.181221, -31.3899212 ] } },
{ "type": "Feature", "properties": { "amenity": "clinic", "healthcare": "clinic", "operator": "Municipal", "operator_type": "public", "name": "Direccion De Especialidades Medicas Oeste", "addr_full": "Deán Funes 2000", "addr_postcode": "5000", "phone": "0351-4337143", "ref_sisa_codigo": 50140142235085, "ref_sisa_tipologia": "ESSIDT", "wikidata": "", "wikipedia": "" }, "geometry": { "type": "Point", "coordinates": [ -64.2100585, -31.4080435 ] } },
{ "type": "Feature", "properties": { "amenity": "clinic", "healthcare": "clinic", "operator": "Municipal", "operator_type": "public", "name": "Direccion De Especialidades Medicas Zona Centro", "addr_full": "Sarmiento 480", "addr_postcode": "5000", "phone": "0351-4276240", "ref_sisa_codigo": 50140142234643, "ref_sisa_tipologia": "ESSIDT", "wikidata": "", "wikipedia": "" }, "geometry": { "type": "Point", "coordinates": [ -64.175584, -31.412015 ] } },
{ "type": "Feature", "properties": { "amenity": "clinic", "healthcare": "clinic", "operator": "Provincial", "operator_type": "public", "name": "Direccion De Medicina Del Trabajo", "addr_full": "Tucuman 176", "addr_postcode": "5000", "phone": "", "ref_sisa_codigo": 50140142134489, "ref_sisa_tipologia": "ESSIDT", "wikidata": "", "wikipedia": "" }, "geometry": { "type": "Point", "coordinates": [ -64.187286, -31.412852 ] } },
{ "type": "Feature", "properties": { "amenity": "clinic", "healthcare": "clinic", "operator": "Municipal", "operator_type": "public", "name": "Dispensario Comunal De Los Chañaritos", "addr_full": "9 De Julio 131", "addr_postcode": "5915", "phone": "03576-498098", "ref_sisa_codigo": 50141192231497, "ref_sisa_tipologia": "ESSIDT", "wikidata": "", "wikipedia": "" }, "geometry": { "type": "Point", "coordinates": [ -64.1853273, -31.4143892 ] } },
{ "type": "Feature", "properties": { "amenity": "clinic", "healthcare": "clinic", "operator": "Municipal", "operator_type": "public", "name": "Dispensario Villa Ciudad De America", "addr_full": "Calle Los Pinos S\/N", "addr_postcode": "5189", "phone": "(03547) 48-9101", "ref_sisa_codigo": 50141472231672, "ref_sisa_tipologia": "ESSIDT", "wikidata": "", "wikipedia": "" }, "geometry": { "type": "Point", "coordinates": [ -64.2421494, -31.4429626 ] } },
{ "type": "Feature", "properties": { "amenity": "hospital", "healthcare": "hospital", "operator": "FFAA\/Seguridad", "operator_type": "public", "name": "Hospital Aeronautico Cordoba", "addr_full": "Avenida Colón 479", "addr_postcode": "5000", "phone": "0351-4298800", "ref_sisa_codigo": 10140142431156, "ref_sisa_tipologia": "ESCIG", "wikidata": "", "wikipedia": "" }, "geometry": { "type": "Point", "coordinates": [ -64.1896045, -31.4118793 ] } },
{ "type": "Feature", "properties": { "amenity": "hospital", "healthcare": "hospital", "operator": "Provincial", "operator_type": "public", "name": "Hospital Cordoba", "addr_full": "Av. Patria 656 Barrio Pueyrredon", "addr_postcode": "5000", "phone": "0351-4349010", "ref_sisa_codigo": 10140142131160, "ref_sisa_tipologia": "ESCIG", "wikidata": "Q56583001", "wikipedia": "" }, "geometry": { "type": "Point", "coordinates": [ -64.158807, -31.406503 ] } },
{ "type": "Feature", "properties": { "amenity": "clinic", "healthcare": "clinic", "operator": "Provincial", "operator_type": "public", "name": "Hospital De Niños De La Santisima Trinidad", "addr_full": "Bajada Pucará Esquina Ferroviarios", "addr_postcode": "5000", "phone": "0351-4586400", "ref_sisa_codigo": 11140142131336, "ref_sisa_tipologia": "ESCIEP", "wikidata": "Q30280086", "wikipedia": "ES:Hospital de Niños de la Santísima Trinidad" }, "geometry": { "type": "Point", "coordinates": [ -64.169236, -31.427986 ] } },
{ "type": "Feature", "properties": { "amenity": "hospital", "healthcare": "hospital", "operator": "Municipal", "operator_type": "public", "name": "Hospital Del Sur Principe De Asturias", "addr_full": "Defensa 1200", "addr_postcode": "5000", "phone": "0351-4343221 int.118", "ref_sisa_codigo": 10140142233079, "ref_sisa_tipologia": "ESCIG", "wikidata": "", "wikipedia": "" }, "geometry": { "type": "Point", "coordinates": [ -64.21926, -31.468486 ] } },
{ "type": "Feature", "properties": { "amenity": "hospital", "healthcare": "hospital", "operator": "Provincial", "operator_type": "public", "name": "Hospital Florencio Diaz", "addr_full": "Avenida 11 De Septiembre 2900", "addr_postcode": "5000", "phone": "0351-4348690", "ref_sisa_codigo": 10140142133413, "ref_sisa_tipologia": "ESCIG", "wikidata": "", "wikipedia": "" }, "geometry": { "type": "Point", "coordinates": [ -64.148389, -31.445738 ] } },
{ "type": "Feature", "properties": { "amenity": "clinic", "healthcare": "clinic", "operator": "Provincial", "operator_type": "public", "name": "Hospital Materno Neonatal", "addr_full": "Avenida La Cardeñosa 2900", "addr_postcode": "5864", "phone": "0351-4348350", "ref_sisa_codigo": 12140142131345, "ref_sisa_tipologia": "ESCIEM", "wikidata": "", "wikipedia": "" }, "geometry": { "type": "Point", "coordinates": [ -64.213004, -31.368882 ] } },
{ "type": "Feature", "properties": { "amenity": "clinic", "healthcare": "clinic", "operator": "Provincial", "operator_type": "public", "name": "Hospital Materno Provincial Felipe Luccini", "addr_full": "Pasaje Luis Caeiro 1545", "addr_postcode": "5864", "phone": "0351-4348761", "ref_sisa_codigo": 12140142131346, "ref_sisa_tipologia": "ESCIEM", "wikidata": "", "wikipedia": "" }, "geometry": { "type": "Point", "coordinates": [ -64.164018, -31.423536 ] } },
{ "type": "Feature", "properties": { "amenity": "hospital", "healthcare": "hospital", "operator": "FFAA\/Seguridad", "operator_type": "public", "name": "Hospital Militar Regional Cordoba", "addr_full": "Avenida Cruz Roja Argentina 1174", "addr_postcode": "5012", "phone": "0351-433 3237", "ref_sisa_codigo": 10140142431169, "ref_sisa_tipologia": "ESCIG", "wikidata": "", "wikipedia": "" }, "geometry": { "type": "Point", "coordinates": [ -64.180559, -31.441796 ] } },
{ "type": "Feature", "properties": { "amenity": "hospital", "healthcare": "hospital", "operator": "Municipal", "operator_type": "public", "name": "Hospital Municipal De Urgencias", "addr_full": "Catamarca 441", "addr_postcode": "5000", "phone": "0351-4222039\/0351-4215001", "ref_sisa_codigo": 10140142231181, "ref_sisa_tipologia": "ESCIG", "wikidata": "", "wikipedia": "" }, "geometry": { "type": "Point", "coordinates": [ -64.176273, -31.413135 ] } },
{ "type": "Feature", "properties": { "amenity": "hospital", "healthcare": "hospital", "operator": "Nacional", "operator_type": "public", "name": "Hospital Nacional De Clinicas", "addr_full": "Santa Rosa 1564", "addr_postcode": "5000", "phone": "0351-4337014\/17", "ref_sisa_codigo": 10140142031239, "ref_sisa_tipologia": "ESCIG", "wikidata": "", "wikipedia": "" }, "geometry": { "type": "Point", "coordinates": [ -64.2037493, -31.4062906 ] } },
{ "type": "Feature", "properties": { "amenity": "clinic", "healthcare": "clinic", "operator": "Provincial", "operator_type": "public", "name": "Hospital Neuropsiquiatrico Provincial", "addr_full": "Leon Morra 160", "addr_postcode": "5864", "phone": "0351-4342426", "ref_sisa_codigo": 13140142131360, "ref_sisa_tipologia": "ESCIESM", "wikidata": "", "wikipedia": "" }, "geometry": { "type": "Point", "coordinates": [ -64.170659, -31.41898 ] } },
{ "type": "Feature", "properties": { "amenity": "hospital", "healthcare": "hospital", "operator": "Provincial", "operator_type": "public", "name": "Hospital Nuestra Seńora De La Misericordia", "addr_full": "Belgrano 1502", "addr_postcode": "5000", "phone": "0351-4344110", "ref_sisa_codigo": 10140142131240, "ref_sisa_tipologia": "ESCIG", "wikidata": "", "wikipedia": "" }, "geometry": { "type": "Point", "coordinates": [ -64.195489, -31.432289 ] } },
{ "type": "Feature", "properties": { "amenity": "clinic", "healthcare": "clinic", "operator": "Provincial", "operator_type": "public", "name": "Hospital Pediatrico Del Niño Jesus", "addr_full": "Avenida Castro Barros 650", "addr_postcode": "5864", "phone": "0351-4346060", "ref_sisa_codigo": 11140142131338, "ref_sisa_tipologia": "ESCIEP", "wikidata": "", "wikipedia": "" }, "geometry": { "type": "Point", "coordinates": [ -64.197815, -31.399262 ] } },
{ "type": "Feature", "properties": { "amenity": "hospital", "healthcare": "hospital", "operator": "Privado", "operator_type": "private", "name": "Hospital Privado Universitario De Cordoba", "addr_full": "Avenida Naciones Unidas 346", "addr_postcode": "5016", "phone": "0351-4688200", "ref_sisa_codigo": 10140142331243, "ref_sisa_tipologia": "ESCIG", "wikidata": "Q30254199", "wikipedia": "" }, "geometry": { "type": "Point", "coordinates": [ -64.1993524, -31.4420503 ] } },
{ "type": "Feature", "properties": { "amenity": "hospital", "healthcare": "hospital", "operator": "Provincial", "operator_type": "public", "name": "Hospital Rawson", "addr_full": "Bajada Pucara 2025", "addr_postcode": "5000", "phone": "0351-4348754 al 8", "ref_sisa_codigo": 10140142131245, "ref_sisa_tipologia": "ESCIG", "wikidata": "", "wikipedia": "" }, "geometry": { "type": "Point", "coordinates": [ -64.169617, -31.428879 ] } },
{ "type": "Feature", "properties": { "amenity": "hospital", "healthcare": "hospital", "operator": "Provincial", "operator_type": "public", "name": "Hospital Transito Caceres De Allende", "addr_full": "Buchardo 1250", "addr_postcode": "5000", "phone": "0351-4342411", "ref_sisa_codigo": 10140142131259, "ref_sisa_tipologia": "ESCIG", "wikidata": "", "wikipedia": "" }, "geometry": { "type": "Point", "coordinates": [ -64.170022, -31.404541 ] } },
{ "type": "Feature", "properties": { "amenity": "hospital", "healthcare": "hospital", "operator": "Privado", "operator_type": "private", "name": "Imgo Instituto Modelo Privado De Ginecologia Y Obstetricia Sa", "addr_full": "Arturo M. Bas 57", "addr_postcode": "5000", "phone": "0351-4216869", "ref_sisa_codigo": 10140142333227, "ref_sisa_tipologia": "ESCIG", "wikidata": "", "wikipedia": "" }, "geometry": { "type": "Point", "coordinates": [ -64.1923229, -31.4142679 ] } },
{ "type": "Feature", "properties": { "amenity": "clinic", "healthcare": "clinic", "operator": "Provincial", "operator_type": "public", "name": "Instituto De Zoonosis", "addr_full": "Santiago Cáceres 1885", "addr_postcode": "5000", "phone": "0351-434 1112\/13", "ref_sisa_codigo": 53140142135169, "ref_sisa_tipologia": "ESCL", "wikidata": "", "wikipedia": "" }, "geometry": { "type": "Point", "coordinates": [ -64.1976222, -31.4347466 ] } },
{ "type": "Feature", "properties": { "amenity": "hospital", "healthcare": "hospital", "operator": "Privado", "operator_type": "private", "name": "Instituto Modelo De Cardiologia Privado Srl", "addr_full": "Avenida Sagrada Familia 359", "addr_postcode": "5003", "phone": "0351-4858585", "ref_sisa_codigo": 10140142331272, "ref_sisa_tipologia": "ESCIG", "wikidata": "", "wikipedia": "" }, "geometry": { "type": "Point", "coordinates": [ -64.2348387, -31.3959553 ] } },
{ "type": "Feature", "properties": { "amenity": "clinic", "healthcare": "clinic", "operator": "Provincial", "operator_type": "public", "name": "Instituto Oncologico Doctor Urrutia", "addr_full": "Bajada Pucara Y Ferroviario", "addr_postcode": "5000", "phone": "0351-4348779", "ref_sisa_codigo": 14140142133129, "ref_sisa_tipologia": "ESCIE", "wikidata": "", "wikipedia": "" }, "geometry": { "type": "Point", "coordinates": [ -64.1695976, -31.4282969 ] } },
{ "type": "Feature", "properties": { "amenity": "clinic", "healthcare": "clinic", "operator": "Provincial", "operator_type": "public", "name": "Laboratorio Central De La Provincia De Cordoba", "addr_full": "T. Caceres De Allende 421", "addr_postcode": "5000", "phone": "0351 434-2451", "ref_sisa_codigo": 51140142133784, "ref_sisa_tipologia": "ESSID", "wikidata": "", "wikipedia": "" }, "geometry": { "type": "Point", "coordinates": [ -64.1768248, -31.4234832 ] } },
{ "type": "Feature", "properties": { "amenity": "clinic", "healthcare": "clinic", "operator": "Provincial", "operator_type": "public", "name": "Laboratorio De Ceprocor - Agencia Cordoba Ciencia", "addr_full": "Alvarez Arenales 230", "addr_postcode": "5000", "phone": "0351-4342490", "ref_sisa_codigo": 51140142333505, "ref_sisa_tipologia": "ESSID", "wikidata": "", "wikipedia": "" }, "geometry": { "type": "Point", "coordinates": [ -64.1713454, -31.4205499 ] } },
{ "type": "Feature", "properties": { "amenity": "hospital", "healthcare": "hospital", "operator": "Provincial", "operator_type": "public", "name": "Nuevo Hospital San Roque", "addr_full": "Bajada Pucara 1900", "addr_postcode": "5000", "phone": "0351-4348912", "ref_sisa_codigo": 10140142131256, "ref_sisa_tipologia": "ESCIG", "wikidata": "", "wikipedia": "" }, "geometry": { "type": "Point", "coordinates": [ -64.169679, -31.428356 ] } },
{ "type": "Feature", "properties": { "amenity": "hospital", "healthcare": "hospital", "operator": "FFAA\/Seguridad", "operator_type": "public", "name": "Policlinico Policial San Rafael", "addr_full": "Luis Agote 2825", "addr_postcode": "5010", "phone": "0351-4333523", "ref_sisa_codigo": 10140142431276, "ref_sisa_tipologia": "ESCIG", "wikidata": "", "wikipedia": "" }, "geometry": { "type": "Point", "coordinates": [ -64.224562, -31.424873 ] } },
{ "type": "Feature", "properties": { "amenity": "clinic", "healthcare": "clinic", "operator": "Municipal", "operator_type": "public", "name": "Puesto Sanitario De Arroyo De Los Patos", "addr_full": "Esmeralda S\/Nº", "addr_postcode": "5889", "phone": "(03544) 47-0320", "ref_sisa_codigo": 50141262231861, "ref_sisa_tipologia": "ESSIDT", "wikidata": "", "wikipedia": "" }, "geometry": { "type": "Point", "coordinates": [ -64.1145051, -31.4330573 ] } },
{ "type": "Feature", "properties": { "amenity": "hospital", "healthcare": "hospital", "operator": "Privado", "operator_type": "private", "name": "Sanatorio Allende", "addr_full": "Hipolito Yrigoyen 384", "addr_postcode": "5000", "phone": "4269212", "ref_sisa_codigo": 10140142331284, "ref_sisa_tipologia": "ESCIG", "wikidata": "", "wikipedia": "" }, "geometry": { "type": "Point", "coordinates": [ -64.186631, -31.424834 ] } },
{ "type": "Feature", "properties": { "amenity": "hospital", "healthcare": "hospital", "operator": "Privado", "operator_type": "private", "name": "Sanatorio Allende Cerro", "addr_full": "Pedro Laplace 5749", "addr_postcode": "5000", "phone": "0351-4269200", "ref_sisa_codigo": 10140142334160, "ref_sisa_tipologia": "ESCIG", "wikidata": "", "wikipedia": "" }, "geometry": { "type": "Point", "coordinates": [ -64.2422483, -31.3583177 ] } },
{ "type": "Feature", "properties": { "amenity": "hospital", "healthcare": "hospital", "operator": "Privado", "operator_type": "private", "name": "Sanatorio Del Salvador Privado S.a.", "addr_full": "General Deheza 542", "addr_postcode": "5004", "phone": "4528888", "ref_sisa_codigo": 10140142331288, "ref_sisa_tipologia": "ESCIG", "wikidata": "", "wikipedia": "" }, "geometry": { "type": "Point", "coordinates": [ -64.163656, -31.409231 ] } },
{ "type": "Feature", "properties": { "amenity": "hospital", "healthcare": "hospital", "operator": "Privado", "operator_type": "private", "name": "Sanatorio Frances", "addr_full": "José Baigorri 749", "addr_postcode": "5001", "phone": "4743058", "ref_sisa_codigo": 10140142331289, "ref_sisa_tipologia": "ESCIG", "wikidata": "", "wikipedia": "" }, "geometry": { "type": "Point", "coordinates": [ -64.185, -31.3922663 ] } },
{ "type": "Feature", "properties": { "amenity": "hospital", "healthcare": "hospital", "operator": "Privado", "operator_type": "private", "name": "Sanatorio Mayo Privado S.a", "addr_full": "Humberto Primo 520", "addr_postcode": "5864", "phone": "0351-4299280", "ref_sisa_codigo": 10140142331291, "ref_sisa_tipologia": "ESCIG", "wikidata": "", "wikipedia": "" }, "geometry": { "type": "Point", "coordinates": [ -64.18887, -31.408037 ] } },
{ "type": "Feature", "properties": { "amenity": "hospital", "healthcare": "hospital", "operator": "Privado", "operator_type": "private", "name": "Sanatorio Privado Alive", "addr_full": "Avenida Rafael Núńez 5229", "addr_postcode": "5000", "phone": "03543-429142", "ref_sisa_codigo": 10140142334588, "ref_sisa_tipologia": "ESCIG", "wikidata": "", "wikipedia": "" }, "geometry": { "type": "Point", "coordinates": [ -64.243207, -31.355873 ] } },
{ "type": "Feature", "properties": { "amenity": "hospital", "healthcare": "hospital", "operator": "Privado", "operator_type": "private", "name": "Sanatorio Privado De La Cańada", "addr_full": "Avenida J. M. De Pueyrredón 650", "addr_postcode": "5000", "phone": "0351-157670780", "ref_sisa_codigo": 10140142334935, "ref_sisa_tipologia": "ESCIG", "wikidata": "", "wikipedia": "" }, "geometry": { "type": "Point", "coordinates": [ -64.1975293, -31.4246273 ] } },
{ "type": "Feature", "properties": { "amenity": "hospital", "healthcare": "hospital", "operator": "Privado", "operator_type": "private", "name": "Sanatorio Privado Del Noroeste - Centro De Rehabilitacion Con Internacion", "addr_full": "Wilson 2101", "addr_postcode": "5864", "phone": "4513209", "ref_sisa_codigo": 10140142331311, "ref_sisa_tipologia": "ESCIG", "wikidata": "", "wikipedia": "" }, "geometry": { "type": "Point", "coordinates": [ -64.135681, -31.38444 ] } },
{ "type": "Feature", "properties": { "amenity": "hospital", "healthcare": "hospital", "operator": "Privado", "operator_type": "private", "name": "Sanatorio Privado Duarte Quiros", "addr_full": "Duarte Quirós 1948", "addr_postcode": "5000", "phone": "0351-4804065", "ref_sisa_codigo": 10140142331031, "ref_sisa_tipologia": "ESCIG", "wikidata": "", "wikipedia": "" }, "geometry": { "type": "Point", "coordinates": [ -64.2107096, -31.4109774 ] } },
{ "type": "Feature", "properties": { "amenity": "hospital", "healthcare": "hospital", "operator": "Privado", "operator_type": "private", "name": "Sanatorio Privado Gatti Srl", "addr_full": "Ituzaingo 681", "addr_postcode": "5986", "phone": "03572-466085", "ref_sisa_codigo": 10141192331315, "ref_sisa_tipologia": "ESCIG", "wikidata": "", "wikipedia": "" }, "geometry": { "type": "Point", "coordinates": [ -64.1847706, -31.4249035 ] } },
{ "type": "Feature", "properties": { "amenity": "hospital", "healthcare": "hospital", "operator": "Privado", "operator_type": "private", "name": "Sanatorio Privado Parque S.a", "addr_full": "San Jeronimo 3115", "addr_postcode": "5006", "phone": "4564000", "ref_sisa_codigo": 10140142331322, "ref_sisa_tipologia": "ESCIG", "wikidata": "", "wikipedia": "" }, "geometry": { "type": "Point", "coordinates": [ -64.14409, -31.423783 ] } },
{ "type": "Feature", "properties": { "amenity": "hospital", "healthcare": "hospital", "operator": "Privado", "operator_type": "private", "name": "Sanatorio Santo Tomas Privado", "addr_full": "Caseros 899", "addr_postcode": "5000", "phone": "4204300", "ref_sisa_codigo": 10140142331328, "ref_sisa_tipologia": "ESCIG", "wikidata": "", "wikipedia": "" }, "geometry": { "type": "Point", "coordinates": [ -64.196887, -31.414762 ] } },
{ "type": "Feature", "properties": { "amenity": "hospital", "healthcare": "hospital", "operator": "Privado", "operator_type": "private", "name": "Sanatorio Sindical Suoem", "addr_full": "Santa Rosa 811", "addr_postcode": "5000", "phone": "4261364", "ref_sisa_codigo": 10140142331329, "ref_sisa_tipologia": "ESCIG", "wikidata": "", "wikipedia": "" }, "geometry": { "type": "Point", "coordinates": [ -64.1936781, -31.4093286 ] } },
{ "type": "Feature", "properties": { "amenity": "clinic", "healthcare": "clinic", "operator": "Municipal", "operator_type": "public", "name": "Servicio Odontologico Municipal", "addr_full": "San Martín 850", "addr_postcode": "5000", "phone": "0351-4342249", "ref_sisa_codigo": 50140142235067, "ref_sisa_tipologia": "ESSIDT", "wikidata": "", "wikipedia": "" }, "geometry": { "type": "Point", "coordinates": [ -64.1800223, -31.4067481 ] } },
{ "type": "Feature", "properties": { "amenity": "hospital", "healthcare": "hospital", "operator": "Privado", "operator_type": "private", "name": "Sociedad De Beneficencia Hospital Italiano", "addr_full": "Roma 550", "addr_postcode": "5004", "phone": "4106500", "ref_sisa_codigo": 10140142331332, "ref_sisa_tipologia": "ESCIG", "wikidata": "", "wikipedia": "" }, "geometry": { "type": "Point", "coordinates": [ -64.164926, -31.409375 ] } },
{ "type": "Feature", "properties": { "amenity": "hospital", "healthcare": "hospital", "operator": "Privado", "operator_type": "private", "name": "Unidad Sanatorial Apross - Hospital Raul Angel Ferreyra", "addr_full": "Avenida Pablo Ricchieri 2200", "addr_postcode": "5000", "phone": "0351-4438300", "ref_sisa_codigo": 10140142333468, "ref_sisa_tipologia": "ESCIG", "wikidata": "", "wikipedia": "" }, "geometry": { "type": "Point", "coordinates": [ -64.1760093, -31.4372961 ] } },
{ "type": "Feature", "properties": { "amenity": "hospital", "healthcare": "hospital", "operator": "Privado", "operator_type": "private", "name": "Unidad Sanatorial Apross-anexo Richieri", "addr_full": "Avenida Pablo Ricchieri 3176", "addr_postcode": "5000", "phone": "0351-4641444", "ref_sisa_codigo": 10140142335017, "ref_sisa_tipologia": "ESCIG", "wikidata": "", "wikipedia": "" }, "geometry": { "type": "Point", "coordinates": [ -64.1767614, -31.4487215 ] } },
{ "type": "Feature", "properties": { "amenity": "clinic", "healthcare": "clinic", "operator": "Municipal", "operator_type": "public", "name": "UPAS 1 - Barrio San Roque", "addr_full": "Av. Kingsley  Esq.Tappia", "addr_postcode": "5000", "phone": "0351-4333210", "ref_sisa_codigo": 50140142233469, "ref_sisa_tipologia": "ESSIDT", "wikidata": "", "wikipedia": "" }, "geometry": { "type": "Point", "coordinates": [ -64.2470169, -31.440051 ] } },
{ "type": "Feature", "properties": { "amenity": "clinic", "healthcare": "clinic", "operator": "Municipal", "operator_type": "public", "name": "UPAS 12 - Barrio Villa Union", "addr_full": "Atilio Cataneo Y Tres Cruces S\/N", "addr_postcode": "5000", "phone": "0351-4333209", "ref_sisa_codigo": 50140142233464, "ref_sisa_tipologia": "ESSIDT", "wikidata": "", "wikipedia": "" }, "geometry": { "type": "Point", "coordinates": [ -64.2651916, -31.4217235 ] } },
{ "type": "Feature", "properties": { "amenity": "clinic", "healthcare": "clinic", "operator": "Municipal", "operator_type": "public", "name": "UPAS 15 - Barrio Albert Sabin", "addr_full": "Camino San Antonio Km 7.5", "addr_postcode": "5000", "phone": "0351-4333215", "ref_sisa_codigo": 50140142233269, "ref_sisa_tipologia": "ESSIDT", "wikidata": "", "wikipedia": "" }, "geometry": { "type": "Point", "coordinates": [ -64.213493, -31.446018 ] } },
{ "type": "Feature", "properties": { "amenity": "clinic", "healthcare": "clinic", "operator": "Municipal", "operator_type": "public", "name": "UPAS 16 - Barrio Renacimiento", "addr_full": "Manuel Luis De Oliden 448", "addr_postcode": "5000", "phone": "0351-4338562", "ref_sisa_codigo": 50140142233705, "ref_sisa_tipologia": "ESSIDT", "wikidata": "", "wikipedia": "" }, "geometry": { "type": "Point", "coordinates": [ -64.122644, -31.415598 ] } },
{ "type": "Feature", "properties": { "amenity": "clinic", "healthcare": "clinic", "operator": "Municipal", "operator_type": "public", "name": "UPAS 18 - Barrio Villa Allende Parque", "addr_full": "Calle 15 Entre 18 Y 19", "addr_postcode": "5000", "phone": "03543-439691", "ref_sisa_codigo": 50140142233264, "ref_sisa_tipologia": "ESSIDT", "wikidata": "", "wikipedia": "" }, "geometry": { "type": "Point", "coordinates": [ -64.28322, -31.315551 ] } },
{ "type": "Feature", "properties": { "amenity": "clinic", "healthcare": "clinic", "operator": "Municipal", "operator_type": "public", "name": "UPAS 2 - Barrio 16 De Noviembre", "addr_full": "José María Rosa 8500 Esq. Onofre Marimon", "addr_postcode": "5000", "phone": "03543-445430", "ref_sisa_codigo": 50140142233670, "ref_sisa_tipologia": "ESSIDT", "wikidata": "", "wikipedia": "" }, "geometry": { "type": "Point", "coordinates": [ -64.2528915, -31.3207092 ] } },
{ "type": "Feature", "properties": { "amenity": "clinic", "healthcare": "clinic", "operator": "Municipal", "operator_type": "public", "name": "UPAS 21 - Barrio Bajo Grande", "addr_full": "Camino Chacra De La Merced Km 6.5", "addr_postcode": "5000", "phone": "0351-4339137", "ref_sisa_codigo": 50140142233208, "ref_sisa_tipologia": "ESSIDT", "wikidata": "", "wikipedia": "" }, "geometry": { "type": "Point", "coordinates": [ -64.119526, -31.402471 ] } },
{ "type": "Feature", "properties": { "amenity": "clinic", "healthcare": "clinic", "operator": "Municipal", "operator_type": "public", "name": "UPAS 22 - Barrio Patricios Este", "addr_full": "Heroinas De Ayohuma 3725", "addr_postcode": "5000", "phone": "0351-4335133", "ref_sisa_codigo": 50140142133199, "ref_sisa_tipologia": "ESSIDT", "wikidata": "", "wikipedia": "" }, "geometry": { "type": "Point", "coordinates": [ -64.134773, -31.3669075 ] } },
{ "type": "Feature", "properties": { "amenity": "clinic", "healthcare": "clinic", "operator": "Municipal", "operator_type": "public", "name": "UPAS 23 - Barrio Villa El Libertador", "addr_full": "Barranquillas 5700", "addr_postcode": "5000", "phone": "0351-4333512", "ref_sisa_codigo": 50140142233466, "ref_sisa_tipologia": "ESSIDT", "wikidata": "", "wikipedia": "" }, "geometry": { "type": "Point", "coordinates": [ -64.216536, -31.481294 ] } },
{ "type": "Feature", "properties": { "amenity": "clinic", "healthcare": "clinic", "operator": "Municipal", "operator_type": "public", "name": "UPAS 24 - Barrio Sachi", "addr_full": "El Dorado 6050", "addr_postcode": "5000", "phone": "0351-4333217", "ref_sisa_codigo": 50140142233659, "ref_sisa_tipologia": "ESSIDT", "wikidata": "", "wikipedia": "" }, "geometry": { "type": "Point", "coordinates": [ -64.263724, -31.454734 ] } },
{ "type": "Feature", "properties": { "amenity": "clinic", "healthcare": "clinic", "operator": "Municipal", "operator_type": "public", "name": "UPAS 26 - Barrio Chacra De La Merced", "addr_full": "Ruta 19 Altura Ingeniero Malvinas (Camino Chacra De La Merced Km 9.5)", "addr_postcode": "5000", "phone": "0351-156100370", "ref_sisa_codigo": 50140142233207, "ref_sisa_tipologia": "ESSIDT", "wikidata": "", "wikipedia": "" }, "geometry": { "type": "Point", "coordinates": [ -64.116194, -31.402864 ] } },
{ "type": "Feature", "properties": { "amenity": "clinic", "healthcare": "clinic", "operator": "Municipal", "operator_type": "public", "name": "UPAS 27 - Barrio Villa Rivadavia", "addr_full": "Camino A San Antonio Km 8.5", "addr_postcode": "5000", "phone": "0351-4333228", "ref_sisa_codigo": 50140142233253, "ref_sisa_tipologia": "ESSIDT", "wikidata": "", "wikipedia": "" }, "geometry": { "type": "Point", "coordinates": [ -64.213504, -31.446014 ] } },
{ "type": "Feature", "properties": { "amenity": "clinic", "healthcare": "clinic", "operator": "Municipal", "operator_type": "public", "name": "UPAS 28 - Barrio Ituzaingo Anexo", "addr_full": "James Frank 5571", "addr_postcode": "5000", "phone": "0351-4348527", "ref_sisa_codigo": 50140142233467, "ref_sisa_tipologia": "ESSIDT", "wikidata": "", "wikipedia": "" }, "geometry": { "type": "Point", "coordinates": [ -64.082283, -31.466009 ] } },
{ "type": "Feature", "properties": { "amenity": "clinic", "healthcare": "clinic", "operator": "Municipal", "operator_type": "public", "name": "UPAS 30 - Barrio Los Cortaderos", "addr_full": "De Los Polacos 7500 Y Canal Norte", "addr_postcode": "5000", "phone": "0351-4339026", "ref_sisa_codigo": 50140142233266, "ref_sisa_tipologia": "ESSIDT", "wikidata": "", "wikipedia": "" }, "geometry": { "type": "Point", "coordinates": [ -64.231356, -31.333112 ] } },
{ "type": "Feature", "properties": { "amenity": "clinic", "healthcare": "clinic", "operator": "Municipal", "operator_type": "public", "name": "UPAS 32 - Barrio Parque Liceo Iii Secc.", "addr_full": "Juan Luis Orrego Esq. Constancio Vigil", "addr_postcode": "5000", "phone": "0351-4331924", "ref_sisa_codigo": 50140142133200, "ref_sisa_tipologia": "ESSIDT", "wikidata": "", "wikipedia": "" }, "geometry": { "type": "Point", "coordinates": [ -64.1509509, -31.3553301 ] } },
{ "type": "Feature", "properties": { "amenity": "clinic", "healthcare": "clinic", "operator": "Municipal", "operator_type": "public", "name": "UPAS 34 - Barrio Camino 60 Cuadras", "addr_full": "11 De Septiembre Km 3.5", "addr_postcode": "5000", "phone": "0351-4348520", "ref_sisa_codigo": 50140142233463, "ref_sisa_tipologia": "ESSIDT", "wikidata": "", "wikipedia": "" }, "geometry": { "type": "Point", "coordinates": [ -64.147964, -31.462852 ] } },
{ "type": "Feature", "properties": { "amenity": "clinic", "healthcare": "clinic", "operator": "Municipal", "operator_type": "public", "name": "UPAS 36 - Barrio Cabildo", "addr_full": "Av. Colorado Esq. Macachín", "addr_postcode": "5000", "phone": "0351-4343230", "ref_sisa_codigo": 50140142233662, "ref_sisa_tipologia": "ESSIDT", "wikidata": "", "wikipedia": "" }, "geometry": { "type": "Point", "coordinates": [ -64.1821289, -31.3989296 ] } },
{ "type": "Feature", "properties": { "amenity": "clinic", "healthcare": "clinic", "operator": "Municipal", "operator_type": "public", "name": "UPAS 6 - Barrio Estacion Flores", "addr_full": "Petirossi Esq.  Estocolmo", "addr_postcode": "5000", "phone": "0351-4333208", "ref_sisa_codigo": 50140142233673, "ref_sisa_tipologia": "ESSIDT", "wikidata": "", "wikipedia": "" }, "geometry": { "type": "Point", "coordinates": [ -64.2472992, -31.4486275 ] } },
{ "type": "Feature", "properties": { "amenity": "clinic", "healthcare": "clinic", "operator": "Municipal", "operator_type": "public", "name": "UPAS 8 - Barrio La Floresta", "addr_full": "Las Orquideas S\/N  (Al Lado Del Centro Vecinal)", "addr_postcode": "5000", "phone": "0351-4997930", "ref_sisa_codigo": 50140142233209, "ref_sisa_tipologia": "ESSIDT", "wikidata": "", "wikipedia": "" }, "geometry": { "type": "Point", "coordinates": [ -64.0602493, -31.3692919 ] } },
{ "type": "Feature", "properties": { "amenity": "clinic", "healthcare": "clinic", "operator": "Municipal", "operator_type": "public", "name": "UPAS 9 - Barrio Parque Futura", "addr_full": "Aruba  Esq. Guanazacate", "addr_postcode": "5000", "phone": "0351-4333517", "ref_sisa_codigo": 50140142233672, "ref_sisa_tipologia": "ESSIDT", "wikidata": "", "wikipedia": "" }, "geometry": { "type": "Point", "coordinates": [ -64.1821289, -31.3989296 ] } },
{ "type": "Feature", "properties": { "amenity": "clinic", "healthcare": "clinic", "operator": "Municipal", "operator_type": "public", "name": "UPAS 14 - Barrio Parque Liceo Ii Secc.", "addr_full": "Manuel Gutierrez Najera 1056", "addr_postcode": "5000", "phone": "0351-4332862", "ref_sisa_codigo": 50140142133197, "ref_sisa_tipologia": "ESSIDT", "wikidata": "", "wikipedia": "" }, "geometry": { "type": "Point", "coordinates": [ -64.161144, -31.358084 ] } },
{ "type": "Feature", "properties": { "amenity": "clinic", "healthcare": "clinic", "operator": "Municipal", "operator_type": "public", "name": "UPAS 3 - Barrio Villa Cornu", "addr_full": "Cauque S\/N ( Al Lado Del Obrador)", "addr_postcode": "5000", "phone": "03543-449431", "ref_sisa_codigo": 50140142233265, "ref_sisa_tipologia": "ESSIDT", "wikidata": "", "wikipedia": "" }, "geometry": { "type": "Point", "coordinates": [ -64.2797184, -31.3222972 ] } }
]
}
