{
"type": "FeatureCollection",
"name": "031-esteban_echeverria",
"features": [
{ "type": "Feature", "properties": { "amenity": "clinic", "healthcare": "clinic", "operator": "Municipal", "operator_type": "public", "name": "C.A.M.I.P.E.E.", "addr_full": "Independencia 556", "addr_postcode": "1842", "phone": "011-4290-9317", "ref_sisa_codigo": 50062602201068, "ref_sisa_tipologia": "ESSIDT", "wikidata": "", "wikipedia": "" }, "geometry": { "type": "Point", "coordinates": [ -58.4641743, -34.8094694 ] } },
{ "type": "Feature", "properties": { "amenity": "clinic", "healthcare": "clinic", "operator": "Municipal", "operator_type": "public", "name": "CAPS 24 Barrio Siglo Xx De Esteban Echeverria", "addr_full": "Norberto Lopez Y Florencio Sanchez S\/Nº", "addr_postcode": "1842", "phone": "011-4295-3606", "ref_sisa_codigo": 50062602201076, "ref_sisa_tipologia": "ESSIDT", "wikidata": "", "wikipedia": "" }, "geometry": { "type": "Point", "coordinates": [ -58.458252, -34.8864942 ] } },
{ "type": "Feature", "properties": { "amenity": "clinic", "healthcare": "clinic", "operator": "Municipal", "operator_type": "public", "name": "Centro De Salud Ramon Carrillo De Esteban Echeverria", "addr_full": "Mariano Acosta 481", "addr_postcode": "1842", "phone": "(011) 4290-2355", "ref_sisa_codigo": 50062602201343, "ref_sisa_tipologia": "ESSIDT", "wikidata": "", "wikipedia": "" }, "geometry": { "type": "Point", "coordinates": [ -58.4735553, -34.8205268 ] } },
{ "type": "Feature", "properties": { "amenity": "clinic", "healthcare": "clinic", "operator": "Municipal", "operator_type": "public", "name": "Centro Medico De Atencion Primaria C.E.M.A.P", "addr_full": "Recarte 69", "addr_postcode": "1842", "phone": "", "ref_sisa_codigo": 50062602216884, "ref_sisa_tipologia": "ESSIDT", "wikidata": "", "wikipedia": "" }, "geometry": { "type": "Point", "coordinates": [ -58.4738084, -34.8160857 ] } },
{ "type": "Feature", "properties": { "amenity": "hospital", "healthcare": "hospital", "operator": "Privado", "operator_type": "private", "name": "Clinica Monte Grande", "addr_full": "General Rodríguez 158", "addr_postcode": "1842", "phone": "011-42902334", "ref_sisa_codigo": 10062602300067, "ref_sisa_tipologia": "ESCIG", "wikidata": "", "wikipedia": "" }, "geometry": { "type": "Point", "coordinates": [ -58.4661603, -34.8145225 ] } },
{ "type": "Feature", "properties": { "amenity": "hospital", "healthcare": "hospital", "operator": "Privado", "operator_type": "private", "name": "Clinica Nueva Ezeiza", "addr_full": "Vicente Lopez 275", "addr_postcode": "1802", "phone": "", "ref_sisa_codigo": 10062702317873, "ref_sisa_tipologia": "ESCIG", "wikidata": "", "wikipedia": "" }, "geometry": { "type": "Point", "coordinates": [ -58.4688735, -34.817265 ] } },
{ "type": "Feature", "properties": { "amenity": "hospital", "healthcare": "hospital", "operator": "Privado", "operator_type": "private", "name": "Mito Laboral S.r.l.", "addr_full": "Bv. Buenos Aires 1255", "addr_postcode": "1838", "phone": "", "ref_sisa_codigo": 10062602307542, "ref_sisa_tipologia": "ESCIG", "wikidata": "", "wikipedia": "" }, "geometry": { "type": "Point", "coordinates": [ -58.4501839, -34.8111343 ] } },
{ "type": "Feature", "properties": { "amenity": "hospital", "healthcare": "hospital", "operator": "Municipal", "operator_type": "public", "name": "Policlinico Sofia Terrero De Santa Marina", "addr_full": "General Alvear 350", "addr_postcode": "1842", "phone": "(011) 4290-0266", "ref_sisa_codigo": 10062602200434, "ref_sisa_tipologia": "ESCIG", "wikidata": "", "wikipedia": "" }, "geometry": { "type": "Point", "coordinates": [ -58.4593379, -34.8139711 ] } },
{ "type": "Feature", "properties": { "amenity": "hospital", "healthcare": "hospital", "operator": "Municipal", "operator_type": "public", "name": "Policlinico Sofia Terrero De Santamarina", "addr_full": "General Alvear 350", "addr_postcode": "1842", "phone": "", "ref_sisa_codigo": 10062602218201, "ref_sisa_tipologia": "ESCIG", "wikidata": "", "wikipedia": "" }, "geometry": { "type": "Point", "coordinates": [ -58.4593379, -34.8139711 ] } },
{ "type": "Feature", "properties": { "amenity": "hospital", "healthcare": "hospital", "operator": "Privado", "operator_type": "private", "name": "Sanatorio Modelo Estrella", "addr_full": "Av. Bruzzone 685\/87", "addr_postcode": "1842", "phone": "", "ref_sisa_codigo": 10062602305259, "ref_sisa_tipologia": "ESCIG", "wikidata": "", "wikipedia": "" }, "geometry": { "type": "Point", "coordinates": [ -58.4663415, -34.8034307 ] } },
{ "type": "Feature", "properties": { "amenity": "clinic", "healthcare": "clinic", "operator": "Municipal", "operator_type": "public", "name": "Unidad Sanitaria Las Flores De Esteban Echeverria", "addr_full": "Miguel Angel Y Alvarez Toledo", "addr_postcode": "1804", "phone": "(011) 4232-9585", "ref_sisa_codigo": 50062602202397, "ref_sisa_tipologia": "ESSIDT", "wikidata": "", "wikipedia": "" }, "geometry": { "type": "Point", "coordinates": [ -58.498101, -34.856881 ] } },
{ "type": "Feature", "properties": { "amenity": "clinic", "healthcare": "clinic", "operator": "Municipal", "operator_type": "public", "name": "Unidad Sanitaria 1 De Luis Guillon", "addr_full": "Subteniente Ignacio Gamarra 124", "addr_postcode": "1838", "phone": "(011) 4290-0145", "ref_sisa_codigo": 50062602202463, "ref_sisa_tipologia": "ESSIDT", "wikidata": "", "wikipedia": "" }, "geometry": { "type": "Point", "coordinates": [ -58.45499, -34.804125 ] } },
{ "type": "Feature", "properties": { "amenity": "clinic", "healthcare": "clinic", "operator": "Municipal", "operator_type": "public", "name": "Unidad Sanitaria 10 El Zalzar De 9 De Abril", "addr_full": "Av. Luis Vernet 3809", "addr_postcode": "1776", "phone": "(011) 4272-2495", "ref_sisa_codigo": 50062602202477, "ref_sisa_tipologia": "ESSIDT", "wikidata": "", "wikipedia": "" }, "geometry": { "type": "Point", "coordinates": [ -58.4899493, -34.7822586 ] } },
{ "type": "Feature", "properties": { "amenity": "clinic", "healthcare": "clinic", "operator": "Municipal", "operator_type": "public", "name": "Unidad Sanitaria 11 Parish Robertson De Luis Guillon", "addr_full": "Eduardo Prayones Y Prof. A. Maxer", "addr_postcode": "1838", "phone": "(011) 4272-8271", "ref_sisa_codigo": 50062602202485, "ref_sisa_tipologia": "ESSIDT", "wikidata": "", "wikipedia": "" }, "geometry": { "type": "Point", "coordinates": [ -58.4742165, -34.7870611 ] } },
{ "type": "Feature", "properties": { "amenity": "clinic", "healthcare": "clinic", "operator": "Municipal", "operator_type": "public", "name": "Unidad Sanitaria 12 De Luis Guillon", "addr_full": "Juan De Garay 1940", "addr_postcode": "1838", "phone": "(011) 4290-3727", "ref_sisa_codigo": 50062602202491, "ref_sisa_tipologia": "ESSIDT", "wikidata": "", "wikipedia": "" }, "geometry": { "type": "Point", "coordinates": [ -58.4353858, -34.8145265 ] } },
{ "type": "Feature", "properties": { "amenity": "clinic", "healthcare": "clinic", "operator": "Municipal", "operator_type": "public", "name": "Unidad Sanitaria 13 Santa Catalina De Luis Guillon", "addr_full": "Nicaragua Y  Cepeda S\/Nº", "addr_postcode": "1838", "phone": "(011) 4272-9539", "ref_sisa_codigo": 50062602202502, "ref_sisa_tipologia": "ESSIDT", "wikidata": "", "wikipedia": "" }, "geometry": { "type": "Point", "coordinates": [ -58.462998, -34.789835 ] } },
{ "type": "Feature", "properties": { "amenity": "clinic", "healthcare": "clinic", "operator": "Municipal", "operator_type": "public", "name": "Unidad Sanitaria 14 Montana De Monte Grande", "addr_full": "Pedro Gandulfo Y Vidal", "addr_postcode": "1842", "phone": "(011) 4272-7722", "ref_sisa_codigo": 50062602202510, "ref_sisa_tipologia": "ESSIDT", "wikidata": "", "wikipedia": "" }, "geometry": { "type": "Point", "coordinates": [ -58.5041821, -34.8128831 ] } },
{ "type": "Feature", "properties": { "amenity": "clinic", "healthcare": "clinic", "operator": "Municipal", "operator_type": "public", "name": "Unidad Sanitaria 15 Santa Rita De Esteban Echeverria", "addr_full": "Rivero 50", "addr_postcode": "1842", "phone": "(011) 4296-4141", "ref_sisa_codigo": 50062602202515, "ref_sisa_tipologia": "ESSIDT", "wikidata": "", "wikipedia": "" }, "geometry": { "type": "Point", "coordinates": [ -58.485163, -34.795686 ] } },
{ "type": "Feature", "properties": { "amenity": "clinic", "healthcare": "clinic", "operator": "Municipal", "operator_type": "public", "name": "Unidad Sanitaria 16 Las Colinas De Esteban Echeverria", "addr_full": "Avenida Fritz Roy Y Mercedes S\/Nº", "addr_postcode": "1842", "phone": "(011) 4263-2456", "ref_sisa_codigo": 50062602202521, "ref_sisa_tipologia": "ESSIDT", "wikidata": "", "wikipedia": "" }, "geometry": { "type": "Point", "coordinates": [ -58.441154, -34.844252 ] } },
{ "type": "Feature", "properties": { "amenity": "clinic", "healthcare": "clinic", "operator": "Municipal", "operator_type": "public", "name": "Unidad Sanitaria 17 Villa Inmaculada De Esteban Echeverria", "addr_full": "Leopoldo Liñán Y Batippede S\/Nº", "addr_postcode": "1842", "phone": "(011) 4396-0215", "ref_sisa_codigo": 50062602202531, "ref_sisa_tipologia": "ESSIDT", "wikidata": "", "wikipedia": "" }, "geometry": { "type": "Point", "coordinates": [ -58.466903, -34.840554 ] } },
{ "type": "Feature", "properties": { "amenity": "clinic", "healthcare": "clinic", "operator": "Municipal", "operator_type": "public", "name": "Unidad Sanitaria 18 De Esteban Echeverria", "addr_full": "Av Dr. Gilberto Elizalde 8850 (Casi Roca) - Barrio San Sebastián", "addr_postcode": "1776", "phone": "", "ref_sisa_codigo": 50062602202535, "ref_sisa_tipologia": "ESSIDT", "wikidata": "", "wikipedia": "" }, "geometry": { "type": "Point", "coordinates": [ -58.495678, -34.730269 ] } },
{ "type": "Feature", "properties": { "amenity": "clinic", "healthcare": "clinic", "operator": "Municipal", "operator_type": "public", "name": "Unidad Sanitaria 19 De Esteban Echeverria", "addr_full": "Colonia Monte Grande 4914", "addr_postcode": "1776", "phone": "(011) 4693-2111", "ref_sisa_codigo": 50062602202544, "ref_sisa_tipologia": "ESSIDT", "wikidata": "", "wikipedia": "" }, "geometry": { "type": "Point", "coordinates": [ -58.4785464, -34.7757934 ] } },
{ "type": "Feature", "properties": { "amenity": "clinic", "healthcare": "clinic", "operator": "Municipal", "operator_type": "public", "name": "Unidad Sanitaria 2 De Esteban Echeverria", "addr_full": "12 De Octubre 1379", "addr_postcode": "1842", "phone": "(011) 4296-4218", "ref_sisa_codigo": 50062602202548, "ref_sisa_tipologia": "ESSIDT", "wikidata": "", "wikipedia": "" }, "geometry": { "type": "Point", "coordinates": [ -58.4913153, -34.8178056 ] } },
{ "type": "Feature", "properties": { "amenity": "clinic", "healthcare": "clinic", "operator": "Municipal", "operator_type": "public", "name": "Unidad Sanitaria 20 Altos De Monte Grande De El Jaguel", "addr_full": "Estrada 697", "addr_postcode": "1842", "phone": "(011) 4295-3221", "ref_sisa_codigo": 50062602202558, "ref_sisa_tipologia": "ESSIDT", "wikidata": "", "wikipedia": "" }, "geometry": { "type": "Point", "coordinates": [ -58.499263, -34.842192 ] } },
{ "type": "Feature", "properties": { "amenity": "clinic", "healthcare": "clinic", "operator": "Municipal", "operator_type": "public", "name": "Unidad Sanitaria 25 De 9 De Abril", "addr_full": "Santos Vega Y San Juan S\/N", "addr_postcode": "1776", "phone": "", "ref_sisa_codigo": 50062602202575, "ref_sisa_tipologia": "ESSIDT", "wikidata": "", "wikipedia": "" }, "geometry": { "type": "Point", "coordinates": [ -58.48924, -34.749952 ] } },
{ "type": "Feature", "properties": { "amenity": "clinic", "healthcare": "clinic", "operator": "Municipal", "operator_type": "public", "name": "Unidad Sanitaria 3 El Jaguel De Esteban Echeverria", "addr_full": "El Ceibo Y Manuel Julián Medel (Ex Buenos Aires)", "addr_postcode": "1842", "phone": "(011) 4232-7724", "ref_sisa_codigo": 50062602202591, "ref_sisa_tipologia": "ESSIDT", "wikidata": "", "wikipedia": "" }, "geometry": { "type": "Point", "coordinates": [ -58.488382, -34.842438 ] } },
{ "type": "Feature", "properties": { "amenity": "clinic", "healthcare": "clinic", "operator": "Municipal", "operator_type": "public", "name": "Unidad Sanitaria 4 San Pedrito De Esteban Echeverria", "addr_full": "San Pedrito 416", "addr_postcode": "1842", "phone": "(011) 4263-0667", "ref_sisa_codigo": 50062602202624, "ref_sisa_tipologia": "ESSIDT", "wikidata": "", "wikipedia": "" }, "geometry": { "type": "Point", "coordinates": [ -58.4557099, -34.8426467 ] } },
{ "type": "Feature", "properties": { "amenity": "clinic", "healthcare": "clinic", "operator": "Municipal", "operator_type": "public", "name": "Unidad Sanitaria 5 De Esteban Echeverria", "addr_full": "Eduardo Prayones 3540", "addr_postcode": "1776", "phone": "4272-0946", "ref_sisa_codigo": 50062602202631, "ref_sisa_tipologia": "ESSIDT", "wikidata": "", "wikipedia": "" }, "geometry": { "type": "Point", "coordinates": [ -58.479312, -34.7790439 ] } },
{ "type": "Feature", "properties": { "amenity": "clinic", "healthcare": "clinic", "operator": "Municipal", "operator_type": "public", "name": "Unidad Sanitaria 6 De Esteban Echeverria", "addr_full": "Dr. E. Restelli Y Santa María S\/Nº", "addr_postcode": "1776", "phone": "(011) 4693-2730", "ref_sisa_codigo": 50062602202644, "ref_sisa_tipologia": "ESSIDT", "wikidata": "", "wikipedia": "" }, "geometry": { "type": "Point", "coordinates": [ -58.488082, -34.756858 ] } },
{ "type": "Feature", "properties": { "amenity": "clinic", "healthcare": "clinic", "operator": "Municipal", "operator_type": "public", "name": "Unidad Sanitaria 8 De Esteban Echeverria", "addr_full": "Pablo Pizurno Y San Pedrito", "addr_postcode": "1842", "phone": "(011) 4235-0551", "ref_sisa_codigo": 50062602202665, "ref_sisa_tipologia": "ESSIDT", "wikidata": "", "wikipedia": "" }, "geometry": { "type": "Point", "coordinates": [ -58.478254, -34.852476 ] } },
{ "type": "Feature", "properties": { "amenity": "clinic", "healthcare": "clinic", "operator": "Municipal", "operator_type": "public", "name": "Unidad Sanitaria 9 San Ignacio De Esteban Echeverria", "addr_full": "Matheu 2665", "addr_postcode": "1842", "phone": "(011) 4232-5210", "ref_sisa_codigo": 50062602202684, "ref_sisa_tipologia": "ESSIDT", "wikidata": "", "wikipedia": "" }, "geometry": { "type": "Point", "coordinates": [ -58.5038879, -34.8201167 ] } },
{ "type": "Feature", "properties": { "amenity": "clinic", "healthcare": "clinic", "operator": "Municipal", "operator_type": "public", "name": "Unidad Sanitaria 27 San Carlos", "addr_full": "Lago Argentino 6963", "addr_postcode": "1893", "phone": "", "ref_sisa_codigo": 50062602106690, "ref_sisa_tipologia": "ESSIDT", "wikidata": "", "wikipedia": "" }, "geometry": { "type": "Point", "coordinates": [ -58.4850474, -34.7459411 ] } },
{ "type": "Feature", "properties": { "amenity": "clinic", "healthcare": "clinic", "operator": "Municipal", "operator_type": "public", "name": "Unidad Sanitaria Santa Catalina", "addr_full": "Mercurio S\/N", "addr_postcode": "6073", "phone": "011-46932181", "ref_sisa_codigo": 50064902202810, "ref_sisa_tipologia": "ESSIDT", "wikidata": "", "wikipedia": "" }, "geometry": { "type": "Point", "coordinates": [ -58.4748119, -34.7682486 ] } }
]
}
