{
"type": "FeatureCollection",
"name": "032-ituzaingo",
"features": [
{ "type": "Feature", "properties": { "amenity": "clinic", "healthcare": "clinic", "operator": "Municipal", "operator_type": "public", "name": "Centro De Atencion De La Tercera Edad", "addr_full": "Soler 255", "addr_postcode": "1714", "phone": "", "ref_sisa_codigo": 50064102207089, "ref_sisa_tipologia": "ESSIDT", "wikidata": "", "wikipedia": "" }, "geometry": { "type": "Point", "coordinates": [ -58.6682367, -34.6575756 ] } },
{ "type": "Feature", "properties": { "amenity": "clinic", "healthcare": "clinic", "operator": "Municipal", "operator_type": "public", "name": "Centro De Atencion Medica Primaria De Ituzaingo Doctor Ramon Carrillo", "addr_full": "Brandsen 3859", "addr_postcode": "1714", "phone": "011-44813496", "ref_sisa_codigo": 50064102201631, "ref_sisa_tipologia": "ESSIDT", "wikidata": "", "wikipedia": "" }, "geometry": { "type": "Point", "coordinates": [ -58.7008073, -34.631053 ] } },
{ "type": "Feature", "properties": { "amenity": "clinic", "healthcare": "clinic", "operator": "Municipal", "operator_type": "public", "name": "Centro Villa Las Naciones", "addr_full": "Haiti Y Turquia Barrio Villa Las Naciones", "addr_postcode": "1714", "phone": "011-0800-6661432", "ref_sisa_codigo": 50064102201506, "ref_sisa_tipologia": "ESSIDT", "wikidata": "", "wikipedia": "" }, "geometry": { "type": "Point", "coordinates": [ -58.6988332, -34.6564914 ] } },
{ "type": "Feature", "properties": { "amenity": "hospital", "healthcare": "hospital", "operator": "Privado", "operator_type": "private", "name": "Sanatorio Del Oeste - (ex Imc Sanatorio Ituzaingo)", "addr_full": "Gral. Olazabal 319", "addr_postcode": "1714", "phone": "(011) 4623-2055", "ref_sisa_codigo": 10064102300124, "ref_sisa_tipologia": "ESCIG", "wikidata": "", "wikipedia": "" }, "geometry": { "type": "Point", "coordinates": [ -58.66, -34.65456 ] } },
{ "type": "Feature", "properties": { "amenity": "clinic", "healthcare": "clinic", "operator": "Municipal", "operator_type": "public", "name": "Unidad Sanitaria 17 De Octubre De Ituzaingo", "addr_full": "Del Petral Y El Rancho", "addr_postcode": "1713", "phone": "(011) 4621-9191", "ref_sisa_codigo": 50064102202923, "ref_sisa_tipologia": "ESSIDT", "wikidata": "", "wikipedia": "" }, "geometry": { "type": "Point", "coordinates": [ -58.688582, -34.601046 ] } },
{ "type": "Feature", "properties": { "amenity": "clinic", "healthcare": "clinic", "operator": "Municipal", "operator_type": "public", "name": "Unidad Sanitaria Gonzalez Otharan", "addr_full": "Zorrilla De San Martin 4249", "addr_postcode": "1713", "phone": "011-4621-7342", "ref_sisa_codigo": 50064102202316, "ref_sisa_tipologia": "ESSIDT", "wikidata": "", "wikipedia": "" }, "geometry": { "type": "Point", "coordinates": [ -58.7015584, -34.6131656 ] } },
{ "type": "Feature", "properties": { "amenity": "clinic", "healthcare": "clinic", "operator": "Municipal", "operator_type": "public", "name": "Unidad Sanitaria Ituzaingo Sur", "addr_full": "Gelpi 2155", "addr_postcode": "1714", "phone": "011-4623-4347", "ref_sisa_codigo": 50064102202338, "ref_sisa_tipologia": "ESSIDT", "wikidata": "", "wikipedia": "" }, "geometry": { "type": "Point", "coordinates": [ -58.679178, -34.670443 ] } },
{ "type": "Feature", "properties": { "amenity": "clinic", "healthcare": "clinic", "operator": "Municipal", "operator_type": "public", "name": "Unidad Sanitaria San Alberto", "addr_full": "Coronel Pringles Y Ecuador", "addr_postcode": "1714", "phone": "011-4621-7227", "ref_sisa_codigo": 50064102202770, "ref_sisa_tipologia": "ESSIDT", "wikidata": "", "wikipedia": "" }, "geometry": { "type": "Point", "coordinates": [ -58.7053134, -34.648001 ] } },
{ "type": "Feature", "properties": { "amenity": "clinic", "healthcare": "clinic", "operator": "Municipal", "operator_type": "public", "name": "Unidad Sanitaria Villa Angela", "addr_full": "La Rastra 827", "addr_postcode": "1713", "phone": "011-4621-2015", "ref_sisa_codigo": 50064102202866, "ref_sisa_tipologia": "ESSIDT", "wikidata": "", "wikipedia": "" }, "geometry": { "type": "Point", "coordinates": [ -58.6719682, -34.6264977 ] } }
]
}
