{
"type": "FeatureCollection",
"name": "033-ezeiza",
"features": [
{ "type": "Feature", "properties": { "amenity": "clinic", "healthcare": "clinic", "operator": "Municipal", "operator_type": "public", "name": "Centro De Salud 1", "addr_full": "Juan De Garay Y Alto Perú S\/N- Barrio El Tala", "addr_postcode": "1804", "phone": "(011) 4295-3765", "ref_sisa_codigo": 50062702202462, "ref_sisa_tipologia": "ESSIDT", "wikidata": "", "wikipedia": "" }, "geometry": { "type": "Point", "coordinates": [ -58.535761, -34.852951 ] } },
{ "type": "Feature", "properties": { "amenity": "clinic", "healthcare": "clinic", "operator": "Municipal", "operator_type": "public", "name": "Centro De Salud 10", "addr_full": "Corrientes Y Rawson", "addr_postcode": "1804", "phone": "(011) 4232-9699", "ref_sisa_codigo": 50062702202475, "ref_sisa_tipologia": "ESSIDT", "wikidata": "", "wikipedia": "" }, "geometry": { "type": "Point", "coordinates": [ -58.545009, -34.855416 ] } },
{ "type": "Feature", "properties": { "amenity": "clinic", "healthcare": "clinic", "operator": "Municipal", "operator_type": "public", "name": "Centro De Salud 12", "addr_full": "Gonnet Y Echeverría - Altos De Tristán Suárez", "addr_postcode": "1804", "phone": "(011) 4234-9691", "ref_sisa_codigo": 50062702202492, "ref_sisa_tipologia": "ESSIDT", "wikidata": "", "wikipedia": "" }, "geometry": { "type": "Point", "coordinates": [ -58.575359, -34.888146 ] } },
{ "type": "Feature", "properties": { "amenity": "clinic", "healthcare": "clinic", "operator": "Municipal", "operator_type": "public", "name": "Centro De Salud 14", "addr_full": "Floresta Y Hugo Gilarte", "addr_postcode": "1804", "phone": "(011) 4234-1403", "ref_sisa_codigo": 50062702202506, "ref_sisa_tipologia": "ESSIDT", "wikidata": "", "wikipedia": "" }, "geometry": { "type": "Point", "coordinates": [ -58.532401, -34.894121 ] } },
{ "type": "Feature", "properties": { "amenity": "clinic", "healthcare": "clinic", "operator": "Municipal", "operator_type": "public", "name": "Centro De Salud 16", "addr_full": "Cordoba Y Rivadavia Barrio Villa Guillermina", "addr_postcode": "1804", "phone": "011-42329085", "ref_sisa_codigo": 50062702202518, "ref_sisa_tipologia": "ESSIDT", "wikidata": "", "wikipedia": "" }, "geometry": { "type": "Point", "coordinates": [ -58.5172741, -34.8455474 ] } },
{ "type": "Feature", "properties": { "amenity": "clinic", "healthcare": "clinic", "operator": "Municipal", "operator_type": "public", "name": "Centro De Salud 18", "addr_full": "Saavedra 946", "addr_postcode": "1804", "phone": "011-42348703", "ref_sisa_codigo": 50062702202538, "ref_sisa_tipologia": "ESSIDT", "wikidata": "", "wikipedia": "" }, "geometry": { "type": "Point", "coordinates": [ -58.5367605, -34.8501403 ] } },
{ "type": "Feature", "properties": { "amenity": "clinic", "healthcare": "clinic", "operator": "Municipal", "operator_type": "public", "name": "Centro De Salud 19", "addr_full": "Las Tipas Y Los Tulipanes Barrio La Porteña", "addr_postcode": "1804", "phone": "011-4386-3227", "ref_sisa_codigo": 50062702201065, "ref_sisa_tipologia": "ESSIDT", "wikidata": "", "wikipedia": "" }, "geometry": { "type": "Point", "coordinates": [ -58.5527086, -34.8864942 ] } },
{ "type": "Feature", "properties": { "amenity": "clinic", "healthcare": "clinic", "operator": "Municipal", "operator_type": "public", "name": "Centro De Salud 2", "addr_full": "Giribone 154", "addr_postcode": "1804", "phone": "(011) 4232-9528", "ref_sisa_codigo": 50062702202552, "ref_sisa_tipologia": "ESSIDT", "wikidata": "", "wikipedia": "" }, "geometry": { "type": "Point", "coordinates": [ -58.5099351, -34.8477087 ] } },
{ "type": "Feature", "properties": { "amenity": "clinic", "healthcare": "clinic", "operator": "Municipal", "operator_type": "public", "name": "Centro De Salud 24 La Cunita", "addr_full": "Urquiza Y Saavedra - Bo. Vecinal", "addr_postcode": "1804", "phone": "011-4295-0443", "ref_sisa_codigo": 50062702201447, "ref_sisa_tipologia": "ESSIDT", "wikidata": "", "wikipedia": "" }, "geometry": { "type": "Point", "coordinates": [ -58.539362, -34.8517064 ] } },
{ "type": "Feature", "properties": { "amenity": "clinic", "healthcare": "clinic", "operator": "Municipal", "operator_type": "public", "name": "Centro De Salud 3  La Cunita 2", "addr_full": "Argerich Y Ciudad De Goya", "addr_postcode": "1804", "phone": "(011) 4398-0782", "ref_sisa_codigo": 50062702202589, "ref_sisa_tipologia": "ESSIDT", "wikidata": "", "wikipedia": "" }, "geometry": { "type": "Point", "coordinates": [ -58.531233, -34.870681 ] } },
{ "type": "Feature", "properties": { "amenity": "clinic", "healthcare": "clinic", "operator": "Municipal", "operator_type": "public", "name": "Centro De Salud 4", "addr_full": "Lacarra 745", "addr_postcode": "1804", "phone": "011-42958265", "ref_sisa_codigo": 50062702202616, "ref_sisa_tipologia": "ESSIDT", "wikidata": "", "wikipedia": "" }, "geometry": { "type": "Point", "coordinates": [ -58.5155146, -34.8704615 ] } },
{ "type": "Feature", "properties": { "amenity": "clinic", "healthcare": "clinic", "operator": "Municipal", "operator_type": "public", "name": "Centro De Salud 6", "addr_full": "Quito 1005", "addr_postcode": "1806", "phone": "011-42342754", "ref_sisa_codigo": 50062702202642, "ref_sisa_tipologia": "ESSIDT", "wikidata": "", "wikipedia": "" }, "geometry": { "type": "Point", "coordinates": [ -58.5742364, -34.9044862 ] } },
{ "type": "Feature", "properties": { "amenity": "clinic", "healthcare": "clinic", "operator": "Municipal", "operator_type": "public", "name": "Centro De Salud 7", "addr_full": "Riachuelo E Italia Carlos Spegazzini", "addr_postcode": "1806", "phone": "02274-430460", "ref_sisa_codigo": 50062702201331, "ref_sisa_tipologia": "ESSIDT", "wikidata": "", "wikipedia": "" }, "geometry": { "type": "Point", "coordinates": [ -58.596096, -34.9209506 ] } },
{ "type": "Feature", "properties": { "amenity": "clinic", "healthcare": "clinic", "operator": "Municipal", "operator_type": "public", "name": "Centro De Salud 8", "addr_full": "San Salvador De Jujuy S\/N°", "addr_postcode": "1806", "phone": "02274-450023", "ref_sisa_codigo": 50062702202664, "ref_sisa_tipologia": "ESSIDT", "wikidata": "", "wikipedia": "" }, "geometry": { "type": "Point", "coordinates": [ -58.6187813, -34.9084969 ] } },
{ "type": "Feature", "properties": { "amenity": "clinic", "healthcare": "clinic", "operator": "Municipal", "operator_type": "public", "name": "Centro De Salud 3", "addr_full": "Goya Y Artigas", "addr_postcode": "1804", "phone": "011-43980782", "ref_sisa_codigo": 50062702201308, "ref_sisa_tipologia": "ESSIDT", "wikidata": "", "wikipedia": "" }, "geometry": { "type": "Point", "coordinates": [ -58.5296767, -34.872837 ] } },
{ "type": "Feature", "properties": { "amenity": "clinic", "healthcare": "clinic", "operator": "Municipal", "operator_type": "public", "name": "Centro De Salud 5", "addr_full": "Canale Y Thompson", "addr_postcode": "1806", "phone": "(011) 4234-9105", "ref_sisa_codigo": 50062702201326, "ref_sisa_tipologia": "ESSIDT", "wikidata": "", "wikipedia": "" }, "geometry": { "type": "Point", "coordinates": [ -58.5684156, -34.89368 ] } },
{ "type": "Feature", "properties": { "amenity": "hospital", "healthcare": "hospital", "operator": "Privado", "operator_type": "private", "name": "Clinica Privada Tristan Suarez", "addr_full": "J. Canale 30", "addr_postcode": "1806", "phone": "(011) 4234-8142", "ref_sisa_codigo": 10062702300170, "ref_sisa_tipologia": "ESCIG", "wikidata": "", "wikipedia": "" }, "geometry": { "type": "Point", "coordinates": [ -58.5661878, -34.8923494 ] } },
{ "type": "Feature", "properties": { "amenity": "clinic", "healthcare": "clinic", "operator": "Municipal", "operator_type": "public", "name": "EGB 22 Escuela - Hogar D. F. Sarmiento De Esteban Echeverria", "addr_full": "Autopista Ricchieri Y Ruta 205", "addr_postcode": "1842", "phone": "011-4480-0120", "ref_sisa_codigo": 50062602201614, "ref_sisa_tipologia": "ESSIDT", "wikidata": "", "wikipedia": "" }, "geometry": { "type": "Point", "coordinates": [ -58.5241699, -34.7857523 ] } },
{ "type": "Feature", "properties": { "amenity": "clinic", "healthcare": "clinic", "operator": "Municipal", "operator_type": "public", "name": "Hospital Movil De Ezeiza", "addr_full": "Carlos Tejedor 444", "addr_postcode": "1804", "phone": "011-448-0884", "ref_sisa_codigo": 53062702203128, "ref_sisa_tipologia": "ESSIDT", "wikidata": "", "wikipedia": "" }, "geometry": { "type": "Point", "coordinates": [ -58.5840593, -34.8297997 ] } },
{ "type": "Feature", "properties": { "amenity": "hospital", "healthcare": "hospital", "operator": "Provincial", "operator_type": "public", "name": "Hospital Zonal General De Agudos Eurnekian (ex Madre Teresa De Calcuta)", "addr_full": "Alem Nş 349", "addr_postcode": "1804", "phone": "011-4800265", "ref_sisa_codigo": 10062702100403, "ref_sisa_tipologia": "ESCIG", "wikidata": "", "wikipedia": "" }, "geometry": { "type": "Point", "coordinates": [ -58.5233388, -34.7902337 ] } },
{ "type": "Feature", "properties": { "amenity": "clinic", "healthcare": "clinic", "operator": "Municipal", "operator_type": "public", "name": "Sociedad De Fomento Cultural Y Deportiva Sol Y Oro", "addr_full": "Los Molinos 675 Entre El Rosedal Y Quebracho - La Union", "addr_postcode": "1804", "phone": "011-42349960", "ref_sisa_codigo": 50062702201983, "ref_sisa_tipologia": "ESSIDT", "wikidata": "", "wikipedia": "" }, "geometry": { "type": "Point", "coordinates": [ -58.534054, -34.8920587 ] } },
{ "type": "Feature", "properties": { "amenity": "clinic", "healthcare": "clinic", "operator": "Municipal", "operator_type": "public", "name": "Unidad Sanitaria 15", "addr_full": "Pitagoras 621", "addr_postcode": "1812", "phone": "011-4386-0801", "ref_sisa_codigo": 50062702215028, "ref_sisa_tipologia": "ESSIDT", "wikidata": "", "wikipedia": "" }, "geometry": { "type": "Point", "coordinates": [ -58.5941741, -34.9089858 ] } },
{ "type": "Feature", "properties": { "amenity": "clinic", "healthcare": "clinic", "operator": "Municipal", "operator_type": "public", "name": "Unidad Sanitaria 5", "addr_full": "Belgrano Y Canale", "addr_postcode": "1806", "phone": "4234-9105", "ref_sisa_codigo": 50062702215029, "ref_sisa_tipologia": "ESSIDT", "wikidata": "", "wikipedia": "" }, "geometry": { "type": "Point", "coordinates": [ -58.5671175, -34.8929581 ] } }
]
}
