{
"type": "FeatureCollection",
"name": "034-avellaneda",
"features": [
{ "type": "Feature", "properties": { "amenity": "clinic", "healthcare": "clinic", "operator": "Provincial", "operator_type": "public", "name": "CAPS Materno Infanto Juvenil", "addr_full": "Calle Barrio 40 Viviendas 11", "addr_postcode": "8363", "phone": "02946-480116", "ref_sisa_codigo": 50620142170089, "ref_sisa_tipologia": "ESSIDT", "wikidata": "", "wikipedia": "" }, "geometry": { "type": "Point", "coordinates": [ -65.764184, -39.314894 ] } },
{ "type": "Feature", "properties": { "amenity": "clinic", "healthcare": "clinic", "operator": "Provincial", "operator_type": "public", "name": "Centro De Salud Barrio Belgrano", "addr_full": "Uruguay Y Urquiza", "addr_postcode": "8363", "phone": "", "ref_sisa_codigo": 50620142170103, "ref_sisa_tipologia": "ESSIDT", "wikidata": "", "wikipedia": "" }, "geometry": { "type": "Point", "coordinates": [ -66.0058594, -39.9097362 ] } },
{ "type": "Feature", "properties": { "amenity": "clinic", "healthcare": "clinic", "operator": "Provincial", "operator_type": "public", "name": "Centro De Salud Chelforo", "addr_full": "Seccion Chacras Sobre Ruta 22", "addr_postcode": "8364", "phone": "", "ref_sisa_codigo": 50620142170123, "ref_sisa_tipologia": "ESSIDT", "wikidata": "", "wikipedia": "" }, "geometry": { "type": "Point", "coordinates": [ -66.143159, -39.16169 ] } },
{ "type": "Feature", "properties": { "amenity": "clinic", "healthcare": "clinic", "operator": "Provincial", "operator_type": "public", "name": "Centro De Salud Darwin", "addr_full": "Avenida Julio A. Roca S\/N Esquina Tramonti", "addr_postcode": "8360", "phone": "", "ref_sisa_codigo": 50620142170133, "ref_sisa_tipologia": "ESSIDT", "wikidata": "", "wikipedia": "" }, "geometry": { "type": "Point", "coordinates": [ -65.73721, -39.20286 ] } },
{ "type": "Feature", "properties": { "amenity": "clinic", "healthcare": "clinic", "operator": "Provincial", "operator_type": "public", "name": "Centro De Salud Paso De Piedra", "addr_full": "Seccion Chacras Escuela 77 - Ruta 250 Km 8", "addr_postcode": "8360", "phone": "", "ref_sisa_codigo": 50620142170179, "ref_sisa_tipologia": "ESSIDT", "wikidata": "", "wikipedia": "" }, "geometry": { "type": "Point", "coordinates": [ -65.40159, -39.19275 ] } },
{ "type": "Feature", "properties": { "amenity": "clinic", "healthcare": "clinic", "operator": "Provincial", "operator_type": "public", "name": "Centro De Salud Urbano Esperanza", "addr_full": "Belgrano 86", "addr_postcode": "8363", "phone": "(02946) 48-0323", "ref_sisa_codigo": 50620142170200, "ref_sisa_tipologia": "ESSIDT", "wikidata": "", "wikipedia": "" }, "geometry": { "type": "Point", "coordinates": [ -65.764275, -39.316914 ] } },
{ "type": "Feature", "properties": { "amenity": "clinic", "healthcare": "clinic", "operator": "Provincial", "operator_type": "public", "name": "Centro De Salud Villa Union", "addr_full": "Villegas 1761", "addr_postcode": "8360", "phone": "", "ref_sisa_codigo": 50620142170210, "ref_sisa_tipologia": "ESSIDT", "wikidata": "", "wikipedia": "" }, "geometry": { "type": "Point", "coordinates": [ -65.656827, -39.299015 ] } },
{ "type": "Feature", "properties": { "amenity": "hospital", "healthcare": "hospital", "operator": "Provincial", "operator_type": "public", "name": "Hospital Area Programa Chimpay", "addr_full": "Don Bosco S\/n", "addr_postcode": "8364", "phone": "(02946) 49-4500", "ref_sisa_codigo": 10620142170013, "ref_sisa_tipologia": "ESCIG", "wikidata": "", "wikipedia": "" }, "geometry": { "type": "Point", "coordinates": [ -66.1417, -39.164551 ] } },
{ "type": "Feature", "properties": { "amenity": "hospital", "healthcare": "hospital", "operator": "Provincial", "operator_type": "public", "name": "Hospital Area Programa Choele Choel", "addr_full": "Avenida Gral San Martín 1326", "addr_postcode": "8360", "phone": "(02946) 44-2219", "ref_sisa_codigo": 10620142170014, "ref_sisa_tipologia": "ESCIG", "wikidata": "", "wikipedia": "" }, "geometry": { "type": "Point", "coordinates": [ -65.6595637, -39.2947224 ] } },
{ "type": "Feature", "properties": { "amenity": "hospital", "healthcare": "hospital", "operator": "Provincial", "operator_type": "public", "name": "Hospital Area Programa Coronel Belisle", "addr_full": "Avenida Pablo Belisle S\/n", "addr_postcode": "3463", "phone": "(02946) 49-2031", "ref_sisa_codigo": 10620142170017, "ref_sisa_tipologia": "ESCIG", "wikidata": "", "wikipedia": "" }, "geometry": { "type": "Point", "coordinates": [ -65.9567369, -39.1871055 ] } },
{ "type": "Feature", "properties": { "amenity": "hospital", "healthcare": "hospital", "operator": "Provincial", "operator_type": "public", "name": "Hospital Area Programa Lamarque Doctor Jorge Rebok", "addr_full": "Rivadavia 250", "addr_postcode": "8363", "phone": "(02946) 49-7039", "ref_sisa_codigo": 10620142170025, "ref_sisa_tipologia": "ESCIG", "wikidata": "", "wikipedia": "" }, "geometry": { "type": "Point", "coordinates": [ -65.699439, -39.426445 ] } },
{ "type": "Feature", "properties": { "amenity": "hospital", "healthcare": "hospital", "operator": "Provincial", "operator_type": "public", "name": "Hospital Area Programa Luis Beltran Doctor Fernando Rocha", "addr_full": "V. López y Planes 773 y Chacabuco", "addr_postcode": "8361", "phone": "(02946) 48-0116", "ref_sisa_codigo": 10620142170037, "ref_sisa_tipologia": "ESCIG", "wikidata": "", "wikipedia": "" }, "geometry": { "type": "Point", "coordinates": [ -65.75948, -39.30888 ] } },
{ "type": "Feature", "properties": { "amenity": "hospital", "healthcare": "hospital", "operator": "Provincial", "operator_type": "public", "name": "Hospital Area Programa Pomona", "addr_full": "Sarmiento 118", "addr_postcode": "8363", "phone": "02946-491425", "ref_sisa_codigo": 50620142170292, "ref_sisa_tipologia": "ESCIG", "wikidata": "", "wikipedia": "" }, "geometry": { "type": "Point", "coordinates": [ -65.9526076, -39.1885013 ] } },
{ "type": "Feature", "properties": { "amenity": "hospital", "healthcare": "hospital", "operator": "Privado", "operator_type": "private", "name": "Instituto Medico Patagonico (imepa)", "addr_full": "Avellaneda 715", "addr_postcode": "8360", "phone": "(02946) 44-2267", "ref_sisa_codigo": 10620142370043, "ref_sisa_tipologia": "ESCIG", "wikidata": "", "wikipedia": "" }, "geometry": { "type": "Point", "coordinates": [ -65.6622, -39.29103 ] } },
{ "type": "Feature", "properties": { "amenity": "clinic", "healthcare": "clinic", "operator": "Provincial", "operator_type": "public", "name": "Puesto Sanitario Barrio Maldonado", "addr_full": "Primeros Pobladores 330", "addr_postcode": "8360", "phone": "", "ref_sisa_codigo": 50620142170234, "ref_sisa_tipologia": "ESSIDT", "wikidata": "", "wikipedia": "" }, "geometry": { "type": "Point", "coordinates": [ -65.6762, -39.2843 ] } }
]
}
