{
"type": "FeatureCollection",
"features": [
{ "type": "Feature", "properties": { "amenity": "clinic", "healthcare": "clinic", "operator": "Provincial", "operator_type": "public", "name": "Centro De Rehabilitacion Hospital Central", "addr_full": "Gral. Mosconi 486", "addr_postcode": "5800", "phone": "0358-4672934", "ref_sisa_codigo": 50140982133408, "ref_sisa_tipologia": "ESSIDT", "wikidata": null, "wikipedia": null }, "geometry": { "type": "Point", "coordinates": [ -64.3488372, -33.1523527 ] } },
{ "type": "Feature", "properties": { "amenity": "clinic", "healthcare": "clinic", "operator": "Municipal", "operator_type": "public", "name": "Centro De Salud Juan Cortona", "addr_full": "Pje. Bulnes 157", "addr_postcode": "5805", "phone": "(0358) 497-0006", "ref_sisa_codigo": 50140982231664, "ref_sisa_tipologia": "ESSIDT", "wikidata": null, "wikipedia": null }, "geometry": { "type": "Point", "coordinates": [ -64.290336, -33.092665 ] } },
{ "type": "Feature", "properties": { "amenity": "clinic", "healthcare": "clinic", "operator": "Municipal", "operator_type": "public", "name": "Centro De Salud Municipal De Elena", "addr_full": "San Juan 79", "addr_postcode": "5815", "phone": "0358-4881144", "ref_sisa_codigo": 50140982231658, "ref_sisa_tipologia": "ESSIDT", "wikidata": null, "wikipedia": null }, "geometry": { "type": "Point", "coordinates": [ -64.393792, -32.567794 ] } },
{ "type": "Feature", "properties": { "amenity": "clinic", "healthcare": "clinic", "operator": "Municipal", "operator_type": "public", "name": "Centro De Salud Municipal De Rio Cuarto", "addr_full": "Cabrera 1322", "addr_postcode": "5800", "phone": "(0358) 467-1274", "ref_sisa_codigo": 50140982231704, "ref_sisa_tipologia": "ESSIDT", "wikidata": null, "wikipedia": null }, "geometry": { "type": "Point", "coordinates": [ -64.3534044, -33.129204 ] } },
{ "type": "Feature", "properties": { "amenity": "clinic", "healthcare": "clinic", "operator": "Municipal", "operator_type": "public", "name": "Centro De Salud Municipal De Tosquita", "addr_full": "21 De Junio 408", "addr_postcode": "6141", "phone": "O3583-492054", "ref_sisa_codigo": 50140982231451, "ref_sisa_tipologia": "ESSIDT", "wikidata": null, "wikipedia": null }, "geometry": { "type": "Point", "coordinates": [ -64.457512, -33.819119 ] } },
{ "type": "Feature", "properties": { "amenity": "clinic", "healthcare": "clinic", "operator": "Municipal", "operator_type": "public", "name": "Centro De Salud Municipal Monte De Los Gauchos", "addr_full": "San Martin 191", "addr_postcode": "5839", "phone": "03585-492137", "ref_sisa_codigo": 50140982231458, "ref_sisa_tipologia": "ESSIDT", "wikidata": null, "wikipedia": null }, "geometry": { "type": "Point", "coordinates": [ -63.889853, -33.638839 ] } },
{ "type": "Feature", "properties": { "amenity": "clinic", "healthcare": "clinic", "operator": "Municipal", "operator_type": "public", "name": "Centro De Salud 13", "addr_full": "Pasaje Cabildo De La Concepcion 650", "addr_postcode": "5800", "phone": "0358-4671111", "ref_sisa_codigo": 50140982231939, "ref_sisa_tipologia": "ESSIDT", "wikidata": null, "wikipedia": null }, "geometry": { "type": "Point", "coordinates": [ -64.346733, -33.123237 ] } },
{ "type": "Feature", "properties": { "amenity": "clinic", "healthcare": "clinic", "operator": "Municipal", "operator_type": "public", "name": "Centro De Salud 5", "addr_full": "Pasaje Cabildo De La Concepcion 650", "addr_postcode": "5800", "phone": "0358-4671111", "ref_sisa_codigo": 50140982231947, "ref_sisa_tipologia": "ESSIDT", "wikidata": null, "wikipedia": null }, "geometry": { "type": "Point", "coordinates": [ -64.346728, -33.123238 ] } },
{ "type": "Feature", "properties": { "amenity": "clinic", "healthcare": "clinic", "operator": "Municipal", "operator_type": "public", "name": "Centro De Salud 6", "addr_full": "Pasaje Cabildo De La Concepcion 650", "addr_postcode": "5800", "phone": "0358-4671111", "ref_sisa_codigo": 50140982231949, "ref_sisa_tipologia": "ESSIDT", "wikidata": null, "wikipedia": null }, "geometry": { "type": "Point", "coordinates": [ -64.346728, -33.123238 ] } },
{ "type": "Feature", "properties": { "amenity": "hospital", "healthcare": "hospital", "operator": "Privado", "operator_type": "private", "name": "Centro Medico Privado Nazareth", "addr_full": "Avenida Ricardo Risatti 504", "addr_postcode": "6140", "phone": "03583-420046", "ref_sisa_codigo": 10140982331084, "ref_sisa_tipologia": "ESCIG", "wikidata": null, "wikipedia": null }, "geometry": { "type": "Point", "coordinates": [ -64.391573, -33.916998 ] } },
{ "type": "Feature", "properties": { "amenity": "clinic", "healthcare": "clinic", "operator": "Municipal", "operator_type": "public", "name": "Centro Periferico 1 De Rio Cuarto", "addr_full": "Belisario Roldan 540", "addr_postcode": "5800", "phone": "0358-4671284", "ref_sisa_codigo": 50140982231937, "ref_sisa_tipologia": "ESSIDT", "wikidata": null, "wikipedia": null }, "geometry": { "type": "Point", "coordinates": [ -64.335702, -33.137357 ] } },
{ "type": "Feature", "properties": { "amenity": "clinic", "healthcare": "clinic", "operator": "Municipal", "operator_type": "public", "name": "Centro Periferico 2 De Rio Cuarto", "addr_full": "Gral. Jose Garibaldi 198", "addr_postcode": "5800", "phone": "0358-4671285", "ref_sisa_codigo": 50140982231941, "ref_sisa_tipologia": "ESSIDT", "wikidata": null, "wikipedia": null }, "geometry": { "type": "Point", "coordinates": [ -64.337735, -33.102478 ] } },
{ "type": "Feature", "properties": { "amenity": "clinic", "healthcare": "clinic", "operator": "Municipal", "operator_type": "public", "name": "Centro Periferico 3 De Rio Cuarto", "addr_full": "Rioja 1800", "addr_postcode": "5800", "phone": "0358-4671286", "ref_sisa_codigo": 50140982231943, "ref_sisa_tipologia": "ESSIDT", "wikidata": null, "wikipedia": null }, "geometry": { "type": "Point", "coordinates": [ -64.3718803, -33.1231063 ] } },
{ "type": "Feature", "properties": { "amenity": "clinic", "healthcare": "clinic", "operator": "Municipal", "operator_type": "public", "name": "Centro Periferico 7", "addr_full": "Paso De Los Andes 1225", "addr_postcode": "5800", "phone": "0358-4753450", "ref_sisa_codigo": 50140982231951, "ref_sisa_tipologia": "ESSIDT", "wikidata": null, "wikipedia": null }, "geometry": { "type": "Point", "coordinates": [ -64.372272, -33.141664 ] } },
{ "type": "Feature", "properties": { "amenity": "clinic", "healthcare": "clinic", "operator": "Municipal", "operator_type": "public", "name": "Centro Periferico 10", "addr_full": "San Luis 350", "addr_postcode": "5800", "phone": "0358-4671293", "ref_sisa_codigo": 50140982231694, "ref_sisa_tipologia": "ESSIDT", "wikidata": null, "wikipedia": null }, "geometry": { "type": "Point", "coordinates": [ -64.337719, -33.11261 ] } },
{ "type": "Feature", "properties": { "amenity": "clinic", "healthcare": "clinic", "operator": "Municipal", "operator_type": "public", "name": "Centro Periferico 11", "addr_full": "Adelia Maria Y Malabia - Barrio Alberdi", "addr_postcode": "5800", "phone": "0358-4671294", "ref_sisa_codigo": 50140982231698, "ref_sisa_tipologia": "ESSIDT", "wikidata": null, "wikipedia": null }, "geometry": { "type": "Point", "coordinates": [ -64.32768, -33.145936 ] } },
{ "type": "Feature", "properties": { "amenity": "clinic", "healthcare": "clinic", "operator": "Municipal", "operator_type": "public", "name": "Centro Periferico 12", "addr_full": "Dinkeldein 3300", "addr_postcode": "5800", "phone": "0358-4671295", "ref_sisa_codigo": 50140982231700, "ref_sisa_tipologia": "ESSIDT", "wikidata": null, "wikipedia": null }, "geometry": { "type": "Point", "coordinates": [ -64.373885, -33.149541 ] } },
{ "type": "Feature", "properties": { "amenity": "clinic", "healthcare": "clinic", "operator": "Municipal", "operator_type": "public", "name": "Centro Periferico 14", "addr_full": "Laguna Leuvuco 3505", "addr_postcode": "5800", "phone": "0358-4671394", "ref_sisa_codigo": 50140982231702, "ref_sisa_tipologia": "ESSIDT", "wikidata": null, "wikipedia": null }, "geometry": { "type": "Point", "coordinates": [ -64.3557135, -33.1559719 ] } },
{ "type": "Feature", "properties": { "amenity": "clinic", "healthcare": "clinic", "operator": "Municipal", "operator_type": "public", "name": "Centro Periferico 15", "addr_full": "17 De Octubre Y Pasaje Público", "addr_postcode": "5800", "phone": "0358-4671442", "ref_sisa_codigo": 50140982231933, "ref_sisa_tipologia": "ESSIDT", "wikidata": null, "wikipedia": null }, "geometry": { "type": "Point", "coordinates": [ -64.3466449, -33.1232836 ] } },
{ "type": "Feature", "properties": { "amenity": "clinic", "healthcare": "clinic", "operator": "Municipal", "operator_type": "public", "name": "Centro Periferico 16", "addr_full": "Venezuela 814", "addr_postcode": "5800", "phone": "0358-4672515", "ref_sisa_codigo": 50140982231955, "ref_sisa_tipologia": "ESSIDT", "wikidata": null, "wikipedia": null }, "geometry": { "type": "Point", "coordinates": [ -64.320037, -33.106742 ] } },
{ "type": "Feature", "properties": { "amenity": "clinic", "healthcare": "clinic", "operator": "Municipal", "operator_type": "public", "name": "Centro Periferico 8", "addr_full": "Iguazú S\/N Barrio El Acordeón", "addr_postcode": "5800", "phone": "0358-4671291", "ref_sisa_codigo": 50140982231935, "ref_sisa_tipologia": "ESSIDT", "wikidata": null, "wikipedia": null }, "geometry": { "type": "Point", "coordinates": [ -64.3133426, -33.1075758 ] } },
{ "type": "Feature", "properties": { "amenity": "clinic", "healthcare": "clinic", "operator": "Municipal", "operator_type": "public", "name": "Centro Periferico 9", "addr_full": "Ignacio Pirovano 340 Entre Vicente López Y Andrade Barrio Alberdi", "addr_postcode": "5800", "phone": "0358-4671292", "ref_sisa_codigo": 50140982231953, "ref_sisa_tipologia": "ESSIDT", "wikidata": null, "wikipedia": null }, "geometry": { "type": "Point", "coordinates": [ -64.3466878, -33.1232027 ] } },
{ "type": "Feature", "properties": { "amenity": "hospital", "healthcare": "hospital", "operator": "Privado", "operator_type": "private", "name": "Clinica Privada De Medicina Especializada Philippe Pinel S A", "addr_full": "Guatemala 150", "addr_postcode": "5800", "phone": "03586-4622107", "ref_sisa_codigo": 10140982331090, "ref_sisa_tipologia": "ESCIG", "wikidata": null, "wikipedia": null }, "geometry": { "type": "Point", "coordinates": [ -64.321335, -33.094683 ] } },
{ "type": "Feature", "properties": { "amenity": "hospital", "healthcare": "hospital", "operator": "Privado", "operator_type": "private", "name": "Clinica Regional Del Sud", "addr_full": "Avenida Italia 1262", "addr_postcode": "5800", "phone": "0358-4679500", "ref_sisa_codigo": 10140982331144, "ref_sisa_tipologia": "ESCIG", "wikidata": null, "wikipedia": null }, "geometry": { "type": "Point", "coordinates": [ -64.3512348, -33.1290216 ] } },
{ "type": "Feature", "properties": { "amenity": "clinic", "healthcare": "clinic", "operator": "Municipal", "operator_type": "public", "name": "Dispensario Comunal El Potosi", "addr_full": "Av. Belgrano S\/Nº", "addr_postcode": "5841", "phone": "(0358) 480-1017\/08", "ref_sisa_codigo": 50140982231660, "ref_sisa_tipologia": "ESSIDT", "wikidata": null, "wikipedia": null }, "geometry": { "type": "Point", "coordinates": [ -64.218636, -33.510885 ] } },
{ "type": "Feature", "properties": { "amenity": "clinic", "healthcare": "clinic", "operator": "Municipal", "operator_type": "public", "name": "Dispensario Las Peñas Sud", "addr_full": "Avenida 22 De Octubre Y 9 De Julio", "addr_postcode": "5819", "phone": "0353-4879020", "ref_sisa_codigo": 50140982231515, "ref_sisa_tipologia": "ESSIDT", "wikidata": null, "wikipedia": null }, "geometry": { "type": "Point", "coordinates": [ -64.2755127, -32.4587911 ] } },
{ "type": "Feature", "properties": { "amenity": "clinic", "healthcare": "clinic", "operator": "Municipal", "operator_type": "public", "name": "Dispensario Municipal (Suco)", "addr_full": "18 De Octubre 180", "addr_postcode": "5837", "phone": "03582-491006", "ref_sisa_codigo": 50140982231962, "ref_sisa_tipologia": "ESSIDT", "wikidata": null, "wikipedia": null }, "geometry": { "type": "Point", "coordinates": [ -64.831251, -33.440551 ] } },
{ "type": "Feature", "properties": { "amenity": "clinic", "healthcare": "clinic", "operator": "Municipal", "operator_type": "public", "name": "Dispensario Municipal Achiras", "addr_full": "Cabrera Y 9 De Julio", "addr_postcode": "5833", "phone": "(03582) 49-5019\/49-5249", "ref_sisa_codigo": 50140982232132, "ref_sisa_tipologia": "ESSIDT", "wikidata": null, "wikipedia": null }, "geometry": { "type": "Point", "coordinates": [ -64.9999237, -33.1680193 ] } },
{ "type": "Feature", "properties": { "amenity": "clinic", "healthcare": "clinic", "operator": "Municipal", "operator_type": "public", "name": "Dispensario Municipal Bulnes", "addr_full": "Sarmiento 245", "addr_postcode": "5845", "phone": "(03582) 49-4191", "ref_sisa_codigo": 50140982231728, "ref_sisa_tipologia": "ESSIDT", "wikidata": null, "wikipedia": null }, "geometry": { "type": "Point", "coordinates": [ -64.675803, -33.503668 ] } },
{ "type": "Feature", "properties": { "amenity": "clinic", "healthcare": "clinic", "operator": "Municipal", "operator_type": "public", "name": "Dispensario Municipal Carnerillo", "addr_full": "Faucher 173", "addr_postcode": "5805", "phone": null, "ref_sisa_codigo": 50140562231688, "ref_sisa_tipologia": "ESSIDT", "wikidata": null, "wikipedia": null }, "geometry": { "type": "Point", "coordinates": [ -64.027864, -32.912327 ] } },
{ "type": "Feature", "properties": { "amenity": "clinic", "healthcare": "clinic", "operator": "Municipal", "operator_type": "public", "name": "Dispensario Municipal Chajan", "addr_full": "Bolivar Y Mendoza", "addr_postcode": "5837", "phone": "(03582) 49-2024", "ref_sisa_codigo": 50140982231521, "ref_sisa_tipologia": "ESSIDT", "wikidata": null, "wikipedia": null }, "geometry": { "type": "Point", "coordinates": [ -65.0016403, -33.5534123 ] } },
{ "type": "Feature", "properties": { "amenity": "clinic", "healthcare": "clinic", "operator": "Municipal", "operator_type": "public", "name": "Dispensario Municipal Chucul", "addr_full": "Mateo Gariglio S\/Nº", "addr_postcode": "5805", "phone": "(0358) 491-2005", "ref_sisa_codigo": 50140982231656, "ref_sisa_tipologia": "ESSIDT", "wikidata": null, "wikipedia": null }, "geometry": { "type": "Point", "coordinates": [ -64.1671944, -33.0112546 ] } },
{ "type": "Feature", "properties": { "amenity": "clinic", "healthcare": "clinic", "operator": "Municipal", "operator_type": "public", "name": "Dispensario Municipal De Alpa Corral ( Dr Coria )", "addr_full": "Los Ligustros", "addr_postcode": "5801", "phone": "0358-488828", "ref_sisa_codigo": 50140982231730, "ref_sisa_tipologia": "ESSIDT", "wikidata": null, "wikipedia": null }, "geometry": { "type": "Point", "coordinates": [ -64.7233772, -32.6980441 ] } },
{ "type": "Feature", "properties": { "amenity": "clinic", "healthcare": "clinic", "operator": "Municipal", "operator_type": "public", "name": "Dispensario Municipal De Coronel Baigorria", "addr_full": "Gral. Paz 275", "addr_postcode": "5811", "phone": "0358-4882041", "ref_sisa_codigo": 50140982231526, "ref_sisa_tipologia": "ESSIDT", "wikidata": null, "wikipedia": null }, "geometry": { "type": "Point", "coordinates": [ -64.360721, -32.848028 ] } },
{ "type": "Feature", "properties": { "amenity": "clinic", "healthcare": "clinic", "operator": "Municipal", "operator_type": "public", "name": "Dispensario Municipal San Basilio", "addr_full": "R. Coego 144", "addr_postcode": "5841", "phone": "03585-491010", "ref_sisa_codigo": 50140982231957, "ref_sisa_tipologia": "ESSIDT", "wikidata": null, "wikipedia": null }, "geometry": { "type": "Point", "coordinates": [ -64.312118, -33.498645 ] } },
{ "type": "Feature", "properties": { "amenity": "clinic", "healthcare": "clinic", "operator": "Municipal", "operator_type": "public", "name": "Dispensario 4", "addr_full": "Pasaje Cabildo De La Concepcion 650", "addr_postcode": "5800", "phone": "0358-4671111", "ref_sisa_codigo": 50140982231945, "ref_sisa_tipologia": "ESSIDT", "wikidata": null, "wikipedia": null }, "geometry": { "type": "Point", "coordinates": [ -64.346728, -33.123238 ] } },
{ "type": "Feature", "properties": { "amenity": "hospital", "healthcare": "hospital", "operator": "Municipal", "operator_type": "public", "name": "Hospital Doctor Enrique Carrozzi", "addr_full": "Alberto Novillo 549", "addr_postcode": "6140", "phone": "03583-429614", "ref_sisa_codigo": 10140982231265, "ref_sisa_tipologia": "ESCIG", "wikidata": null, "wikipedia": null }, "geometry": { "type": "Point", "coordinates": [ -64.396132, -33.914285 ] } },
{ "type": "Feature", "properties": { "amenity": "hospital", "healthcare": "hospital", "operator": "Municipal", "operator_type": "public", "name": "Hospital Municipal Berrotaran", "addr_full": "Catamarca 389", "addr_postcode": "5817", "phone": "0358-4941509", "ref_sisa_codigo": 10140982231174, "ref_sisa_tipologia": "ESCIG", "wikidata": null, "wikipedia": null }, "geometry": { "type": "Point", "coordinates": [ -64.395064, -32.448133 ] } },
{ "type": "Feature", "properties": { "amenity": "hospital", "healthcare": "hospital", "operator": "Municipal", "operator_type": "public", "name": "Hospital Municipal De Alcira", "addr_full": "Pedro Caviglia 111", "addr_postcode": "5813", "phone": "0358-4969614", "ref_sisa_codigo": 10140982231176, "ref_sisa_tipologia": "ESCIG", "wikidata": null, "wikipedia": null }, "geometry": { "type": "Point", "coordinates": [ -64.333218, -32.758316 ] } },
{ "type": "Feature", "properties": { "amenity": "hospital", "healthcare": "hospital", "operator": "Municipal", "operator_type": "public", "name": "Hospital Municipal De Autogestion Adelia Maria", "addr_full": "Las Heras 284", "addr_postcode": "5843", "phone": "03585-420300", "ref_sisa_codigo": 10140982231153, "ref_sisa_tipologia": "ESCIG", "wikidata": null, "wikipedia": null }, "geometry": { "type": "Point", "coordinates": [ -64.019049, -33.631915 ] } },
{ "type": "Feature", "properties": { "amenity": "hospital", "healthcare": "hospital", "operator": "Municipal", "operator_type": "public", "name": "Hospital Municipal De La Cautiva", "addr_full": "9 De Julio y L. V. Mansilla S\/n", "addr_postcode": "6142", "phone": "(03583) 49-1142", "ref_sisa_codigo": 50140982231662, "ref_sisa_tipologia": "ESCIG", "wikidata": null, "wikipedia": null }, "geometry": { "type": "Point", "coordinates": [ -64.080162, -33.9783852 ] } },
{ "type": "Feature", "properties": { "amenity": "clinic", "healthcare": "clinic", "operator": "Municipal", "operator_type": "public", "name": "Hospital Municipal Enrique Carrozzi", "addr_full": "San Martin 675", "addr_postcode": "6140", "phone": "03583-484555", "ref_sisa_codigo": 50140982231964, "ref_sisa_tipologia": "ESSIDT", "wikidata": null, "wikipedia": null }, "geometry": { "type": "Point", "coordinates": [ -64.395602, -33.916914 ] } },
{ "type": "Feature", "properties": { "amenity": "hospital", "healthcare": "hospital", "operator": "Municipal", "operator_type": "public", "name": "Hospital Municipal Juan Bautista Medeot", "addr_full": "Belgrano 650", "addr_postcode": "5829", "phone": "03582-439209", "ref_sisa_codigo": 10140982231211, "ref_sisa_tipologia": "ESCIG", "wikidata": null, "wikipedia": null }, "geometry": { "type": "Point", "coordinates": [ -64.722074, -33.383045 ] } },
{ "type": "Feature", "properties": { "amenity": "clinic", "healthcare": "clinic", "operator": "Municipal", "operator_type": "public", "name": "Hospital Municipal Rene Favaloro", "addr_full": "Av. 15 De Mayo 88", "addr_postcode": "5831", "phone": "(03585) 49-2029 \/ 050", "ref_sisa_codigo": 50140982232126, "ref_sisa_tipologia": "ESSIDT", "wikidata": null, "wikipedia": null }, "geometry": { "type": "Point", "coordinates": [ -63.889719, -33.638806 ] } },
{ "type": "Feature", "properties": { "amenity": "hospital", "healthcare": "hospital", "operator": "Municipal", "operator_type": "public", "name": "Hospital Municipal Tomas Ponsone De Coronel Moldes", "addr_full": "Sarmiento 537", "addr_postcode": "5847", "phone": "03582-489646", "ref_sisa_codigo": 10140982231235, "ref_sisa_tipologia": "ESCIG", "wikidata": null, "wikipedia": null }, "geometry": { "type": "Point", "coordinates": [ -64.598069, -33.622352 ] } },
{ "type": "Feature", "properties": { "amenity": "hospital", "healthcare": "hospital", "operator": "Privado", "operator_type": "private", "name": "Instituto Medico Rio Cuarto S.a", "addr_full": "Hipólito Irigoyen 1020", "addr_postcode": "5800", "phone": "0358-4679333", "ref_sisa_codigo": 10140982331271, "ref_sisa_tipologia": "ESCIG", "wikidata": null, "wikipedia": null }, "geometry": { "type": "Point", "coordinates": [ -64.347554, -33.127393 ] } },
{ "type": "Feature", "properties": { "amenity": "hospital", "healthcare": "hospital", "operator": "Provincial", "operator_type": "public", "name": "Nuevo Hospital Rio Cuarto San Antonio De Padua", "addr_full": "Rosario De Santa Fe 495", "addr_postcode": "5800", "phone": "0358-4678700", "ref_sisa_codigo": 10140982131255, "ref_sisa_tipologia": "ESCIG", "wikidata": null, "wikipedia": null }, "geometry": { "type": "Point", "coordinates": [ -64.355054, -33.109344 ] } },
{ "type": "Feature", "properties": { "amenity": "hospital", "healthcare": "hospital", "operator": "Privado", "operator_type": "private", "name": "Policlinico Privado San Lucas", "addr_full": "Mitre 930", "addr_postcode": "5800", "phone": "0358-4640232", "ref_sisa_codigo": 10140982331279, "ref_sisa_tipologia": "ESCIG", "wikidata": null, "wikipedia": null }, "geometry": { "type": "Point", "coordinates": [ -64.3531052, -33.1246919 ] } },
{ "type": "Feature", "properties": { "amenity": "clinic", "healthcare": "clinic", "operator": "Municipal", "operator_type": "public", "name": "Puesto Sanitario Las Albahacas", "addr_full": "Calle 11 S\/Nº", "addr_postcode": "5801", "phone": "0358-4919562", "ref_sisa_codigo": 50140982231572, "ref_sisa_tipologia": "ESSIDT", "wikidata": null, "wikipedia": null }, "geometry": { "type": "Point", "coordinates": [ -64.3897531, -33.1143078 ] } },
{ "type": "Feature", "properties": { "amenity": "clinic", "healthcare": "clinic", "operator": "Municipal", "operator_type": "public", "name": "Puesto Sanitario Malena", "addr_full": "San Martin S\/N°", "addr_postcode": "5839", "phone": "(03582) 49-6030", "ref_sisa_codigo": 50140982231567, "ref_sisa_tipologia": "ESSIDT", "wikidata": null, "wikipedia": null }, "geometry": { "type": "Point", "coordinates": [ -64.4309521, -33.4879387 ] } },
{ "type": "Feature", "properties": { "amenity": "clinic", "healthcare": "clinic", "operator": "Municipal", "operator_type": "public", "name": "Puesto Sanitario Punta Del Agua", "addr_full": "Santiago Vazquez S\/N", "addr_postcode": "5931", "phone": null, "ref_sisa_codigo": 50141612231753, "ref_sisa_tipologia": "ESSIDT", "wikidata": null, "wikipedia": null }, "geometry": { "type": "Point", "coordinates": [ -64.1153526, -33.5817331 ] } },
{ "type": "Feature", "properties": { "amenity": "hospital", "healthcare": "hospital", "operator": "Privado", "operator_type": "private", "name": "Sanatorio Privado Del Sur", "addr_full": "Mariano Moreno 253", "addr_postcode": "5817", "phone": "0358-4940492", "ref_sisa_codigo": 10140982331296, "ref_sisa_tipologia": "ESCIG", "wikidata": null, "wikipedia": null }, "geometry": { "type": "Point", "coordinates": [ -64.384054, -33.9146997 ] } },
{ "type": "Feature", "properties": { "amenity": "hospital", "healthcare": "hospital", "operator": "Privado", "operator_type": "private", "name": "Sanatorio Privado Rio Cuarto", "addr_full": "Bv. General Roca 949", "addr_postcode": "5800", "phone": "03586-463688", "ref_sisa_codigo": 10140982331300, "ref_sisa_tipologia": "ESCIG", "wikidata": null, "wikipedia": null }, "geometry": { "type": "Point", "coordinates": [ -64.3400957, -33.130201 ] } }
]
}
