{
"type": "FeatureCollection",
"name": "036-tigre",
"features": [
{ "type": "Feature", "properties": { "amenity": "clinic", "healthcare": "clinic", "operator": "Municipal", "operator_type": "public", "name": "CAPS Canal", "addr_full": "Italia 105", "addr_postcode": "1648", "phone": "(011) 4512-4518", "ref_sisa_codigo": 50068052201210, "ref_sisa_tipologia": "ESSIDT", "wikidata": "", "wikipedia": "" }, "geometry": { "type": "Point", "coordinates": [ -58.5631933, -34.4303244 ] } },
{ "type": "Feature", "properties": { "amenity": "clinic", "healthcare": "clinic", "operator": "Municipal", "operator_type": "public", "name": "CAPS Carupa", "addr_full": "Ruperto Mazza 1154", "addr_postcode": "1648", "phone": "011-45124513", "ref_sisa_codigo": 50068052201366, "ref_sisa_tipologia": "ESSIDT", "wikidata": "", "wikipedia": "" }, "geometry": { "type": "Point", "coordinates": [ -58.575188, -34.4364347 ] } },
{ "type": "Feature", "properties": { "amenity": "clinic", "healthcare": "clinic", "operator": "Municipal", "operator_type": "public", "name": "CAPS Troncos Del Talar", "addr_full": "Coronel Escalada 598", "addr_postcode": "1648", "phone": "", "ref_sisa_codigo": 50068052206758, "ref_sisa_tipologia": "ESSIDT", "wikidata": "", "wikipedia": "" }, "geometry": { "type": "Point", "coordinates": [ -58.61552, -34.459556 ] } },
{ "type": "Feature", "properties": { "amenity": "clinic", "healthcare": "clinic", "operator": "Municipal", "operator_type": "public", "name": "Catamaran Sanitario Doctor Luis Pereyra", "addr_full": "Bourdieu 460 - Islas Del Delta", "addr_postcode": "1648", "phone": "(011) 45124480", "ref_sisa_codigo": 50068052201080, "ref_sisa_tipologia": "ESSIDT", "wikidata": "", "wikipedia": "" }, "geometry": { "type": "Point", "coordinates": [ -58.5791548, -34.4234109 ] } },
{ "type": "Feature", "properties": { "amenity": "clinic", "healthcare": "clinic", "operator": "Municipal", "operator_type": "public", "name": "Centro De Atencion Familiar Y De Salud Juana Manso", "addr_full": "Avenida Agustin M. García 5960  - (Ex Ruta Provinc. 27)", "addr_postcode": "1648", "phone": "", "ref_sisa_codigo": 50068052215000, "ref_sisa_tipologia": "ESSIDT", "wikidata": "", "wikipedia": "" }, "geometry": { "type": "Point", "coordinates": [ -58.6315978, -34.4032293 ] } },
{ "type": "Feature", "properties": { "amenity": "clinic", "healthcare": "clinic", "operator": "Municipal", "operator_type": "public", "name": "CAPS Belgrano", "addr_full": "General Belgrano 1661", "addr_postcode": "1611", "phone": "", "ref_sisa_codigo": 50068052206695, "ref_sisa_tipologia": "ESSIDT", "wikidata": "", "wikipedia": "" }, "geometry": { "type": "Point", "coordinates": [ -58.6380016, -34.4833781 ] } },
{ "type": "Feature", "properties": { "amenity": "clinic", "healthcare": "clinic", "operator": "Municipal", "operator_type": "public", "name": "CAPS Dique Lujan", "addr_full": "12 De Octubre 943", "addr_postcode": "1648", "phone": "", "ref_sisa_codigo": 50068052217964, "ref_sisa_tipologia": "ESSIDT", "wikidata": "", "wikipedia": "" }, "geometry": { "type": "Point", "coordinates": [ -58.6879232, -34.3595065 ] } },
{ "type": "Feature", "properties": { "amenity": "clinic", "healthcare": "clinic", "operator": "Municipal", "operator_type": "public", "name": "CAPS El Arco", "addr_full": "Tomás Godoy 1186 Esq. Ramón Falcon", "addr_postcode": "1621", "phone": "", "ref_sisa_codigo": 50068052206716, "ref_sisa_tipologia": "ESSIDT", "wikidata": "", "wikipedia": "" }, "geometry": { "type": "Point", "coordinates": [ -58.7158996, -34.4048848 ] } },
{ "type": "Feature", "properties": { "amenity": "clinic", "healthcare": "clinic", "operator": "Municipal", "operator_type": "public", "name": "CAPS Eva Peron", "addr_full": "Padre Nuestro 154", "addr_postcode": "1617", "phone": "", "ref_sisa_codigo": 50068052216731, "ref_sisa_tipologia": "ESSIDT", "wikidata": "", "wikipedia": "" }, "geometry": { "type": "Point", "coordinates": [ -58.6522694, -34.4505386 ] } },
{ "type": "Feature", "properties": { "amenity": "clinic", "healthcare": "clinic", "operator": "Municipal", "operator_type": "public", "name": "Centro De Prevencion Y Asistencia En Nutricion (Cepan)", "addr_full": "Avenida De Los Constituyentes 3284", "addr_postcode": "1617", "phone": "", "ref_sisa_codigo": 50068052206696, "ref_sisa_tipologia": "ESSIDT", "wikidata": "", "wikipedia": "" }, "geometry": { "type": "Point", "coordinates": [ -58.6724349, -34.4475556 ] } },
{ "type": "Feature", "properties": { "amenity": "clinic", "healthcare": "clinic", "operator": "Municipal", "operator_type": "public", "name": "Centro De Salud Almirante Brown", "addr_full": "Gral. Andrés 3010 Y Alemania - El Talar De Pacheco", "addr_postcode": "1648", "phone": "(011) 4512-9986", "ref_sisa_codigo": 50068052201190, "ref_sisa_tipologia": "ESSIDT", "wikidata": "", "wikipedia": "" }, "geometry": { "type": "Point", "coordinates": [ -58.6607695, -34.484035 ] } },
{ "type": "Feature", "properties": { "amenity": "clinic", "healthcare": "clinic", "operator": "Municipal", "operator_type": "public", "name": "Centro De Salud Baires", "addr_full": "El Cano 960 E\/E Gallardo E Ituzaingó", "addr_postcode": "1611", "phone": "(011) 4513-2532", "ref_sisa_codigo": 50068052202068, "ref_sisa_tipologia": "ESSIDT", "wikidata": "", "wikipedia": "" }, "geometry": { "type": "Point", "coordinates": [ -58.6143538, -34.4781881 ] } },
{ "type": "Feature", "properties": { "amenity": "clinic", "healthcare": "clinic", "operator": "Municipal", "operator_type": "public", "name": "Centro De Salud Benavidez", "addr_full": "Alvear Y Marabotto", "addr_postcode": "1621", "phone": "(03327) 48-2904", "ref_sisa_codigo": 50068052201206, "ref_sisa_tipologia": "ESSIDT", "wikidata": "", "wikipedia": "" }, "geometry": { "type": "Point", "coordinates": [ -58.6931705, -34.4140173 ] } },
{ "type": "Feature", "properties": { "amenity": "clinic", "healthcare": "clinic", "operator": "Municipal", "operator_type": "public", "name": "Centro De Salud Don Torcuato", "addr_full": "España 1450", "addr_postcode": "1611", "phone": "011-45132533", "ref_sisa_codigo": 50068052201219, "ref_sisa_tipologia": "ESSIDT", "wikidata": "", "wikipedia": "" }, "geometry": { "type": "Point", "coordinates": [ -58.5753627, -34.4254095 ] } },
{ "type": "Feature", "properties": { "amenity": "clinic", "healthcare": "clinic", "operator": "Municipal", "operator_type": "public", "name": "Centro De Salud El Arco", "addr_full": "Guido Y Spano 10", "addr_postcode": "1621", "phone": "(03327) 48-5755", "ref_sisa_codigo": 50068052201235, "ref_sisa_tipologia": "ESSIDT", "wikidata": "", "wikipedia": "" }, "geometry": { "type": "Point", "coordinates": [ -58.7149574, -34.4062507 ] } },
{ "type": "Feature", "properties": { "amenity": "clinic", "healthcare": "clinic", "operator": "Municipal", "operator_type": "public", "name": "Centro De Salud General Pacheco", "addr_full": "Salta 550", "addr_postcode": "1617", "phone": "(011) 4512-9983", "ref_sisa_codigo": 50068052201085, "ref_sisa_tipologia": "ESSIDT", "wikidata": "", "wikipedia": "" }, "geometry": { "type": "Point", "coordinates": [ -58.6355177, -34.452176 ] } },
{ "type": "Feature", "properties": { "amenity": "clinic", "healthcare": "clinic", "operator": "Municipal", "operator_type": "public", "name": "Centro De Salud La Paloma", "addr_full": "Av. La Paloma E\/Paraguay Y Monteagudo - G. Pacheco", "addr_postcode": "1617", "phone": "011-45129985", "ref_sisa_codigo": 50068052202372, "ref_sisa_tipologia": "ESSIDT", "wikidata": "", "wikipedia": "" }, "geometry": { "type": "Point", "coordinates": [ -58.6607614, -34.4634655 ] } },
{ "type": "Feature", "properties": { "amenity": "clinic", "healthcare": "clinic", "operator": "Municipal", "operator_type": "public", "name": "Centro De Salud Las Tunas Y A. Del Talar", "addr_full": "Sacristi Y Mosconi", "addr_postcode": "1617", "phone": "03327-441044", "ref_sisa_codigo": 50068052201257, "ref_sisa_tipologia": "ESSIDT", "wikidata": "", "wikipedia": "" }, "geometry": { "type": "Point", "coordinates": [ -58.6641812, -34.439876 ] } },
{ "type": "Feature", "properties": { "amenity": "clinic", "healthcare": "clinic", "operator": "Municipal", "operator_type": "public", "name": "Centro De Salud Municipal", "addr_full": "Salta 550", "addr_postcode": "1617", "phone": "", "ref_sisa_codigo": 50068052206849, "ref_sisa_tipologia": "ESSIDT", "wikidata": "", "wikipedia": "" }, "geometry": { "type": "Point", "coordinates": [ -58.6355177, -34.452176 ] } },
{ "type": "Feature", "properties": { "amenity": "clinic", "healthcare": "clinic", "operator": "Municipal", "operator_type": "public", "name": "Centro De Salud 9 Dique Lujan De Tigre", "addr_full": "9 De Julio", "addr_postcode": "1621", "phone": "03488-444467", "ref_sisa_codigo": 50068052201335, "ref_sisa_tipologia": "ESSIDT", "wikidata": "", "wikipedia": "" }, "geometry": { "type": "Point", "coordinates": [ -58.6880314, -34.3590211 ] } },
{ "type": "Feature", "properties": { "amenity": "clinic", "healthcare": "clinic", "operator": "Municipal", "operator_type": "public", "name": "Centro De Salud Rincon De Milberg", "addr_full": "Santa María 3000 Esq.  Irala", "addr_postcode": "1648", "phone": "011-45124517", "ref_sisa_codigo": 50068052201349, "ref_sisa_tipologia": "ESSIDT", "wikidata": "", "wikipedia": "" }, "geometry": { "type": "Point", "coordinates": [ -58.6025763, -34.4149909 ] } },
{ "type": "Feature", "properties": { "amenity": "clinic", "healthcare": "clinic", "operator": "Municipal", "operator_type": "public", "name": "Centro De Salud Rio Capitan", "addr_full": "Rio Capitan 198 Y Arroyo Toro - Islas Del Delta", "addr_postcode": "1648", "phone": "011-47280525", "ref_sisa_codigo": 50068052202754, "ref_sisa_tipologia": "ESSIDT", "wikidata": "", "wikipedia": "" }, "geometry": { "type": "Point", "coordinates": [ -58.564167, -34.3494242 ] } },
{ "type": "Feature", "properties": { "amenity": "clinic", "healthcare": "clinic", "operator": "Municipal", "operator_type": "public", "name": "Centro De Salud Rio Carapachay", "addr_full": "Rio Carapachay Y Canal Ortiz - Islas Del Delta", "addr_postcode": "1648", "phone": "011-47280056", "ref_sisa_codigo": 50068052202161, "ref_sisa_tipologia": "ESSIDT", "wikidata": "", "wikipedia": "" }, "geometry": { "type": "Point", "coordinates": [ -58.6332607, -34.3555713 ] } },
{ "type": "Feature", "properties": { "amenity": "clinic", "healthcare": "clinic", "operator": "Municipal", "operator_type": "public", "name": "Centro De Salud Troncos Del Talar", "addr_full": "Mozart 500", "addr_postcode": "1648", "phone": "(011) 4512-9987", "ref_sisa_codigo": 50068052201363, "ref_sisa_tipologia": "ESSIDT", "wikidata": "", "wikipedia": "" }, "geometry": { "type": "Point", "coordinates": [ -58.6092636, -34.4582643 ] } },
{ "type": "Feature", "properties": { "amenity": "hospital", "healthcare": "hospital", "operator": "Privado", "operator_type": "private", "name": "Centro Medico Talar", "addr_full": "Ruta 197 y Panamericana", "addr_postcode": "1617", "phone": "(011) 4740-0577", "ref_sisa_codigo": 10068052300013, "ref_sisa_tipologia": "ESCIG", "wikidata": "", "wikipedia": "" }, "geometry": { "type": "Point", "coordinates": [ -58.6637628, -34.4759493 ] } },
{ "type": "Feature", "properties": { "amenity": "hospital", "healthcare": "hospital", "operator": "Privado", "operator_type": "private", "name": "Clinica Privada Don Torcuato", "addr_full": "Marcelo T. De Alvear 650", "addr_postcode": "1611", "phone": "011-47417070", "ref_sisa_codigo": 10068052300102, "ref_sisa_tipologia": "ESCIG", "wikidata": "", "wikipedia": "" }, "geometry": { "type": "Point", "coordinates": [ -58.6405134, -34.4990766 ] } },
{ "type": "Feature", "properties": { "amenity": "hospital", "healthcare": "hospital", "operator": "Privado", "operator_type": "private", "name": "Clinica Sagrado Corazon Don Torcuato", "addr_full": "Alvear 650", "addr_postcode": "1611", "phone": "", "ref_sisa_codigo": 10068052305040, "ref_sisa_tipologia": "ESCIG", "wikidata": "", "wikipedia": "" }, "geometry": { "type": "Point", "coordinates": [ -58.6424661, -34.4937291 ] } },
{ "type": "Feature", "properties": { "amenity": "hospital", "healthcare": "hospital", "operator": "Municipal", "operator_type": "public", "name": "Hospital Comunal De Tigre", "addr_full": "Maipú 257", "addr_postcode": "1648", "phone": "", "ref_sisa_codigo": 10068052200203, "ref_sisa_tipologia": "ESCIG", "wikidata": "", "wikipedia": "" }, "geometry": { "type": "Point", "coordinates": [ -58.5883175, -34.4147733 ] } },
{ "type": "Feature", "properties": { "amenity": "hospital", "healthcare": "hospital", "operator": "Municipal", "operator_type": "public", "name": "Hospital Municipal De Diagnostico Inmediato Don Torcuato", "addr_full": "Menéndez y Pelayo 1302", "addr_postcode": "1648", "phone": "011-4519-6443", "ref_sisa_codigo": 50068052216886, "ref_sisa_tipologia": "ESCIG", "wikidata": "", "wikipedia": "" }, "geometry": { "type": "Point", "coordinates": [ -58.6187336, -34.4855571 ] } },
{ "type": "Feature", "properties": { "amenity": "hospital", "healthcare": "hospital", "operator": "Provincial", "operator_type": "public", "name": "Hospital Zonal General Agudos Magdalena V. De Martinez", "addr_full": "Avenida Constituyentes 395", "addr_postcode": "", "phone": "11 4738 0144", "ref_sisa_codigo": 10068052100391, "ref_sisa_tipologia": "ESCIG", "wikidata": "", "wikipedia": "" }, "geometry": { "type": "Point", "coordinates": [ -58.6386878, -34.456705 ] } },
{ "type": "Feature", "properties": { "amenity": "hospital", "healthcare": "hospital", "operator": "Privado", "operator_type": "private", "name": "Los Almendros Torcuato", "addr_full": "General Ricchieri 1600", "addr_postcode": "1611", "phone": "", "ref_sisa_codigo": 10068052318194, "ref_sisa_tipologia": "ESCIG", "wikidata": "", "wikipedia": "" }, "geometry": { "type": "Point", "coordinates": [ -58.6195095, -34.4896883 ] } },
{ "type": "Feature", "properties": { "amenity": "clinic", "healthcare": "clinic", "operator": "Municipal", "operator_type": "public", "name": "Posta Alge", "addr_full": "Doctor Dellepiane 2000", "addr_postcode": "1648", "phone": "", "ref_sisa_codigo": 50068052201744, "ref_sisa_tipologia": "ESSIDT", "wikidata": "", "wikipedia": "" }, "geometry": { "type": "Point", "coordinates": [ -58.6457525, -34.3988361 ] } },
{ "type": "Feature", "properties": { "amenity": "clinic", "healthcare": "clinic", "operator": "Municipal", "operator_type": "public", "name": "Posta Barrio Lucero De Tigre", "addr_full": "José Cebey 1", "addr_postcode": "1648", "phone": "", "ref_sisa_codigo": 50068052201745, "ref_sisa_tipologia": "ESSIDT", "wikidata": "", "wikipedia": "" }, "geometry": { "type": "Point", "coordinates": [ -58.6326039, -34.4026252 ] } },
{ "type": "Feature", "properties": { "amenity": "clinic", "healthcare": "clinic", "operator": "Municipal", "operator_type": "public", "name": "Posta Esperanza", "addr_full": "San Francisco 1500", "addr_postcode": "1621", "phone": "", "ref_sisa_codigo": 50068052201747, "ref_sisa_tipologia": "ESSIDT", "wikidata": "", "wikipedia": "" }, "geometry": { "type": "Point", "coordinates": [ -58.6802638, -34.4233146 ] } },
{ "type": "Feature", "properties": { "amenity": "clinic", "healthcare": "clinic", "operator": "Municipal", "operator_type": "public", "name": "Posta Liniers", "addr_full": "Avenida Liniers 2800", "addr_postcode": "1648", "phone": "", "ref_sisa_codigo": 50068052201748, "ref_sisa_tipologia": "ESSIDT", "wikidata": "", "wikipedia": "" }, "geometry": { "type": "Point", "coordinates": [ -58.5950435, -34.4377596 ] } },
{ "type": "Feature", "properties": { "amenity": "clinic", "healthcare": "clinic", "operator": "Municipal", "operator_type": "public", "name": "Posta Prado", "addr_full": "Comandante Calzadilla 900", "addr_postcode": "1621", "phone": "", "ref_sisa_codigo": 50068052201749, "ref_sisa_tipologia": "ESSIDT", "wikidata": "", "wikipedia": "" }, "geometry": { "type": "Point", "coordinates": [ -58.7029865, -34.4260972 ] } },
{ "type": "Feature", "properties": { "amenity": "clinic", "healthcare": "clinic", "operator": "Municipal", "operator_type": "public", "name": "Posta Talar", "addr_full": "Reconquista 440", "addr_postcode": "1621", "phone": "", "ref_sisa_codigo": 50068052201756, "ref_sisa_tipologia": "ESSIDT", "wikidata": "", "wikipedia": "" }, "geometry": { "type": "Point", "coordinates": [ -58.7011528, -34.4356287 ] } },
{ "type": "Feature", "properties": { "amenity": "clinic", "healthcare": "clinic", "operator": "Municipal", "operator_type": "public", "name": "Unidad Sanitaria Isla Martin Garcia(Dupl)", "addr_full": "Isla Martin Garcia", "addr_postcode": "1601", "phone": "011-47281811", "ref_sisa_codigo": 50067492202335, "ref_sisa_tipologia": "ESSIDT", "wikidata": "", "wikipedia": "" }, "geometry": { "type": "Point", "coordinates": [ -58.4746456, -34.4070778 ] } }
]
}
