{
"type": "FeatureCollection",
"name": "037-tres_de_febrero",
"features": [
{ "type": "Feature", "properties": { "amenity": "hospital", "healthcare": "hospital", "operator": "Privado", "operator_type": "private", "name": "Angio Salud Sa", "addr_full": "Hipolito Yrigoyen 1051", "addr_postcode": "1702", "phone": "011-4653-4492", "ref_sisa_codigo": 10068402306581, "ref_sisa_tipologia": "ESCIG", "wikidata": "", "wikipedia": "" }, "geometry": { "type": "Point", "coordinates": [ -58.5509418, -34.6294178 ] } },
{ "type": "Feature", "properties": { "amenity": "clinic", "healthcare": "clinic", "operator": "Municipal", "operator_type": "public", "name": "Centro Materno Infantil 1 De Tres De Febrero", "addr_full": "Juan José Paso 1450", "addr_postcode": "1702", "phone": "011-44884777", "ref_sisa_codigo": 50068402201405, "ref_sisa_tipologia": "ESSIDT", "wikidata": "", "wikipedia": "" }, "geometry": { "type": "Point", "coordinates": [ -58.5421343, -34.6247272 ] } },
{ "type": "Feature", "properties": { "amenity": "clinic", "healthcare": "clinic", "operator": "Municipal", "operator_type": "public", "name": "Centro Materno Infantil 2 Loma Hermosa De Tres De Febrero", "addr_full": "Gabino Ezeiza 10050 - Loma Hermosa", "addr_postcode": "1657", "phone": "011-47690932", "ref_sisa_codigo": 50068402201406, "ref_sisa_tipologia": "ESSIDT", "wikidata": "", "wikipedia": "" }, "geometry": { "type": "Point", "coordinates": [ -58.6130776, -34.5630673 ] } },
{ "type": "Feature", "properties": { "amenity": "clinic", "healthcare": "clinic", "operator": "Municipal", "operator_type": "public", "name": "Centro Materno Infantil 3 De Tres De Febrero", "addr_full": "Nuestra Señora De Loreto 2653", "addr_postcode": "1674", "phone": "011-47127434", "ref_sisa_codigo": 50068402201407, "ref_sisa_tipologia": "ESSIDT", "wikidata": "", "wikipedia": "" }, "geometry": { "type": "Point", "coordinates": [ -58.5340383, -34.6066577 ] } },
{ "type": "Feature", "properties": { "amenity": "clinic", "healthcare": "clinic", "operator": "Municipal", "operator_type": "public", "name": "Centro Municipal 10 De Salud Caseros", "addr_full": "Alberdi 5030", "addr_postcode": "1678", "phone": "(011) 4716-4000", "ref_sisa_codigo": 50068402201443, "ref_sisa_tipologia": "ESSIDT", "wikidata": "", "wikipedia": "" }, "geometry": { "type": "Point", "coordinates": [ -58.5678036, -34.6035702 ] } },
{ "type": "Feature", "properties": { "amenity": "hospital", "healthcare": "hospital", "operator": "Privado", "operator_type": "private", "name": "Clinica Privada Doctor Hocsman Sa", "addr_full": "Avenida San Martín 2024", "addr_postcode": "1678", "phone": "", "ref_sisa_codigo": 10068402305575, "ref_sisa_tipologia": "ESCIG", "wikidata": "", "wikipedia": "" }, "geometry": { "type": "Point", "coordinates": [ -58.561682, -34.600445 ] } },
{ "type": "Feature", "properties": { "amenity": "hospital", "healthcare": "hospital", "operator": "Privado", "operator_type": "private", "name": "Clinica Privada San Andres", "addr_full": "Doctor Amadeo Sabattini 4776", "addr_postcode": "1678", "phone": "", "ref_sisa_codigo": 10068402300011, "ref_sisa_tipologia": "ESCIG", "wikidata": "", "wikipedia": "" }, "geometry": { "type": "Point", "coordinates": [ -58.5632475, -34.6022556 ] } },
{ "type": "Feature", "properties": { "amenity": "hospital", "healthcare": "hospital", "operator": "Privado", "operator_type": "private", "name": "Hospital Privado 24 De Septiembre", "addr_full": "Santa Juana De Arco 3545\/55", "addr_postcode": "1702", "phone": "", "ref_sisa_codigo": 10068402305595, "ref_sisa_tipologia": "ESCIG", "wikidata": "", "wikipedia": "" }, "geometry": { "type": "Point", "coordinates": [ -58.5359043, -34.6386535 ] } },
{ "type": "Feature", "properties": { "amenity": "hospital", "healthcare": "hospital", "operator": "Provincial", "operator_type": "public", "name": "Hospital Zonal General Agudos Prof. Doctor Ramon Carrillo", "addr_full": "Hipólito Yrigoyen 1055", "addr_postcode": "1702", "phone": "(011) 4653-1061", "ref_sisa_codigo": 10068402100394, "ref_sisa_tipologia": "ESCIG", "wikidata": "", "wikipedia": "" }, "geometry": { "type": "Point", "coordinates": [ -58.5550582, -34.6267566 ] } },
{ "type": "Feature", "properties": { "amenity": "hospital", "healthcare": "hospital", "operator": "Provincial", "operator_type": "public", "name": "Hospital Zonal General De Agudos Doctor Carlos Bocalandro", "addr_full": "Ruta 8 Km 20.5 9100", "addr_postcode": "1678", "phone": "011-48410214", "ref_sisa_codigo": 10068402100398, "ref_sisa_tipologia": "ESCIG", "wikidata": "", "wikipedia": "" }, "geometry": { "type": "Point", "coordinates": [ -58.6018467, -34.5627148 ] } },
{ "type": "Feature", "properties": { "amenity": "clinic", "healthcare": "clinic", "operator": "Municipal", "operator_type": "public", "name": "Posta Sanitaria Ramon Carrillo", "addr_full": "Olavarria 4099 - Villa Pineral", "addr_postcode": "1678", "phone": "011-46548547", "ref_sisa_codigo": 50068402201753, "ref_sisa_tipologia": "ESSIDT", "wikidata": "", "wikipedia": "" }, "geometry": { "type": "Point", "coordinates": [ -58.5720398, -34.6208826 ] } },
{ "type": "Feature", "properties": { "amenity": "hospital", "healthcare": "hospital", "operator": "Privado", "operator_type": "private", "name": "Sanatorio Modelo De Caseros", "addr_full": "Lisandro Medina 2285", "addr_postcode": "1678", "phone": "(011) 4759-1590", "ref_sisa_codigo": 10068402300457, "ref_sisa_tipologia": "ESCIG", "wikidata": "", "wikipedia": "" }, "geometry": { "type": "Point", "coordinates": [ -58.5637808, -34.6030291 ] } },
{ "type": "Feature", "properties": { "amenity": "hospital", "healthcare": "hospital", "operator": "Privado", "operator_type": "private", "name": "Sanatorio Modelo Nuestra Seńora De La Merced", "addr_full": "Julio Besada 6969", "addr_postcode": "1682", "phone": "(011) 48425445", "ref_sisa_codigo": 10068402300458, "ref_sisa_tipologia": "ESCIG", "wikidata": "", "wikipedia": "" }, "geometry": { "type": "Point", "coordinates": [ -58.5872978, -34.5838167 ] } },
{ "type": "Feature", "properties": { "amenity": "hospital", "healthcare": "hospital", "operator": "Privado", "operator_type": "private", "name": "Sanatorio Nuestra Seńora Del Pilar", "addr_full": "Avenida Gaona 3979", "addr_postcode": "1702", "phone": "(011) 4488-9024", "ref_sisa_codigo": 10068402300461, "ref_sisa_tipologia": "ESCIG", "wikidata": "", "wikipedia": "" }, "geometry": { "type": "Point", "coordinates": [ -58.5422858, -34.6344223 ] } },
{ "type": "Feature", "properties": { "amenity": "clinic", "healthcare": "clinic", "operator": "Municipal", "operator_type": "public", "name": "Unidad Sanitaria 1 De Ciudadela", "addr_full": "Gaceta De Buenos Aires 3550", "addr_postcode": "1702", "phone": "(011) 4657-8465", "ref_sisa_codigo": 50068402202461, "ref_sisa_tipologia": "ESSIDT", "wikidata": "", "wikipedia": "" }, "geometry": { "type": "Point", "coordinates": [ -58.535984, -34.6378488 ] } },
{ "type": "Feature", "properties": { "amenity": "clinic", "healthcare": "clinic", "operator": "Municipal", "operator_type": "public", "name": "Unidad Sanitaria 2 De Jose Ingenieros", "addr_full": "Enrique Manzoni 3000", "addr_postcode": "1702", "phone": "011-47570662", "ref_sisa_codigo": 50068402202549, "ref_sisa_tipologia": "ESSIDT", "wikidata": "", "wikipedia": "" }, "geometry": { "type": "Point", "coordinates": [ -58.5413928, -34.6172093 ] } },
{ "type": "Feature", "properties": { "amenity": "clinic", "healthcare": "clinic", "operator": "Municipal", "operator_type": "public", "name": "Unidad Sanitaria 3 Saenz Peña De Tres De Febrero", "addr_full": "Avenida Americas 651", "addr_postcode": "1674", "phone": "011-47575555", "ref_sisa_codigo": 50068402202594, "ref_sisa_tipologia": "ESSIDT", "wikidata": "", "wikipedia": "" }, "geometry": { "type": "Point", "coordinates": [ -58.5280731, -34.6021638 ] } },
{ "type": "Feature", "properties": { "amenity": "clinic", "healthcare": "clinic", "operator": "Municipal", "operator_type": "public", "name": "Unidad Sanitaria 4 De Villa Bosch", "addr_full": "Carlos Guido Spano 1171", "addr_postcode": "1682", "phone": "(011) 4844-0790", "ref_sisa_codigo": 50068402202621, "ref_sisa_tipologia": "ESSIDT", "wikidata": "", "wikipedia": "" }, "geometry": { "type": "Point", "coordinates": [ -58.5778531, -34.5866878 ] } },
{ "type": "Feature", "properties": { "amenity": "clinic", "healthcare": "clinic", "operator": "Municipal", "operator_type": "public", "name": "Unidad Sanitaria 5 Jonas Salk De Loma Hermosa", "addr_full": "Av. Churruca 9910 Loma Hermosa", "addr_postcode": "1657", "phone": "011-47690565", "ref_sisa_codigo": 50068402202638, "ref_sisa_tipologia": "ESSIDT", "wikidata": "", "wikipedia": "" }, "geometry": { "type": "Point", "coordinates": [ -58.6136892, -34.5652938 ] } },
{ "type": "Feature", "properties": { "amenity": "clinic", "healthcare": "clinic", "operator": "Municipal", "operator_type": "public", "name": "Unidad Sanitaria 6 De Caseros", "addr_full": "Labarden 4129", "addr_postcode": "1678", "phone": "011-47505823", "ref_sisa_codigo": 50068402202643, "ref_sisa_tipologia": "ESSIDT", "wikidata": "", "wikipedia": "" }, "geometry": { "type": "Point", "coordinates": [ -58.5538008, -34.6187812 ] } },
{ "type": "Feature", "properties": { "amenity": "clinic", "healthcare": "clinic", "operator": "Municipal", "operator_type": "public", "name": "Unidad Sanitaria 7 De El Palomar", "addr_full": "Matienzo 2630", "addr_postcode": "1684", "phone": "(011) 4751-3251", "ref_sisa_codigo": 50068402202653, "ref_sisa_tipologia": "ESSIDT", "wikidata": "", "wikipedia": "" }, "geometry": { "type": "Point", "coordinates": [ -58.5950621, -34.5977916 ] } },
{ "type": "Feature", "properties": { "amenity": "clinic", "healthcare": "clinic", "operator": "Municipal", "operator_type": "public", "name": "Unidad Sanitaria 8 Villa Matheu De Tres De Febrero", "addr_full": "Joaquín Spandonari 3300", "addr_postcode": "1678", "phone": "011-47500453", "ref_sisa_codigo": 50068402202670, "ref_sisa_tipologia": "ESSIDT", "wikidata": "", "wikipedia": "" }, "geometry": { "type": "Point", "coordinates": [ -58.5769271, -34.6125631 ] } },
{ "type": "Feature", "properties": { "amenity": "clinic", "healthcare": "clinic", "operator": "Municipal", "operator_type": "public", "name": "Unidad Sanitaria 9 De Pablo Podesta", "addr_full": "Julio Moreno 1820", "addr_postcode": "1657", "phone": "011-47390224", "ref_sisa_codigo": 50068402202679, "ref_sisa_tipologia": "ESSIDT", "wikidata": "", "wikipedia": "" }, "geometry": { "type": "Point", "coordinates": [ -58.6036148, -34.5763633 ] } }
]
}
