{
"type": "FeatureCollection",
"name": "038-santa_maria",
"features": [
{ "type": "Feature", "properties": { "amenity": "clinic", "healthcare": "clinic", "operator": "Municipal", "operator_type": "public", "name": "CAPS Esteban Maradona", "addr_full": "Cortazar 50 - Estación Juarez Celman", "addr_postcode": "5145", "phone": "0351- 4995780", "ref_sisa_codigo": 50140212232969, "ref_sisa_tipologia": "ESSIDT", "wikidata": "", "wikipedia": "" }, "geometry": { "type": "Point", "coordinates": [ -64.1834564, -31.5693704 ] } },
{ "type": "Feature", "properties": { "amenity": "clinic", "healthcare": "clinic", "operator": "Municipal", "operator_type": "public", "name": "CAPS Monte Ralo", "addr_full": "Italia S\/N°", "addr_postcode": "5119", "phone": "03547-493080", "ref_sisa_codigo": 50141472231407, "ref_sisa_tipologia": "ESSIDT", "wikidata": "", "wikipedia": "" }, "geometry": { "type": "Point", "coordinates": [ -64.4239864, -31.6533536 ] } },
{ "type": "Feature", "properties": { "amenity": "clinic", "healthcare": "clinic", "operator": "Municipal", "operator_type": "public", "name": "CAPS Los Talas", "addr_full": "Calle Pública", "addr_postcode": "5189", "phone": "03547-15511088", "ref_sisa_codigo": 50141472235049, "ref_sisa_tipologia": "ESSIDT", "wikidata": "", "wikipedia": "" }, "geometry": { "type": "Point", "coordinates": [ -64.5608751, -31.7904099 ] } },
{ "type": "Feature", "properties": { "amenity": "clinic", "healthcare": "clinic", "operator": "Municipal", "operator_type": "public", "name": "CAP La Paisanita", "addr_full": "Calle Pública S\/N", "addr_postcode": "5186", "phone": "(03547) 48-8509", "ref_sisa_codigo": 50141472231795, "ref_sisa_tipologia": "ESSIDT", "wikidata": "", "wikipedia": "" }, "geometry": { "type": "Point", "coordinates": [ -64.5611572, -31.7048031 ] } },
{ "type": "Feature", "properties": { "amenity": "clinic", "healthcare": "clinic", "operator": "Municipal", "operator_type": "public", "name": "Centro De Integracion Comunal De Toledo", "addr_full": "25 De Mayo S\/N", "addr_postcode": "5123", "phone": "(0351) 490-5041 \/ 090", "ref_sisa_codigo": 50141472232243, "ref_sisa_tipologia": "ESSIDT", "wikidata": "", "wikipedia": "" }, "geometry": { "type": "Point", "coordinates": [ -64.0060902, -31.5538903 ] } },
{ "type": "Feature", "properties": { "amenity": "clinic", "healthcare": "clinic", "operator": "Municipal", "operator_type": "public", "name": "Centro De Salud Dr Rene Favaloro", "addr_full": "Ruta 5 Esq El Hornero", "addr_postcode": "5189", "phone": "03547- 494891", "ref_sisa_codigo": 50141472231696, "ref_sisa_tipologia": "ESSIDT", "wikidata": "", "wikipedia": "" }, "geometry": { "type": "Point", "coordinates": [ -64.3985939, -31.7030505 ] } },
{ "type": "Feature", "properties": { "amenity": "clinic", "healthcare": "clinic", "operator": "Municipal", "operator_type": "public", "name": "Centro De Salud Municipal San Pedro", "addr_full": "Coronel Morillo Esq. San Martín", "addr_postcode": "5871", "phone": "(03521) 42-1516", "ref_sisa_codigo": 50141262232281, "ref_sisa_tipologia": "ESSIDT", "wikidata": "", "wikipedia": "" }, "geometry": { "type": "Point", "coordinates": [ -64.6318817, -31.766705 ] } },
{ "type": "Feature", "properties": { "amenity": "clinic", "healthcare": "clinic", "operator": "Municipal", "operator_type": "public", "name": "Centro De Salud Villa Amancay", "addr_full": "Camino Provincial S\/N", "addr_postcode": "5199", "phone": "(03546) 48-3030", "ref_sisa_codigo": 50140072232489, "ref_sisa_tipologia": "ESSIDT", "wikidata": "", "wikipedia": "" }, "geometry": { "type": "Point", "coordinates": [ -64.420372, -31.6504004 ] } },
{ "type": "Feature", "properties": { "amenity": "clinic", "healthcare": "clinic", "operator": "Municipal", "operator_type": "public", "name": "Centro Periferico De Salud Punto De Agua", "addr_full": "Calle Publica S\/N", "addr_postcode": "5101", "phone": "(0351) 498-1185\/86\/498-2002\/498-234", "ref_sisa_codigo": 50141472232238, "ref_sisa_tipologia": "ESSIDT", "wikidata": "", "wikipedia": "" }, "geometry": { "type": "Point", "coordinates": [ -64.358077, -31.462243 ] } },
{ "type": "Feature", "properties": { "amenity": "clinic", "healthcare": "clinic", "operator": "Municipal", "operator_type": "public", "name": "Centro Periferico 3 La Perla", "addr_full": "Avenida Italia 40", "addr_postcode": "5101", "phone": "351-4981188", "ref_sisa_codigo": 50141472265664, "ref_sisa_tipologia": "ESSIDT", "wikidata": "", "wikipedia": "" }, "geometry": { "type": "Point", "coordinates": [ -64.346548, -31.457351 ] } },
{ "type": "Feature", "properties": { "amenity": "clinic", "healthcare": "clinic", "operator": "Municipal", "operator_type": "public", "name": "Centro Periferico 4 Primero De Mayo", "addr_full": "Isla Soledad 283", "addr_postcode": "5101", "phone": "(0351) 498-1185\/86\/498-2002\/49-8234", "ref_sisa_codigo": 50141472232235, "ref_sisa_tipologia": "ESSIDT", "wikidata": "", "wikipedia": "" }, "geometry": { "type": "Point", "coordinates": [ -64.358892, -31.464135 ] } },
{ "type": "Feature", "properties": { "amenity": "clinic", "healthcare": "clinic", "operator": "Municipal", "operator_type": "public", "name": "Centro Periferico San Nicolas", "addr_full": "Carlos Paz S\/N", "addr_postcode": "5101", "phone": "0351-4981185\/86\/4982002\/498234", "ref_sisa_codigo": 50141472232241, "ref_sisa_tipologia": "ESSIDT", "wikidata": "", "wikipedia": "" }, "geometry": { "type": "Point", "coordinates": [ -64.358088, -31.462275 ] } },
{ "type": "Feature", "properties": { "amenity": "hospital", "healthcare": "hospital", "operator": "Privado", "operator_type": "private", "name": "Clinica Privada Santa Maria", "addr_full": "Belisario Roldan 40", "addr_postcode": "5186", "phone": "03547-421093", "ref_sisa_codigo": 10141472331120, "ref_sisa_tipologia": "ESCIG", "wikidata": "", "wikipedia": "" }, "geometry": { "type": "Point", "coordinates": [ -64.432974, -31.657242 ] } },
{ "type": "Feature", "properties": { "amenity": "clinic", "healthcare": "clinic", "operator": "Municipal", "operator_type": "public", "name": "Dispensario Barrio Obrero", "addr_full": "Calle Pública S\/N", "addr_postcode": "5871", "phone": "(03521) 42-1516", "ref_sisa_codigo": 50141262232279, "ref_sisa_tipologia": "ESSIDT", "wikidata": "", "wikipedia": "" }, "geometry": { "type": "Point", "coordinates": [ -64.6346283, -31.7643698 ] } },
{ "type": "Feature", "properties": { "amenity": "clinic", "healthcare": "clinic", "operator": "Municipal", "operator_type": "public", "name": "Dispensario Bouwer", "addr_full": "Av. Libertador San Martín S\/N", "addr_postcode": "5119", "phone": "(0351) 499-3100", "ref_sisa_codigo": 50141472231789, "ref_sisa_tipologia": "ESSIDT", "wikidata": "", "wikipedia": "" }, "geometry": { "type": "Point", "coordinates": [ -64.1829872, -31.5690292 ] } },
{ "type": "Feature", "properties": { "amenity": "clinic", "healthcare": "clinic", "operator": "Municipal", "operator_type": "public", "name": "Dispensario Comunal De Villa La Bolsa", "addr_full": "Ruta Provincial 5 523", "addr_postcode": "5189", "phone": "03547-494130", "ref_sisa_codigo": 50141472231496, "ref_sisa_tipologia": "ESSIDT", "wikidata": "", "wikipedia": "" }, "geometry": { "type": "Point", "coordinates": [ -64.42689, -31.729472 ] } },
{ "type": "Feature", "properties": { "amenity": "clinic", "healthcare": "clinic", "operator": "Municipal", "operator_type": "public", "name": "Dispensario Comunal Rafael Garcia", "addr_full": "Bartolome Mitre S\/Nº", "addr_postcode": "5120", "phone": "(03547) 48-9800", "ref_sisa_codigo": 50141472231504, "ref_sisa_tipologia": "ESSIDT", "wikidata": "", "wikipedia": "" }, "geometry": { "type": "Point", "coordinates": [ -64.264183, -31.6466594 ] } },
{ "type": "Feature", "properties": { "amenity": "clinic", "healthcare": "clinic", "operator": "Municipal", "operator_type": "public", "name": "Dispensario Municipal  Los Callejones", "addr_full": "Calle Camino A San Vicente Barrio Los Callejones", "addr_postcode": "5871", "phone": "(03521) 42-1516", "ref_sisa_codigo": 50141262232277, "ref_sisa_tipologia": "ESSIDT", "wikidata": "", "wikipedia": "" }, "geometry": { "type": "Point", "coordinates": [ -64.634285, -31.7680185 ] } },
{ "type": "Feature", "properties": { "amenity": "clinic", "healthcare": "clinic", "operator": "Municipal", "operator_type": "public", "name": "Dispensario Municipal Felipe Gomez De Lozada", "addr_full": "Corrientes 34", "addr_postcode": "5101", "phone": "(03572) 49-2090", "ref_sisa_codigo": 50141472231925, "ref_sisa_tipologia": "ESSIDT", "wikidata": "", "wikipedia": "" }, "geometry": { "type": "Point", "coordinates": [ -64.09027, -31.647904 ] } },
{ "type": "Feature", "properties": { "amenity": "clinic", "healthcare": "clinic", "operator": "Municipal", "operator_type": "public", "name": "Dispensario Municipal Jesus Ramon Carreño De Toledo", "addr_full": "25 De Mayo Y Constitución", "addr_postcode": "5123", "phone": "0351-4905089\/090\/091\/041", "ref_sisa_codigo": 50141472231927, "ref_sisa_tipologia": "ESSIDT", "wikidata": "", "wikipedia": "" }, "geometry": { "type": "Point", "coordinates": [ -64.0066051, -31.5538903 ] } },
{ "type": "Feature", "properties": { "amenity": "clinic", "healthcare": "clinic", "operator": "Municipal", "operator_type": "public", "name": "Dispensario Municipal 1 Barrio Villa Oviedo", "addr_full": "Urquiza 358", "addr_postcode": "5186", "phone": "03547-428121", "ref_sisa_codigo": 50141472231545, "ref_sisa_tipologia": "ESSIDT", "wikidata": "", "wikipedia": "" }, "geometry": { "type": "Point", "coordinates": [ -64.4314829, -31.661486 ] } },
{ "type": "Feature", "properties": { "amenity": "clinic", "healthcare": "clinic", "operator": "Municipal", "operator_type": "public", "name": "Dispensario Municipal Paraje Las Cortaderas", "addr_full": "Calle Pública S\/N", "addr_postcode": "5871", "phone": "", "ref_sisa_codigo": 50141262233284, "ref_sisa_tipologia": "ESSIDT", "wikidata": "", "wikipedia": "" }, "geometry": { "type": "Point", "coordinates": [ -64.633355, -31.766413 ] } },
{ "type": "Feature", "properties": { "amenity": "clinic", "healthcare": "clinic", "operator": "Municipal", "operator_type": "public", "name": "Dispensario 1 De Anisacate", "addr_full": "Ruta 5 Esq. 25 De Mayo", "addr_postcode": "5189", "phone": "03547-494052", "ref_sisa_codigo": 50141472232228, "ref_sisa_tipologia": "ESSIDT", "wikidata": "", "wikipedia": "" }, "geometry": { "type": "Point", "coordinates": [ -64.3984222, -31.7026124 ] } },
{ "type": "Feature", "properties": { "amenity": "clinic", "healthcare": "clinic", "operator": "Municipal", "operator_type": "public", "name": "Dispensario 1 Falda Del Carmen", "addr_full": "Ruta Provincial C-45 Km 7.5", "addr_postcode": "5187", "phone": "(03547) 48-9517", "ref_sisa_codigo": 50141472231793, "ref_sisa_tipologia": "ESSIDT", "wikidata": "", "wikipedia": "" }, "geometry": { "type": "Point", "coordinates": [ -64.4496632, -31.5831054 ] } },
{ "type": "Feature", "properties": { "amenity": "clinic", "healthcare": "clinic", "operator": "Municipal", "operator_type": "public", "name": "Dispensario 10 Valle Buena Esperanza", "addr_full": "Valle Buena Esperanza", "addr_postcode": "5186", "phone": "03547-428121", "ref_sisa_codigo": 50141472231551, "ref_sisa_tipologia": "ESSIDT", "wikidata": "", "wikipedia": "" }, "geometry": { "type": "Point", "coordinates": [ -64.4566833, -31.6400051 ] } },
{ "type": "Feature", "properties": { "amenity": "clinic", "healthcare": "clinic", "operator": "Municipal", "operator_type": "public", "name": "Dispensario 11 Barrio Camara", "addr_full": "Los Andes 546", "addr_postcode": "5186", "phone": "03547-15650878 \/ 428121", "ref_sisa_codigo": 50141472231552, "ref_sisa_tipologia": "ESSIDT", "wikidata": "", "wikipedia": "" }, "geometry": { "type": "Point", "coordinates": [ -64.418057, -31.652845 ] } },
{ "type": "Feature", "properties": { "amenity": "clinic", "healthcare": "clinic", "operator": "Municipal", "operator_type": "public", "name": "Dispensario 2 Barrio Cordoba", "addr_full": "Avenida Belgrano 15", "addr_postcode": "5186", "phone": "(03547) 42-8130 \/ 42-9303", "ref_sisa_codigo": 50141472232116, "ref_sisa_tipologia": "ESSIDT", "wikidata": "", "wikipedia": "" }, "geometry": { "type": "Point", "coordinates": [ -64.4343447, -31.6574228 ] } },
{ "type": "Feature", "properties": { "amenity": "clinic", "healthcare": "clinic", "operator": "Municipal", "operator_type": "public", "name": "Dispensario 2 De Anisacate", "addr_full": "Calle Bosque Alegre S\/N", "addr_postcode": "5189", "phone": "(03547) 49-4052", "ref_sisa_codigo": 50141472232226, "ref_sisa_tipologia": "ESSIDT", "wikidata": "", "wikipedia": "" }, "geometry": { "type": "Point", "coordinates": [ -64.3999672, -31.7033426 ] } },
{ "type": "Feature", "properties": { "amenity": "clinic", "healthcare": "clinic", "operator": "Municipal", "operator_type": "public", "name": "Dispensario 3 Doctor Ramon Carrillo", "addr_full": "Srta. Ema Ceballos Esq. Paraguay", "addr_postcode": "5186", "phone": "(03547) 15-650878 \/ 428", "ref_sisa_codigo": 50141472231787, "ref_sisa_tipologia": "ESSIDT", "wikidata": "", "wikipedia": "" }, "geometry": { "type": "Point", "coordinates": [ -64.4291496, -31.6545504 ] } },
{ "type": "Feature", "properties": { "amenity": "clinic", "healthcare": "clinic", "operator": "Municipal", "operator_type": "public", "name": "Dispensario 4 Barrio La Gruta", "addr_full": "Las Rosas S\/N Y Los Manantiales", "addr_postcode": "5186", "phone": "03547-428121", "ref_sisa_codigo": 50141472231553, "ref_sisa_tipologia": "ESSIDT", "wikidata": "", "wikipedia": "" }, "geometry": { "type": "Point", "coordinates": [ -64.4513629, -31.6535637 ] } },
{ "type": "Feature", "properties": { "amenity": "clinic", "healthcare": "clinic", "operator": "Municipal", "operator_type": "public", "name": "Dispensario 5 Juan Ledesma", "addr_full": "Bernardino Rivadavia 985", "addr_postcode": "5186", "phone": "(03547) 42-8130 \/ 42-9303", "ref_sisa_codigo": 50141472232289, "ref_sisa_tipologia": "ESSIDT", "wikidata": "", "wikipedia": "" }, "geometry": { "type": "Point", "coordinates": [ -64.4248542, -31.66823 ] } },
{ "type": "Feature", "properties": { "amenity": "clinic", "healthcare": "clinic", "operator": "Municipal", "operator_type": "public", "name": "Dispensario 6 Barrio Parque San Juan", "addr_full": "Calle 9 S\/N- Barrio Parque San Juan", "addr_postcode": "5186", "phone": "03547-428121", "ref_sisa_codigo": 50141472231557, "ref_sisa_tipologia": "ESSIDT", "wikidata": "", "wikipedia": "" }, "geometry": { "type": "Point", "coordinates": [ -64.4327545, -31.6545504 ] } },
{ "type": "Feature", "properties": { "amenity": "clinic", "healthcare": "clinic", "operator": "Municipal", "operator_type": "public", "name": "Dispensario 7 Barrio Sabattini", "addr_full": "Gobernador Sanichelli S\/Nº", "addr_postcode": "5186", "phone": "03547-428121", "ref_sisa_codigo": 50141472231554, "ref_sisa_tipologia": "ESSIDT", "wikidata": "", "wikipedia": "" }, "geometry": { "type": "Point", "coordinates": [ -64.4313812, -31.6554271 ] } },
{ "type": "Feature", "properties": { "amenity": "clinic", "healthcare": "clinic", "operator": "Municipal", "operator_type": "public", "name": "Dispensario 8 Julio Barrientos", "addr_full": "Srta. Ema Ceballos Esquina Paraguay", "addr_postcode": "5186", "phone": "(03547) 42-8130 \/ 42-9303", "ref_sisa_codigo": 50141472232287, "ref_sisa_tipologia": "ESSIDT", "wikidata": "", "wikipedia": "" }, "geometry": { "type": "Point", "coordinates": [ -64.4317245, -31.6561577 ] } },
{ "type": "Feature", "properties": { "amenity": "clinic", "healthcare": "clinic", "operator": "Municipal", "operator_type": "public", "name": "Dispensario 9 Barrio Liniers", "addr_full": "Srta. Ema Ceballos Esquina Paraguay", "addr_postcode": "5186", "phone": "03547-428121", "ref_sisa_codigo": 50141472231555, "ref_sisa_tipologia": "ESSIDT", "wikidata": "", "wikipedia": "" }, "geometry": { "type": "Point", "coordinates": [ -64.4297504, -31.6541851 ] } },
{ "type": "Feature", "properties": { "amenity": "clinic", "healthcare": "clinic", "operator": "Municipal", "operator_type": "public", "name": "Dispensario Villa Del Prado", "addr_full": "Ruta Provincial 5 Km 28", "addr_postcode": "5187", "phone": "03547 422543", "ref_sisa_codigo": 50141472231559, "ref_sisa_tipologia": "ESSIDT", "wikidata": "", "wikipedia": "" }, "geometry": { "type": "Point", "coordinates": [ -64.391443, -31.623065 ] } },
{ "type": "Feature", "properties": { "amenity": "hospital", "healthcare": "hospital", "operator": "Provincial", "operator_type": "public", "name": "Hospital Doctor Arturo Illia De Alta Gracia", "addr_full": "Avenida Del Libertador 1450", "addr_postcode": "5186", "phone": "03547-429282", "ref_sisa_codigo": 10141472131165, "ref_sisa_tipologia": "ESCIG", "wikidata": "", "wikipedia": "" }, "geometry": { "type": "Point", "coordinates": [ -64.416195, -31.658539 ] } },
{ "type": "Feature", "properties": { "amenity": "hospital", "healthcare": "hospital", "operator": "Municipal", "operator_type": "public", "name": "Hospital Municipal Despeńaderos", "addr_full": "Sarmiento 256", "addr_postcode": "5121", "phone": "03547-492013", "ref_sisa_codigo": 10141472231184, "ref_sisa_tipologia": "ESCIG", "wikidata": "", "wikipedia": "" }, "geometry": { "type": "Point", "coordinates": [ -64.286777, -31.818977 ] } },
{ "type": "Feature", "properties": { "amenity": "hospital", "healthcare": "hospital", "operator": "Municipal", "operator_type": "public", "name": "Hospital Municipal Doctor Amancio Rodriguez Alvarez", "addr_full": "Ruta Provincial N 19 S\/n", "addr_postcode": "2426", "phone": "03564-471005", "ref_sisa_codigo": 10141402231187, "ref_sisa_tipologia": "ESCIG", "wikidata": "", "wikipedia": "" }, "geometry": { "type": "Point", "coordinates": [ -64.3359375, -31.6533814 ] } },
{ "type": "Feature", "properties": { "amenity": "hospital", "healthcare": "hospital", "operator": "Municipal", "operator_type": "public", "name": "Hospital Municipal Nuestra Seńora De Las Nievas De Malagueńo", "addr_full": "Mendoza Esquina Gral. Rosas", "addr_postcode": "5101", "phone": "0351-4981188", "ref_sisa_codigo": 10141472231218, "ref_sisa_tipologia": "ESCIG", "wikidata": "", "wikipedia": "" }, "geometry": { "type": "Point", "coordinates": [ -64.4443363, -31.8252987 ] } },
{ "type": "Feature", "properties": { "amenity": "clinic", "healthcare": "clinic", "operator": "Municipal", "operator_type": "public", "name": "Puesto Sanitario San Clemente", "addr_full": "Calle Pública S\/Nº", "addr_postcode": "5187", "phone": "(03547) 48-8804", "ref_sisa_codigo": 50141472231670, "ref_sisa_tipologia": "ESSIDT", "wikidata": "", "wikipedia": "" }, "geometry": { "type": "Point", "coordinates": [ -64.6325684, -31.7144415 ] } },
{ "type": "Feature", "properties": { "amenity": "clinic", "healthcare": "clinic", "operator": "Municipal", "operator_type": "public", "name": "Puesto Sanitario Santa Cruz", "addr_full": "Esquiú Y San Martín S\/N", "addr_postcode": "5205", "phone": "(03521) 421-5167", "ref_sisa_codigo": 50141752232092, "ref_sisa_tipologia": "ESSIDT", "wikidata": "", "wikipedia": "" }, "geometry": { "type": "Point", "coordinates": [ -64.6328259, -31.766632 ] } },
{ "type": "Feature", "properties": { "amenity": "clinic", "healthcare": "clinic", "operator": "Municipal", "operator_type": "public", "name": "Puesto Sanitario Yocsina", "addr_full": "Brigadier San Martin", "addr_postcode": "5101", "phone": "351-4981188", "ref_sisa_codigo": 50141472231799, "ref_sisa_tipologia": "ESSIDT", "wikidata": "", "wikipedia": "" }, "geometry": { "type": "Point", "coordinates": [ -64.353135, -31.455824 ] } },
{ "type": "Feature", "properties": { "amenity": "hospital", "healthcare": "hospital", "operator": "Privado", "operator_type": "private", "name": "Sanatorio Alta Gracia S.r.l", "addr_full": "Carignani 180", "addr_postcode": "5186", "phone": "03547-421209", "ref_sisa_codigo": 10141472331307, "ref_sisa_tipologia": "ESCIG", "wikidata": "", "wikipedia": "" }, "geometry": { "type": "Point", "coordinates": [ -64.4315948, -31.6568561 ] } }
]
}
