{
"type": "FeatureCollection",
"name": "039-ushuaia",
"features": [
{ "type": "Feature", "properties": { "amenity": "clinic", "healthcare": "clinic", "operator": "Provincial", "operator_type": "public", "name": "CAPS 1", "addr_full": "Juan Facundo Quiroga 2631", "addr_postcode": "9410", "phone": "02901-441026", "ref_sisa_codigo": 50940142195010, "ref_sisa_tipologia": "ESSIDT", "wikidata": "", "wikipedia": "" }, "geometry": { "type": "Point", "coordinates": [ -68.264996, -54.7915337 ] } },
{ "type": "Feature", "properties": { "amenity": "clinic", "healthcare": "clinic", "operator": "Provincial", "operator_type": "public", "name": "CAPS 2", "addr_full": "Kuanip 1219", "addr_postcode": "9410", "phone": "02901-441027", "ref_sisa_codigo": 50940142195012, "ref_sisa_tipologia": "ESSIDT", "wikidata": "", "wikipedia": "" }, "geometry": { "type": "Point", "coordinates": [ -68.3419784, -54.8188778 ] } },
{ "type": "Feature", "properties": { "amenity": "clinic", "healthcare": "clinic", "operator": "Provincial", "operator_type": "public", "name": "CAPS 3", "addr_full": "60 Viviendas Tira 2 Casa 14", "addr_postcode": "9410", "phone": "02901-441028", "ref_sisa_codigo": 50940142195014, "ref_sisa_tipologia": "ESSIDT", "wikidata": "", "wikipedia": "" }, "geometry": { "type": "Point", "coordinates": [ -68.3203053, -54.8053476 ] } },
{ "type": "Feature", "properties": { "amenity": "clinic", "healthcare": "clinic", "operator": "Provincial", "operator_type": "public", "name": "CAPS 4", "addr_full": "Avenida Leandro N. Alem 1997", "addr_postcode": "9410", "phone": "02901-441029", "ref_sisa_codigo": 50940142195016, "ref_sisa_tipologia": "ESSIDT", "wikidata": "", "wikipedia": "" }, "geometry": { "type": "Point", "coordinates": [ -68.3519125, -54.8211622 ] } },
{ "type": "Feature", "properties": { "amenity": "clinic", "healthcare": "clinic", "operator": "Provincial", "operator_type": "public", "name": "CAPS 5", "addr_full": "Barrio Bahia Golondrina - Calle Independencia 1089", "addr_postcode": "9410", "phone": "02901-441030", "ref_sisa_codigo": 50940142195019, "ref_sisa_tipologia": "ESSIDT", "wikidata": "", "wikipedia": "" }, "geometry": { "type": "Point", "coordinates": [ -68.337094, -54.827788 ] } },
{ "type": "Feature", "properties": { "amenity": "clinic", "healthcare": "clinic", "operator": "Provincial", "operator_type": "public", "name": "CAPS 6", "addr_full": "Pioneros Fueguinos 4579", "addr_postcode": "9410", "phone": "(02901) 441031", "ref_sisa_codigo": 50940142195020, "ref_sisa_tipologia": "ESSIDT", "wikidata": "", "wikipedia": "" }, "geometry": { "type": "Point", "coordinates": [ -68.232611, -54.793555 ] } },
{ "type": "Feature", "properties": { "amenity": "clinic", "healthcare": "clinic", "operator": "Provincial", "operator_type": "public", "name": "CAPS 8  Eva Peron", "addr_full": "De La Estancia Y Rio Claro", "addr_postcode": "9410", "phone": "", "ref_sisa_codigo": 50940142195407, "ref_sisa_tipologia": "ESSIDT", "wikidata": "", "wikipedia": "" }, "geometry": { "type": "Point", "coordinates": [ -68.3673491, -54.8334358 ] } },
{ "type": "Feature", "properties": { "amenity": "clinic", "healthcare": "clinic", "operator": "Provincial", "operator_type": "public", "name": "CAPS 7", "addr_full": "Leandro N. Alem 2008", "addr_postcode": "9410", "phone": "", "ref_sisa_codigo": 50940142195098, "ref_sisa_tipologia": "ESSIDT", "wikidata": "", "wikipedia": "" }, "geometry": { "type": "Point", "coordinates": [ -68.3320534, -54.8064112 ] } },
{ "type": "Feature", "properties": { "amenity": "clinic", "healthcare": "clinic", "operator": "Provincial", "operator_type": "public", "name": "Centro De Atencion Problematicas De Consumo Ushuaia", "addr_full": "Concejal Rubinos Del Rio 153", "addr_postcode": "9410", "phone": "02901 - 445527", "ref_sisa_codigo": 14940142195007, "ref_sisa_tipologia": "ESCIE", "wikidata": "", "wikipedia": "" }, "geometry": { "type": "Point", "coordinates": [ -68.3348844, -54.8182877 ] } },
{ "type": "Feature", "properties": { "amenity": "clinic", "healthcare": "clinic", "operator": "Municipal", "operator_type": "public", "name": "Consultorio Del Polo Deportivo Andorra", "addr_full": "Macizo 1 Parcela 3  \/ Macizo 1A Parcela 1", "addr_postcode": "9410", "phone": "02901-441523", "ref_sisa_codigo": 50940142295226, "ref_sisa_tipologia": "ESSIDT", "wikidata": "", "wikipedia": "" }, "geometry": { "type": "Point", "coordinates": [ -68.270985, -54.787208 ] } },
{ "type": "Feature", "properties": { "amenity": "clinic", "healthcare": "clinic", "operator": "Municipal", "operator_type": "public", "name": "Consultorio Medico Municipalidad De Ushuaia", "addr_full": "Vito Dumas 220", "addr_postcode": "9410", "phone": "", "ref_sisa_codigo": 50940142295387, "ref_sisa_tipologia": "ESSIDT", "wikidata": "", "wikipedia": "" }, "geometry": { "type": "Point", "coordinates": [ -68.2687285, -54.7939928 ] } },
{ "type": "Feature", "properties": { "amenity": "clinic", "healthcare": "clinic", "operator": "Municipal", "operator_type": "public", "name": "Consultorio Medico Polideportivo Municipal Augusto Laserre", "addr_full": "Avenida Malvinas Argentinas 869", "addr_postcode": "9410", "phone": "02901-422424", "ref_sisa_codigo": 50940142295388, "ref_sisa_tipologia": "ESSIDT", "wikidata": "", "wikipedia": "" }, "geometry": { "type": "Point", "coordinates": [ -68.322247, -54.814216 ] } },
{ "type": "Feature", "properties": { "amenity": "clinic", "healthcare": "clinic", "operator": "Municipal", "operator_type": "public", "name": "Consultorio Odontologico Centro Comunitario", "addr_full": "Vuelta De Obligado 660", "addr_postcode": "9410", "phone": "", "ref_sisa_codigo": 50940142295417, "ref_sisa_tipologia": "ESSIDT", "wikidata": "", "wikipedia": "" }, "geometry": { "type": "Point", "coordinates": [ -68.3435515, -54.8103776 ] } },
{ "type": "Feature", "properties": { "amenity": "hospital", "healthcare": "hospital", "operator": "FFAA\/Seguridad", "operator_type": "public", "name": "Hospital Naval Ushuaia.", "addr_full": "Gobernador Paz  y  Yaganes", "addr_postcode": "9410", "phone": "02901- 422038", "ref_sisa_codigo": 10940142495001, "ref_sisa_tipologia": "ESCIG", "wikidata": "", "wikipedia": "" }, "geometry": { "type": "Point", "coordinates": [ -68.298815, -54.803083 ] } },
{ "type": "Feature", "properties": { "amenity": "hospital", "healthcare": "hospital", "operator": "Provincial", "operator_type": "public", "name": "Hospital Regional Ushuaia Gobernador Ernesto M. Campos", "addr_full": "12 De Octubre 65", "addr_postcode": "9410", "phone": "(02901) 423200", "ref_sisa_codigo": 10940142195003, "ref_sisa_tipologia": "ESCIG", "wikidata": "", "wikipedia": "" }, "geometry": { "type": "Point", "coordinates": [ -68.3246353, -54.8145894 ] } },
{ "type": "Feature", "properties": { "amenity": "clinic", "healthcare": "clinic", "operator": "Provincial", "operator_type": "public", "name": "Posta Sanitaria De Andorra (Andres Borrego)", "addr_full": "Valle De Andorra Quinta 52", "addr_postcode": "9410", "phone": "", "ref_sisa_codigo": 50940142195406, "ref_sisa_tipologia": "ESSIDT", "wikidata": "", "wikipedia": "" }, "geometry": { "type": "Point", "coordinates": [ -68.2718459, -54.7741902 ] } },
{ "type": "Feature", "properties": { "amenity": "hospital", "healthcare": "hospital", "operator": "Privado", "operator_type": "private", "name": "Sanatorio San Jorge", "addr_full": "Onachanga 184", "addr_postcode": "9410", "phone": "(02901) 42-2635", "ref_sisa_codigo": 10940142395005, "ref_sisa_tipologia": "ESCIG", "wikidata": "", "wikipedia": "" }, "geometry": { "type": "Point", "coordinates": [ -68.3260341, -54.815326 ] } }
]
}
