{
"type": "FeatureCollection",
"name": "040-comuna_5",
"features": [
{ "type": "Feature", "properties": { "amenity": "clinic", "healthcare": "clinic", "operator": "Municipal", "operator_type": "public", "name": "CESAC 23", "addr_full": "Querandies 4290", "addr_postcode": "1183", "phone": "(011) 4983-6098", "ref_sisa_codigo": 50020012115357, "ref_sisa_tipologia": "ESSIDT", "wikidata": "", "wikipedia": "" }, "geometry": { "type": "Point", "coordinates": [ -58.4271226, -34.6113275 ] } },
{ "type": "Feature", "properties": { "amenity": "clinic", "healthcare": "clinic", "operator": "Municipal", "operator_type": "public", "name": "CESAC 38", "addr_full": "Medrano 350", "addr_postcode": "1179", "phone": "(011) 4958-4783", "ref_sisa_codigo": 50020012115371, "ref_sisa_tipologia": "ESSIDT", "wikidata": "Q90206980", "wikipedia": "" }, "geometry": { "type": "Point", "coordinates": [ -58.4213448, -34.6068617 ] } },
{ "type": "Feature", "properties": { "amenity": "hospital", "healthcare": "hospital", "operator": "Privado", "operator_type": "private", "name": "Clinica San Jeronimo - Sede Abasto", "addr_full": "Gallo 548", "addr_postcode": "1172", "phone": "(011) 4865-7310", "ref_sisa_codigo": 10020012315198, "ref_sisa_tipologia": "ESCIG", "wikidata": "Q93139983", "wikipedia": "" }, "geometry": { "type": "Point", "coordinates": [ -58.4129763, -34.6028702 ] } },
{ "type": "Feature", "properties": { "amenity": "clinic", "healthcare": "clinic", "operator": "Municipal", "operator_type": "public", "name": "CMB 16", "addr_full": "Mexico 4040", "addr_postcode": "1223", "phone": "(011) 4931-2139 \/ 4956-0542", "ref_sisa_codigo": 50020012115393, "ref_sisa_tipologia": "ESSIDT", "wikidata": "", "wikipedia": "" }, "geometry": { "type": "Point", "coordinates": [ -58.4229521, -34.6202701 ] } },
{ "type": "Feature", "properties": { "amenity": "clinic", "healthcare": "clinic", "operator": "Municipal", "operator_type": "public", "name": "Hospital De Odontologia Doctor Jose Dueñas", "addr_full": "Muñiz 15", "addr_postcode": "1212", "phone": "(011) 4983-0392 \/ 4983-8983", "ref_sisa_codigo": 50020012115434, "ref_sisa_tipologia": "ESSIDT", "wikidata": "Q89819748", "wikipedia": "" }, "geometry": { "type": "Point", "coordinates": [ -58.4276387, -34.6145998 ] } },
{ "type": "Feature", "properties": { "amenity": "hospital", "healthcare": "hospital", "operator": "Privado", "operator_type": "private", "name": "Hospital Italiano De Buenos Aires", "addr_full": "Gascón 450", "addr_postcode": "1199", "phone": "(011) 4959-0200", "ref_sisa_codigo": 10020012315256, "ref_sisa_tipologia": "ESCIG", "wikidata": "Q1134710", "wikipedia": "ES:Hospital Italiano de Buenos Aires - Sociedad Italiana de Beneficencia en Buenos Aires" }, "geometry": { "type": "Point", "coordinates": [ -58.4247817, -34.6066544 ] } },
{ "type": "Feature", "properties": { "amenity": "hospital", "healthcare": "hospital", "operator": "Privado", "operator_type": "private", "name": "Instituto Dupuytren De Traumatologia Y Ortopedia S.a.", "addr_full": "Av. Belgrano 3402 Piso 1", "addr_postcode": "1210", "phone": "(011) 4866-2222", "ref_sisa_codigo": 10020012315228, "ref_sisa_tipologia": "ESCIG", "wikidata": "Q90410231", "wikipedia": "" }, "geometry": { "type": "Point", "coordinates": [ -58.4143925, -34.6156211 ] } },
{ "type": "Feature", "properties": { "amenity": "hospital", "healthcare": "hospital", "operator": "Obra social", "operator_type": "private", "name": "Policlinico Central - O.s.u.o.m.r.a", "addr_full": "Hipolito Yrigoyen 3352", "addr_postcode": "1208", "phone": "(011) 4021-4400", "ref_sisa_codigo": 10020012715232, "ref_sisa_tipologia": "ESCIG", "wikidata": "Q93141401", "wikipedia": "" }, "geometry": { "type": "Point", "coordinates": [ -58.4139633, -34.6128486 ] } },
{ "type": "Feature", "properties": { "amenity": "hospital", "healthcare": "hospital", "operator": "Privado", "operator_type": "private", "name": "Sanatorio Dupuytren", "addr_full": "Avenida Belgrano 3460", "addr_postcode": "1210", "phone": "(011) 4860-7500", "ref_sisa_codigo": 10020012316137, "ref_sisa_tipologia": "ESCIG", "wikidata": "Q93141524", "wikipedia": "" }, "geometry": { "type": "Point", "coordinates": [ -58.4153388, -34.6158101 ] } },
{ "type": "Feature", "properties": { "amenity": "hospital", "healthcare": "hospital", "operator": "Obra social", "operator_type": "private", "name": "Sanatorio Franchin - Obra Social Del Personal De La Construccion", "addr_full": "Bartolomé Mitre 3545", "addr_postcode": "1201", "phone": "(011) 4865-4030", "ref_sisa_codigo": 10020012715242, "ref_sisa_tipologia": "ESCIG", "wikidata": "Q93141531", "wikipedia": "" }, "geometry": { "type": "Point", "coordinates": [ -58.4167099, -34.6094755 ] } }
]
}
