{
"type": "FeatureCollection",
"name": "041-general_rodriguez",
"features": [
{ "type": "Feature", "properties": { "amenity": "clinic", "healthcare": "clinic", "operator": "Municipal", "operator_type": "public", "name": "CAPS 18 Barrio Bengochea", "addr_full": "Alfonsina Storni  S\/N Entre Alberdi Y Rivera", "addr_postcode": "1748", "phone": "", "ref_sisa_codigo": 50063642216400, "ref_sisa_tipologia": "ESSIDT", "wikidata": "", "wikipedia": "" }, "geometry": { "type": "Point", "coordinates": [ -58.9184761, -34.6084379 ] } },
{ "type": "Feature", "properties": { "amenity": "clinic", "healthcare": "clinic", "operator": "Municipal", "operator_type": "public", "name": "CAPS 8 Agua De Oro", "addr_full": "French Y  Pueyrredón", "addr_postcode": "1748", "phone": "", "ref_sisa_codigo": 50063712215027, "ref_sisa_tipologia": "ESSIDT", "wikidata": "", "wikipedia": "" }, "geometry": { "type": "Point", "coordinates": [ -58.8838735, -34.6099849 ] } },
{ "type": "Feature", "properties": { "amenity": "clinic", "healthcare": "clinic", "operator": "Municipal", "operator_type": "public", "name": "CAPS 1 La Argentina", "addr_full": "Sargento Cabral Y E. Del Campo Barrio Las Malvinas", "addr_postcode": "1748", "phone": "0237-4840022 (RADIO)", "ref_sisa_codigo": 50063642201075, "ref_sisa_tipologia": "ESSIDT", "wikidata": "", "wikipedia": "" }, "geometry": { "type": "Point", "coordinates": [ -58.9236774, -34.6244847 ] } },
{ "type": "Feature", "properties": { "amenity": "clinic", "healthcare": "clinic", "operator": "Municipal", "operator_type": "public", "name": "Centro 9 De General Rodriguez", "addr_full": "Maipu S\/Nº", "addr_postcode": "1748", "phone": "", "ref_sisa_codigo": 50063642201444, "ref_sisa_tipologia": "ESSIDT", "wikidata": "", "wikipedia": "" }, "geometry": { "type": "Point", "coordinates": [ -58.9267883, -34.5824318 ] } },
{ "type": "Feature", "properties": { "amenity": "hospital", "healthcare": "hospital", "operator": "Privado", "operator_type": "private", "name": "Clinica Privada Centro Sa", "addr_full": "Espańa 352", "addr_postcode": "1748", "phone": "(02228) 4850720", "ref_sisa_codigo": 10063642300082, "ref_sisa_tipologia": "ESCIG", "wikidata": "", "wikipedia": "" }, "geometry": { "type": "Point", "coordinates": [ -58.9533899, -34.6053128 ] } },
{ "type": "Feature", "properties": { "amenity": "hospital", "healthcare": "hospital", "operator": "Provincial", "operator_type": "public", "name": "Hospital Zonal General Vicente Lopez Y Planes", "addr_full": "Alem Y 25 De Mayo", "addr_postcode": "1748", "phone": "0237-4840323\/0022", "ref_sisa_codigo": 10063642100407, "ref_sisa_tipologia": "ESCIG", "wikidata": "", "wikipedia": "" }, "geometry": { "type": "Point", "coordinates": [ -58.9485249, -34.6224296 ] } },
{ "type": "Feature", "properties": { "amenity": "clinic", "healthcare": "clinic", "operator": "Municipal", "operator_type": "public", "name": "Sala Central 16 De General Rodriguez", "addr_full": "Cherubini 450", "addr_postcode": "1748", "phone": "0237-4840557", "ref_sisa_codigo": 50063642201779, "ref_sisa_tipologia": "ESSIDT", "wikidata": "", "wikipedia": "" }, "geometry": { "type": "Point", "coordinates": [ -58.9551022, -34.6128212 ] } },
{ "type": "Feature", "properties": { "amenity": "clinic", "healthcare": "clinic", "operator": "Municipal", "operator_type": "public", "name": "Sala 10 Barrio Vista Linda", "addr_full": "Colon Entre San Martin Y Santa Maria S\/N Barrio Vista Linda", "addr_postcode": "1748", "phone": "0237-4840557", "ref_sisa_codigo": 50063642201950, "ref_sisa_tipologia": "ESSIDT", "wikidata": "", "wikipedia": "" }, "geometry": { "type": "Point", "coordinates": [ -58.9281514, -34.5848345 ] } },
{ "type": "Feature", "properties": { "amenity": "clinic", "healthcare": "clinic", "operator": "Municipal", "operator_type": "public", "name": "Sala 11 Barrio Marabo", "addr_full": "Arroyo 40", "addr_postcode": "1748", "phone": "0237-4840557", "ref_sisa_codigo": 50063642201951, "ref_sisa_tipologia": "ESSIDT", "wikidata": "", "wikipedia": "" }, "geometry": { "type": "Point", "coordinates": [ -58.8869442, -34.6035978 ] } },
{ "type": "Feature", "properties": { "amenity": "clinic", "healthcare": "clinic", "operator": "Municipal", "operator_type": "public", "name": "Sala 12 Barrio Los Aromos", "addr_full": "Sarmiento S\/N Entre Ecuador Y Castelli", "addr_postcode": "1748", "phone": "", "ref_sisa_codigo": 50063642201952, "ref_sisa_tipologia": "ESSIDT", "wikidata": "", "wikipedia": "" }, "geometry": { "type": "Point", "coordinates": [ -58.899559, -34.5932076 ] } },
{ "type": "Feature", "properties": { "amenity": "clinic", "healthcare": "clinic", "operator": "Municipal", "operator_type": "public", "name": "Sala 13 Barrio Altos Del Oeste", "addr_full": "Central S\/N Entre Florida Y Baradero", "addr_postcode": "1748", "phone": "", "ref_sisa_codigo": 50063642201953, "ref_sisa_tipologia": "ESSIDT", "wikidata": "", "wikipedia": "" }, "geometry": { "type": "Point", "coordinates": [ -58.8944521, -34.6280868 ] } },
{ "type": "Feature", "properties": { "amenity": "clinic", "healthcare": "clinic", "operator": "Municipal", "operator_type": "public", "name": "Sala 14 Barrio Almafuerte", "addr_full": "Puerto Bahia Blanca Y Puerto Anchorena S\/N Barrio Almafuerte", "addr_postcode": "1748", "phone": "0237-4840557", "ref_sisa_codigo": 50063642201954, "ref_sisa_tipologia": "ESSIDT", "wikidata": "", "wikipedia": "" }, "geometry": { "type": "Point", "coordinates": [ -58.9444699, -34.5910261 ] } },
{ "type": "Feature", "properties": { "amenity": "clinic", "healthcare": "clinic", "operator": "Municipal", "operator_type": "public", "name": "Sala 15 Barrio Parque Irigoyen", "addr_full": "Oliveira Entre Baratini Y Ayudkhan S\/N", "addr_postcode": "1748", "phone": "0237-4840557", "ref_sisa_codigo": 50063642201955, "ref_sisa_tipologia": "ESSIDT", "wikidata": "", "wikipedia": "" }, "geometry": { "type": "Point", "coordinates": [ -58.9718628, -34.6224727 ] } },
{ "type": "Feature", "properties": { "amenity": "clinic", "healthcare": "clinic", "operator": "Municipal", "operator_type": "public", "name": "Sala 2 Barrio Mi Rincon", "addr_full": "San Fermin Ruta 24 Mi Rincon", "addr_postcode": "1748", "phone": "0237-4840557", "ref_sisa_codigo": 50063642201956, "ref_sisa_tipologia": "ESSIDT", "wikidata": "", "wikipedia": "" }, "geometry": { "type": "Point", "coordinates": [ -58.9649963, -34.6173871 ] } },
{ "type": "Feature", "properties": { "amenity": "clinic", "healthcare": "clinic", "operator": "Municipal", "operator_type": "public", "name": "Unidad Sanitaria 3 Los Naranjos De General Rodriguez", "addr_full": "Luis M. Campos Y A. Storni S\/N Barrio Los Naranjos", "addr_postcode": "1748", "phone": "0237-4840022 (RADIO)", "ref_sisa_codigo": 50063642202592, "ref_sisa_tipologia": "ESSIDT", "wikidata": "", "wikipedia": "" }, "geometry": { "type": "Point", "coordinates": [ -58.9122083, -34.6041939 ] } },
{ "type": "Feature", "properties": { "amenity": "clinic", "healthcare": "clinic", "operator": "Municipal", "operator_type": "public", "name": "Unidad Sanitaria 4 De General Rodriguez", "addr_full": "Velez Sarfield Y Alberdi S\/N Barrio La Fraternidad", "addr_postcode": "1748", "phone": "0237-4840022 (RADIO)", "ref_sisa_codigo": 50063642202617, "ref_sisa_tipologia": "ESSIDT", "wikidata": "", "wikipedia": "" }, "geometry": { "type": "Point", "coordinates": [ -58.9492035, -34.6094755 ] } },
{ "type": "Feature", "properties": { "amenity": "clinic", "healthcare": "clinic", "operator": "Municipal", "operator_type": "public", "name": "Unidad Sanitaria 5 De General Rodriguez", "addr_full": "Blas Pascal Entre Chañar Y Azuay S\/N Barrio Guemes", "addr_postcode": "1748", "phone": "0237-4840022 (RADIO)", "ref_sisa_codigo": 50063642202632, "ref_sisa_tipologia": "ESSIDT", "wikidata": "", "wikipedia": "" }, "geometry": { "type": "Point", "coordinates": [ -58.8870707, -34.6315474 ] } },
{ "type": "Feature", "properties": { "amenity": "clinic", "healthcare": "clinic", "operator": "Municipal", "operator_type": "public", "name": "Unidad Sanitaria 6 De General Rodriguez", "addr_full": "Mariano Moreno Entre Azurduy Y Sargento Cabral Barrio San Martin", "addr_postcode": "1748", "phone": "0237-4840022 (RADIO)", "ref_sisa_codigo": 50063642202645, "ref_sisa_tipologia": "ESSIDT", "wikidata": "", "wikipedia": "" }, "geometry": { "type": "Point", "coordinates": [ -58.9697626, -34.6115258 ] } },
{ "type": "Feature", "properties": { "amenity": "clinic", "healthcare": "clinic", "operator": "Municipal", "operator_type": "public", "name": "Unidad Sanitaria 7 De General Rodriguez", "addr_full": "Fitz Roy Entre Mercedes Y Florida S\/N Barrio Almirante Brown", "addr_postcode": "1748", "phone": "0237-4840022 (RADIO)", "ref_sisa_codigo": 50063642202654, "ref_sisa_tipologia": "ESSIDT", "wikidata": "", "wikipedia": "" }, "geometry": { "type": "Point", "coordinates": [ -58.9107063, -34.6225601 ] } },
{ "type": "Feature", "properties": { "amenity": "clinic", "healthcare": "clinic", "operator": "Municipal", "operator_type": "public", "name": "Unidad Sanitaria 9 Parque Rivadavia De General Rodriguez", "addr_full": "Maipu Y Sargento Cabral S\/Nº", "addr_postcode": "1748", "phone": "0237-4840022 (RADIO)", "ref_sisa_codigo": 50063642202682, "ref_sisa_tipologia": "ESSIDT", "wikidata": "", "wikipedia": "" }, "geometry": { "type": "Point", "coordinates": [ -58.8821998, -34.6221804 ] } }
]
}
