{
"type": "FeatureCollection",
"name": "042-pilar",
"features": [
{ "type": "Feature", "properties": { "amenity": "clinic", "healthcare": "clinic", "operator": "Municipal", "operator_type": "public", "name": "CAPS Cepa Diabetologia", "addr_full": "San Martin 669\/675", "addr_postcode": "1629", "phone": "", "ref_sisa_codigo": 50066382216766, "ref_sisa_tipologia": "ESSIDT", "wikidata": "", "wikipedia": "" }, "geometry": { "type": "Point", "coordinates": [ -58.914609, -34.458964 ] } },
{ "type": "Feature", "properties": { "amenity": "clinic", "healthcare": "clinic", "operator": "Municipal", "operator_type": "public", "name": "CAP Juan C. Sanguinetti", "addr_full": "Victor Vergani 860", "addr_postcode": "1629", "phone": "02322-420508\/664000", "ref_sisa_codigo": 50066382201154, "ref_sisa_tipologia": "ESSIDT", "wikidata": "", "wikipedia": "" }, "geometry": { "type": "Point", "coordinates": [ -58.9102342, -34.4610553 ] } },
{ "type": "Feature", "properties": { "amenity": "clinic", "healthcare": "clinic", "operator": "Municipal", "operator_type": "public", "name": "Centro De Prevencion Asistencial De Violencia Familiar (Casa De Familia)", "addr_full": "El Buceo Y Pedro Arata", "addr_postcode": "1669", "phone": "", "ref_sisa_codigo": 50066382206962, "ref_sisa_tipologia": "ESSIDT", "wikidata": "", "wikipedia": "" }, "geometry": { "type": "Point", "coordinates": [ -58.7919852, -34.4521274 ] } },
{ "type": "Feature", "properties": { "amenity": "clinic", "healthcare": "clinic", "operator": "Municipal", "operator_type": "public", "name": "Centro De Salud  Maria Auxiliadora William Morris", "addr_full": "Santa Maria 2500", "addr_postcode": "1669", "phone": "02320-472200", "ref_sisa_codigo": 50066382201187, "ref_sisa_tipologia": "ESSIDT", "wikidata": "", "wikipedia": "" }, "geometry": { "type": "Point", "coordinates": [ -58.9224222, -34.4349553 ] } },
{ "type": "Feature", "properties": { "amenity": "clinic", "healthcare": "clinic", "operator": "Municipal", "operator_type": "public", "name": "Centro De Salud Agustoni Enfermera Juana C. Ataide", "addr_full": "Houssay Y Honduras", "addr_postcode": "1629", "phone": "", "ref_sisa_codigo": 50066382201188, "ref_sisa_tipologia": "ESSIDT", "wikidata": "", "wikipedia": "" }, "geometry": { "type": "Point", "coordinates": [ -58.9102149, -34.4396106 ] } },
{ "type": "Feature", "properties": { "amenity": "clinic", "healthcare": "clinic", "operator": "Municipal", "operator_type": "public", "name": "Centro De Salud Barrio Salas", "addr_full": "Salas Y Chutro", "addr_postcode": "1669", "phone": "", "ref_sisa_codigo": 50066382216375, "ref_sisa_tipologia": "ESSIDT", "wikidata": "", "wikipedia": "" }, "geometry": { "type": "Point", "coordinates": [ -58.7721777, -34.4310804 ] } },
{ "type": "Feature", "properties": { "amenity": "clinic", "healthcare": "clinic", "operator": "Municipal", "operator_type": "public", "name": "Centro De Salud Nuestra Señora De Itati-Barrio El Rocio", "addr_full": "Formosa Y San Pedro", "addr_postcode": "1669", "phone": "", "ref_sisa_codigo": 50066382206881, "ref_sisa_tipologia": "ESSIDT", "wikidata": "", "wikipedia": "" }, "geometry": { "type": "Point", "coordinates": [ -58.9021912, -34.4635651 ] } },
{ "type": "Feature", "properties": { "amenity": "clinic", "healthcare": "clinic", "operator": "Municipal", "operator_type": "public", "name": "Centro De Salud Pinazo", "addr_full": "Santa Cecilia Y Copello S\/N", "addr_postcode": "1669", "phone": "02320-401012", "ref_sisa_codigo": 50066382201340, "ref_sisa_tipologia": "ESSIDT", "wikidata": "", "wikipedia": "" }, "geometry": { "type": "Point", "coordinates": [ -58.8126769, -34.4503332 ] } },
{ "type": "Feature", "properties": { "amenity": "clinic", "healthcare": "clinic", "operator": "Municipal", "operator_type": "public", "name": "Centro De Salud Villa Del Carmen Nahuel Lorenzo", "addr_full": "Juan Xxiii Esquina Leguizamon", "addr_postcode": "1669", "phone": "02320-408700", "ref_sisa_codigo": 50066382201336, "ref_sisa_tipologia": "ESSIDT", "wikidata": "", "wikipedia": "" }, "geometry": { "type": "Point", "coordinates": [ -58.7866402, -34.4681316 ] } },
{ "type": "Feature", "properties": { "amenity": "clinic", "healthcare": "clinic", "operator": "Municipal", "operator_type": "public", "name": "Centro De Salud Zelaya", "addr_full": "Joaquin V. Gonzalez 795", "addr_postcode": "1627", "phone": "", "ref_sisa_codigo": 50066382201385, "ref_sisa_tipologia": "ESSIDT", "wikidata": "", "wikipedia": "" }, "geometry": { "type": "Point", "coordinates": [ -58.8912456, -34.462097 ] } },
{ "type": "Feature", "properties": { "amenity": "clinic", "healthcare": "clinic", "operator": "Municipal", "operator_type": "public", "name": "Centro Odontologico Municipal Padre Jose Maria Jaime", "addr_full": "Hipólito Yrigoyen 464", "addr_postcode": "1629", "phone": "", "ref_sisa_codigo": 50066382218402, "ref_sisa_tipologia": "ESSIDT", "wikidata": "", "wikipedia": "" }, "geometry": { "type": "Point", "coordinates": [ -58.9112399, -34.4581723 ] } },
{ "type": "Feature", "properties": { "amenity": "clinic", "healthcare": "clinic", "operator": "Municipal", "operator_type": "public", "name": "Centro Zoonosis", "addr_full": "Soler 875", "addr_postcode": "1629", "phone": "", "ref_sisa_codigo": 50066382206960, "ref_sisa_tipologia": "ESSIDT", "wikidata": "", "wikipedia": "" }, "geometry": { "type": "Point", "coordinates": [ -58.8971082, -34.4545544 ] } },
{ "type": "Feature", "properties": { "amenity": "hospital", "healthcare": "hospital", "operator": "Privado", "operator_type": "private", "name": "Clinica Los Almendros", "addr_full": "San Luis 425", "addr_postcode": "1629", "phone": "(02322) 426270", "ref_sisa_codigo": 10066382300155, "ref_sisa_tipologia": "ESCIG", "wikidata": "", "wikipedia": "" }, "geometry": { "type": "Point", "coordinates": [ -58.9067428, -34.4669126 ] } },
{ "type": "Feature", "properties": { "amenity": "hospital", "healthcare": "hospital", "operator": "Municipal", "operator_type": "public", "name": "Hospital Municipal Juan Cirilo Sanguinetti", "addr_full": "Mayor Vergani 860", "addr_postcode": "1629", "phone": "(02322) 43-3741", "ref_sisa_codigo": 10066382200322, "ref_sisa_tipologia": "ESCIG", "wikidata": "", "wikipedia": "" }, "geometry": { "type": "Point", "coordinates": [ -58.9102895, -34.4610253 ] } },
{ "type": "Feature", "properties": { "amenity": "hospital", "healthcare": "hospital", "operator": "Privado", "operator_type": "private", "name": "Hospital Universitario Austral", "addr_full": "Avenida Juan Domingo Perón 1500", "addr_postcode": "1635", "phone": "(02322) 482000", "ref_sisa_codigo": 10066382300374, "ref_sisa_tipologia": "ESCIG", "wikidata": "", "wikipedia": "" }, "geometry": { "type": "Point", "coordinates": [ -58.8639555, -34.4558707 ] } },
{ "type": "Feature", "properties": { "amenity": "clinic", "healthcare": "clinic", "operator": "Municipal", "operator_type": "public", "name": "Posta Sanitaria Almirante Irizar", "addr_full": "Los Robles 4275", "addr_postcode": "1629", "phone": "", "ref_sisa_codigo": 50066382201750, "ref_sisa_tipologia": "ESSIDT", "wikidata": "", "wikipedia": "" }, "geometry": { "type": "Point", "coordinates": [ -58.9681737, -34.3919365 ] } },
{ "type": "Feature", "properties": { "amenity": "clinic", "healthcare": "clinic", "operator": "Municipal", "operator_type": "public", "name": "Posta Sanitaria San Jorge", "addr_full": "Avenida San Jorge Entre Los Pinos Y Los Ombues", "addr_postcode": "1629", "phone": "", "ref_sisa_codigo": 50066382201755, "ref_sisa_tipologia": "ESSIDT", "wikidata": "", "wikipedia": "" }, "geometry": { "type": "Point", "coordinates": [ -58.952233, -34.453103 ] } },
{ "type": "Feature", "properties": { "amenity": "clinic", "healthcare": "clinic", "operator": "Municipal", "operator_type": "public", "name": "Sala De Primeros Auxilios Nuestra Señora De Fatima De Pilar", "addr_full": "Isla Jorge 210", "addr_postcode": "1633", "phone": "(02322) 490701", "ref_sisa_codigo": 50066382201868, "ref_sisa_tipologia": "ESSIDT", "wikidata": "", "wikipedia": "" }, "geometry": { "type": "Point", "coordinates": [ -58.9940605, -34.4386559 ] } },
{ "type": "Feature", "properties": { "amenity": "clinic", "healthcare": "clinic", "operator": "Municipal", "operator_type": "public", "name": "Unidad Sanitaria Barrio Toro", "addr_full": "Noruega Entre Rio Tercero Y Rio Cuarto", "addr_postcode": "1635", "phone": "02322-487205", "ref_sisa_codigo": 50066382202137, "ref_sisa_tipologia": "ESSIDT", "wikidata": "", "wikipedia": "" }, "geometry": { "type": "Point", "coordinates": [ -58.849423, -34.499432 ] } },
{ "type": "Feature", "properties": { "amenity": "clinic", "healthcare": "clinic", "operator": "Municipal", "operator_type": "public", "name": "Unidad Sanitaria La Lomita", "addr_full": "Las Alondras 143", "addr_postcode": "1629", "phone": "", "ref_sisa_codigo": 50066382202368, "ref_sisa_tipologia": "ESSIDT", "wikidata": "", "wikipedia": "" }, "geometry": { "type": "Point", "coordinates": [ -58.9211797, -34.437505 ] } },
{ "type": "Feature", "properties": { "amenity": "clinic", "healthcare": "clinic", "operator": "Municipal", "operator_type": "public", "name": "Unidad Sanitaria La Lonja", "addr_full": "Ramos Mejía 2634", "addr_postcode": "1629", "phone": "(02322) 47-0144", "ref_sisa_codigo": 50066382202369, "ref_sisa_tipologia": "ESSIDT", "wikidata": "", "wikipedia": "" }, "geometry": { "type": "Point", "coordinates": [ -58.82795, -34.454407 ] } },
{ "type": "Feature", "properties": { "amenity": "clinic", "healthcare": "clinic", "operator": "Municipal", "operator_type": "public", "name": "Unidad Sanitaria Los Cachorros", "addr_full": "Las Margaritas S\/N Entre Los Claveles Y Las Rosas", "addr_postcode": "1669", "phone": "(02320) 47-2100", "ref_sisa_codigo": 50066382202419, "ref_sisa_tipologia": "ESSIDT", "wikidata": "", "wikipedia": "" }, "geometry": { "type": "Point", "coordinates": [ -58.787566, -34.432942 ] } },
{ "type": "Feature", "properties": { "amenity": "clinic", "healthcare": "clinic", "operator": "Municipal", "operator_type": "public", "name": "Unidad Sanitaria Manuel Alberti", "addr_full": "M. Paillete E\/ Sta María Y Sta Rita", "addr_postcode": "1667", "phone": "(02320) 474400", "ref_sisa_codigo": 50066382202435, "ref_sisa_tipologia": "ESSIDT", "wikidata": "", "wikipedia": "" }, "geometry": { "type": "Point", "coordinates": [ -58.77657, -34.458574 ] } },
{ "type": "Feature", "properties": { "amenity": "clinic", "healthcare": "clinic", "operator": "Municipal", "operator_type": "public", "name": "Unidad Sanitaria Manzanares", "addr_full": "Alas Argentinas 79", "addr_postcode": "1629", "phone": "02322-490702", "ref_sisa_codigo": 50066382202436, "ref_sisa_tipologia": "ESSIDT", "wikidata": "", "wikipedia": "" }, "geometry": { "type": "Point", "coordinates": [ -59.0045473, -34.4539496 ] } },
{ "type": "Feature", "properties": { "amenity": "clinic", "healthcare": "clinic", "operator": "Municipal", "operator_type": "public", "name": "Unidad Sanitaria Manzone", "addr_full": "Maure Y 9 De Julio S\/N", "addr_postcode": "1633", "phone": "02322-486004", "ref_sisa_codigo": 50066382202437, "ref_sisa_tipologia": "ESSIDT", "wikidata": "", "wikipedia": "" }, "geometry": { "type": "Point", "coordinates": [ -58.8769855, -34.489968 ] } },
{ "type": "Feature", "properties": { "amenity": "clinic", "healthcare": "clinic", "operator": "Municipal", "operator_type": "public", "name": "Unidad Sanitaria Monseñor Tomas Reggio", "addr_full": "Colombia Y Jujuy", "addr_postcode": "1635", "phone": "(02322) 48-8200", "ref_sisa_codigo": 50066382202454, "ref_sisa_tipologia": "ESSIDT", "wikidata": "", "wikipedia": "" }, "geometry": { "type": "Point", "coordinates": [ -58.827413, -34.486356 ] } },
{ "type": "Feature", "properties": { "amenity": "clinic", "healthcare": "clinic", "operator": "Municipal", "operator_type": "public", "name": "Unidad Sanitaria Monterrey", "addr_full": "Chacabuco Y Paraguay", "addr_postcode": "1635", "phone": "(02322) 48-6006", "ref_sisa_codigo": 50066382202456, "ref_sisa_tipologia": "ESSIDT", "wikidata": "", "wikipedia": "" }, "geometry": { "type": "Point", "coordinates": [ -58.834323, -34.481845 ] } },
{ "type": "Feature", "properties": { "amenity": "clinic", "healthcare": "clinic", "operator": "Municipal", "operator_type": "public", "name": "Unidad Sanitaria Presidente Derqui", "addr_full": "Sarmiento 1178", "addr_postcode": "1635", "phone": "(02322) 485512", "ref_sisa_codigo": 50066382202732, "ref_sisa_tipologia": "ESSIDT", "wikidata": "", "wikipedia": "" }, "geometry": { "type": "Point", "coordinates": [ -58.842369, -34.492333 ] } },
{ "type": "Feature", "properties": { "amenity": "clinic", "healthcare": "clinic", "operator": "Municipal", "operator_type": "public", "name": "Unidad Sanitaria Rio Lujan", "addr_full": "Bacacay Entre Santa María Y Membrillar", "addr_postcode": "1629", "phone": "(02322) 49-0685", "ref_sisa_codigo": 50066382202755, "ref_sisa_tipologia": "ESSIDT", "wikidata": "", "wikipedia": "" }, "geometry": { "type": "Point", "coordinates": [ -58.973624, -34.444766 ] } },
{ "type": "Feature", "properties": { "amenity": "clinic", "healthcare": "clinic", "operator": "Municipal", "operator_type": "public", "name": "Unidad Sanitaria San Alejo", "addr_full": "San Salvador Y Dr. Ignacio Pirovano", "addr_postcode": "1629", "phone": "(02322) 43-2617", "ref_sisa_codigo": 50066382202771, "ref_sisa_tipologia": "ESSIDT", "wikidata": "", "wikipedia": "" }, "geometry": { "type": "Point", "coordinates": [ -58.907729, -34.441101 ] } },
{ "type": "Feature", "properties": { "amenity": "clinic", "healthcare": "clinic", "operator": "Municipal", "operator_type": "public", "name": "Unidad Sanitaria San Cayetano De Pilar", "addr_full": "Noruega Y Honduras", "addr_postcode": "1619", "phone": "(03488) 48-1104", "ref_sisa_codigo": 50066382202781, "ref_sisa_tipologia": "ESSIDT", "wikidata": "", "wikipedia": "" }, "geometry": { "type": "Point", "coordinates": [ -58.782226, -34.405844 ] } },
{ "type": "Feature", "properties": { "amenity": "clinic", "healthcare": "clinic", "operator": "Municipal", "operator_type": "public", "name": "Unidad Sanitaria Santa Ana", "addr_full": "Ramón Pacheco Y Bahía Darbel", "addr_postcode": "1635", "phone": "(02322) 48-8905", "ref_sisa_codigo": 50066382202808, "ref_sisa_tipologia": "ESSIDT", "wikidata": "", "wikipedia": "" }, "geometry": { "type": "Point", "coordinates": [ -58.825082, -34.506872 ] } },
{ "type": "Feature", "properties": { "amenity": "clinic", "healthcare": "clinic", "operator": "Municipal", "operator_type": "public", "name": "Unidad Sanitaria Santa Lucia Astolfi", "addr_full": "Soler Y Vertiz S\/Nº", "addr_postcode": "1633", "phone": "", "ref_sisa_codigo": 50066382202818, "ref_sisa_tipologia": "ESSIDT", "wikidata": "", "wikipedia": "" }, "geometry": { "type": "Point", "coordinates": [ -58.875803, -34.482631 ] } },
{ "type": "Feature", "properties": { "amenity": "clinic", "healthcare": "clinic", "operator": "Municipal", "operator_type": "public", "name": "Unidad Sanitaria Santa Teresa De Pilar", "addr_full": "Belice 3059 Y Checoslovaquia", "addr_postcode": "1619", "phone": "(03488) 46-5974", "ref_sisa_codigo": 50066382202829, "ref_sisa_tipologia": "ESSIDT", "wikidata": "", "wikipedia": "" }, "geometry": { "type": "Point", "coordinates": [ -58.772074, -34.420376 ] } },
{ "type": "Feature", "properties": { "amenity": "clinic", "healthcare": "clinic", "operator": "Municipal", "operator_type": "public", "name": "Unidad Sanitaria Villa Rosa", "addr_full": "Serrano Y Perón", "addr_postcode": "1631", "phone": "(02322) 49-5107", "ref_sisa_codigo": 50066382202904, "ref_sisa_tipologia": "ESSIDT", "wikidata": "", "wikipedia": "" }, "geometry": { "type": "Point", "coordinates": [ -58.865951, -34.422429 ] } },
{ "type": "Feature", "properties": { "amenity": "clinic", "healthcare": "clinic", "operator": "Municipal", "operator_type": "public", "name": "Unidad Sanitaria Villa Verde", "addr_full": "Fragata Sarmiento 1349", "addr_postcode": "1629", "phone": "", "ref_sisa_codigo": 50066382202910, "ref_sisa_tipologia": "ESSIDT", "wikidata": "", "wikipedia": "" }, "geometry": { "type": "Point", "coordinates": [ -58.914368, -34.471696 ] } }
]
}
