{
"type": "FeatureCollection",
"name": "045-berazategui",
"features": [
{ "type": "Feature", "properties": { "amenity": "clinic", "healthcare": "clinic", "operator": "Provincial", "operator_type": "public", "name": "Centro De Dia", "addr_full": "Calle 128 Entre 49 Y 50", "addr_postcode": "1884", "phone": "02229-452060", "ref_sisa_codigo": 14060912100630, "ref_sisa_tipologia": "ESCIE", "wikidata": "", "wikipedia": "" }, "geometry": { "type": "Point", "coordinates": [ -58.2191277, -34.7898055 ] } },
{ "type": "Feature", "properties": { "amenity": "clinic", "healthcare": "clinic", "operator": "Municipal", "operator_type": "public", "name": "Centro De Salud 22 Santa Rita De Berazategui", "addr_full": "Calle 359 S\/N Entre 303 Y 304", "addr_postcode": "1886", "phone": "", "ref_sisa_codigo": 50060912201295, "ref_sisa_tipologia": "ESSIDT", "wikidata": "", "wikipedia": "" }, "geometry": { "type": "Point", "coordinates": [ -58.2096863, -34.790572 ] } },
{ "type": "Feature", "properties": { "amenity": "clinic", "healthcare": "clinic", "operator": "Municipal", "operator_type": "public", "name": "Centro Odontologico Municipal", "addr_full": "Calle 14 3118", "addr_postcode": "1884", "phone": "", "ref_sisa_codigo": 50060912216422, "ref_sisa_tipologia": "ESSIDT", "wikidata": "", "wikipedia": "" }, "geometry": { "type": "Point", "coordinates": [ -58.22731, -34.771171 ] } },
{ "type": "Feature", "properties": { "amenity": "hospital", "healthcare": "hospital", "operator": "Privado", "operator_type": "private", "name": "Clinica Privada Ranelagh", "addr_full": "Camino General Manuel Belgrano 4786", "addr_postcode": "1886", "phone": "011-42233227", "ref_sisa_codigo": 10060912300146, "ref_sisa_tipologia": "ESCIG", "wikidata": "", "wikipedia": "" }, "geometry": { "type": "Point", "coordinates": [ -58.2173096, -34.8053018 ] } },
{ "type": "Feature", "properties": { "amenity": "clinic", "healthcare": "clinic", "operator": "Municipal", "operator_type": "public", "name": "Direccion De Medicina Preventiva", "addr_full": "Calle 115 18", "addr_postcode": "1884", "phone": "011-4261-4673", "ref_sisa_codigo": 50060912215011, "ref_sisa_tipologia": "ESSIDT", "wikidata": "", "wikipedia": "" }, "geometry": { "type": "Point", "coordinates": [ -58.2529235, -34.7664793 ] } },
{ "type": "Feature", "properties": { "amenity": "hospital", "healthcare": "hospital", "operator": "Provincial", "operator_type": "public", "name": "Hospital Zonal General Agudos Descentralizado Evita Pueblo", "addr_full": "Calle 136 2905", "addr_postcode": "1884", "phone": "(011) 4223-2992", "ref_sisa_codigo": 10060912100383, "ref_sisa_tipologia": "ESCIG", "wikidata": "", "wikipedia": "" }, "geometry": { "type": "Point", "coordinates": [ -58.2109713, -34.7824622 ] } },
{ "type": "Feature", "properties": { "amenity": "hospital", "healthcare": "hospital", "operator": "Privado", "operator_type": "private", "name": "Nuevo Sanatorio Berazategui", "addr_full": "Rigolleau (14) Nş 4121 Esq. 141", "addr_postcode": "1884", "phone": "011-42164404", "ref_sisa_codigo": 10060912300184, "ref_sisa_tipologia": "ESCIG", "wikidata": "", "wikipedia": "" }, "geometry": { "type": "Point", "coordinates": [ -58.2164562, -34.7656288 ] } },
{ "type": "Feature", "properties": { "amenity": "clinic", "healthcare": "clinic", "operator": "Municipal", "operator_type": "public", "name": "Unidad 3", "addr_full": "Calle 458 Esquina 415", "addr_postcode": "1890", "phone": "(011) 4215-2906", "ref_sisa_codigo": 50060912202021, "ref_sisa_tipologia": "ESSIDT", "wikidata": "", "wikipedia": "" }, "geometry": { "type": "Point", "coordinates": [ -58.1817484, -34.8316012 ] } },
{ "type": "Feature", "properties": { "amenity": "clinic", "healthcare": "clinic", "operator": "Municipal", "operator_type": "public", "name": "Unidad Sanitaria N 25", "addr_full": "Calle 121 122", "addr_postcode": "1884", "phone": "02229 44- 2151", "ref_sisa_codigo": 50060912215017, "ref_sisa_tipologia": "ESSIDT", "wikidata": "", "wikipedia": "" }, "geometry": { "type": "Point", "coordinates": [ -58.247, -34.7645228 ] } },
{ "type": "Feature", "properties": { "amenity": "clinic", "healthcare": "clinic", "operator": "Municipal", "operator_type": "public", "name": "Unidad Sanitaria N 35", "addr_full": "203 E\/ 254 Y 255", "addr_postcode": "1884", "phone": "0229-453097", "ref_sisa_codigo": 50060912215012, "ref_sisa_tipologia": "ESSIDT", "wikidata": "", "wikipedia": "" }, "geometry": { "type": "Point", "coordinates": [ -58.2314658, -34.7997922 ] } },
{ "type": "Feature", "properties": { "amenity": "clinic", "healthcare": "clinic", "operator": "Municipal", "operator_type": "public", "name": "Unidad Sanitaria 10 De Platanos", "addr_full": "Calle 157 Entre 43 Y 44 Platanos", "addr_postcode": "1884", "phone": "", "ref_sisa_codigo": 50060912202476, "ref_sisa_tipologia": "ESSIDT", "wikidata": "", "wikipedia": "" }, "geometry": { "type": "Point", "coordinates": [ -58.1752553, -34.7838657 ] } },
{ "type": "Feature", "properties": { "amenity": "clinic", "healthcare": "clinic", "operator": "Municipal", "operator_type": "public", "name": "Unidad Sanitaria 12 De Berazategui", "addr_full": "Calle 149 Y 54 S\/N Barrio Bustillo", "addr_postcode": "1885", "phone": "", "ref_sisa_codigo": 50060912202489, "ref_sisa_tipologia": "ESSIDT", "wikidata": "", "wikipedia": "" }, "geometry": { "type": "Point", "coordinates": [ -58.1725731, -34.7971879 ] } },
{ "type": "Feature", "properties": { "amenity": "clinic", "healthcare": "clinic", "operator": "Municipal", "operator_type": "public", "name": "Unidad Sanitaria 13", "addr_full": "Calle 114 Esquina 26 S\/N°", "addr_postcode": "1884", "phone": "011-43910342", "ref_sisa_codigo": 50060912202501, "ref_sisa_tipologia": "ESSIDT", "wikidata": "", "wikipedia": "" }, "geometry": { "type": "Point", "coordinates": [ -58.2349076, -34.7916082 ] } },
{ "type": "Feature", "properties": { "amenity": "clinic", "healthcare": "clinic", "operator": "Municipal", "operator_type": "public", "name": "Unidad Sanitaria 15 De Berazategui", "addr_full": "Calle 110 Y 9 S\/N Barrio Guemes", "addr_postcode": "1884", "phone": "011-42613431", "ref_sisa_codigo": 50060912202512, "ref_sisa_tipologia": "ESSIDT", "wikidata": "", "wikipedia": "" }, "geometry": { "type": "Point", "coordinates": [ -58.2515802, -34.7771686 ] } },
{ "type": "Feature", "properties": { "amenity": "clinic", "healthcare": "clinic", "operator": "Municipal", "operator_type": "public", "name": "Unidad Sanitaria 16 De Berazategui", "addr_full": "Calle 5 Y 156 S\/N Uocra", "addr_postcode": "1884", "phone": "", "ref_sisa_codigo": 50060912202517, "ref_sisa_tipologia": "ESSIDT", "wikidata": "", "wikipedia": "" }, "geometry": { "type": "Point", "coordinates": [ -58.2089331, -34.748882 ] } },
{ "type": "Feature", "properties": { "amenity": "clinic", "healthcare": "clinic", "operator": "Municipal", "operator_type": "public", "name": "Unidad Sanitaria 17", "addr_full": "Calle 144 28", "addr_postcode": "1884", "phone": "", "ref_sisa_codigo": 50060912215013, "ref_sisa_tipologia": "ESSIDT", "wikidata": "", "wikipedia": "" }, "geometry": { "type": "Point", "coordinates": [ -58.2237791, -34.7508738 ] } },
{ "type": "Feature", "properties": { "amenity": "clinic", "healthcare": "clinic", "operator": "Municipal", "operator_type": "public", "name": "Unidad Sanitaria 18 De Berazategui", "addr_full": "Calle 20 Entre 161 Y 162 Barrio General Belgrano", "addr_postcode": "1884", "phone": "011-43950552", "ref_sisa_codigo": 50060912202534, "ref_sisa_tipologia": "ESSIDT", "wikidata": "", "wikipedia": "" }, "geometry": { "type": "Point", "coordinates": [ -58.1921961, -34.7597948 ] } },
{ "type": "Feature", "properties": { "amenity": "clinic", "healthcare": "clinic", "operator": "Municipal", "operator_type": "public", "name": "Unidad Sanitaria 2 Ana G. Gorini", "addr_full": "Calle 159 Entre 54 Y 55 S\/N Barrio Villa Matilde", "addr_postcode": "1885", "phone": "011-42152906", "ref_sisa_codigo": 50060912202547, "ref_sisa_tipologia": "ESSIDT", "wikidata": "", "wikipedia": "" }, "geometry": { "type": "Point", "coordinates": [ -58.1615975, -34.7889059 ] } },
{ "type": "Feature", "properties": { "amenity": "clinic", "healthcare": "clinic", "operator": "Municipal", "operator_type": "public", "name": "Unidad Sanitaria 20 De Berazategui", "addr_full": "Calle 116 Esquina 18", "addr_postcode": "1884", "phone": "011-42614673", "ref_sisa_codigo": 50060912202560, "ref_sisa_tipologia": "ESSIDT", "wikidata": "", "wikipedia": "" }, "geometry": { "type": "Point", "coordinates": [ -58.2390168, -34.7829757 ] } },
{ "type": "Feature", "properties": { "amenity": "clinic", "healthcare": "clinic", "operator": "Municipal", "operator_type": "public", "name": "Unidad Sanitaria 21 De Berazategui", "addr_full": "Calle 3 Entre 129 Y 129 A S\/N Los Ciruelos", "addr_postcode": "1884", "phone": "4226-6773", "ref_sisa_codigo": 50060912202563, "ref_sisa_tipologia": "ESSIDT", "wikidata": "", "wikipedia": "" }, "geometry": { "type": "Point", "coordinates": [ -58.2378044, -34.7615691 ] } },
{ "type": "Feature", "properties": { "amenity": "clinic", "healthcare": "clinic", "operator": "Municipal", "operator_type": "public", "name": "Unidad Sanitaria 23 San Pantaleon", "addr_full": "59 Y 165", "addr_postcode": "1884", "phone": "", "ref_sisa_codigo": 50060912215016, "ref_sisa_tipologia": "ESSIDT", "wikidata": "", "wikipedia": "" }, "geometry": { "type": "Point", "coordinates": [ -58.1499481, -34.7882855 ] } },
{ "type": "Feature", "properties": { "amenity": "clinic", "healthcare": "clinic", "operator": "Municipal", "operator_type": "public", "name": "Unidad Sanitaria 24 De Berazategui", "addr_full": "Calle 122 S\/N (Entre 1 Y 2)  - Barrio 1º De Mayo", "addr_postcode": "1884", "phone": "", "ref_sisa_codigo": 50060912202569, "ref_sisa_tipologia": "ESSIDT", "wikidata": "", "wikipedia": "" }, "geometry": { "type": "Point", "coordinates": [ -58.2457352, -34.7642894 ] } },
{ "type": "Feature", "properties": { "amenity": "clinic", "healthcare": "clinic", "operator": "Municipal", "operator_type": "public", "name": "Unidad Sanitaria 26 San Jorge De Berazategui", "addr_full": "Calle 4 Entre 117 Y 117 B", "addr_postcode": "1884", "phone": "011-42613438", "ref_sisa_codigo": 50060912202578, "ref_sisa_tipologia": "ESSIDT", "wikidata": "", "wikipedia": "" }, "geometry": { "type": "Point", "coordinates": [ -58.2486298, -34.7687435 ] } },
{ "type": "Feature", "properties": { "amenity": "clinic", "healthcare": "clinic", "operator": "Municipal", "operator_type": "public", "name": "Unidad Sanitaria 27 De Berazategui", "addr_full": "Calle 50 Entre 12 Y 128 S\/N Kenedy Norte", "addr_postcode": "1884", "phone": "02229-440021", "ref_sisa_codigo": 50060912202579, "ref_sisa_tipologia": "ESSIDT", "wikidata": "", "wikipedia": "" }, "geometry": { "type": "Point", "coordinates": [ -58.1906834, -34.8072927 ] } },
{ "type": "Feature", "properties": { "amenity": "clinic", "healthcare": "clinic", "operator": "Municipal", "operator_type": "public", "name": "Unidad Sanitaria 28 Javier Fartes", "addr_full": "75 E\/ 125 Y 126", "addr_postcode": "1884", "phone": "", "ref_sisa_codigo": 50060912215018, "ref_sisa_tipologia": "ESSIDT", "wikidata": "", "wikipedia": "" }, "geometry": { "type": "Point", "coordinates": [ -58.1704938, -34.8265262 ] } },
{ "type": "Feature", "properties": { "amenity": "clinic", "healthcare": "clinic", "operator": "Municipal", "operator_type": "public", "name": "Unidad Sanitaria 29 De Berazategui", "addr_full": "Av. Nicolas Milazzo 368 Barrio Luz", "addr_postcode": "1884", "phone": "011-42231120", "ref_sisa_codigo": 50060912202583, "ref_sisa_tipologia": "ESSIDT", "wikidata": "", "wikipedia": "" }, "geometry": { "type": "Point", "coordinates": [ -58.2081821, -34.807742 ] } },
{ "type": "Feature", "properties": { "amenity": "clinic", "healthcare": "clinic", "operator": "Municipal", "operator_type": "public", "name": "Unidad Sanitaria 31 San Pedro De Berazategui", "addr_full": "Calle 107 Entre 11 Y 12 S\/N- Barrio San Pedro", "addr_postcode": "1884", "phone": "(011) 4275-7345", "ref_sisa_codigo": 50060912202599, "ref_sisa_tipologia": "ESSIDT", "wikidata": "", "wikipedia": "" }, "geometry": { "type": "Point", "coordinates": [ -58.253399, -34.781183 ] } },
{ "type": "Feature", "properties": { "amenity": "clinic", "healthcare": "clinic", "operator": "Municipal", "operator_type": "public", "name": "Unidad Sanitaria 32", "addr_full": "161 Y 45", "addr_postcode": "1884", "phone": "", "ref_sisa_codigo": 50060912215019, "ref_sisa_tipologia": "ESSIDT", "wikidata": "", "wikipedia": "" }, "geometry": { "type": "Point", "coordinates": [ -58.1697321, -34.7809014 ] } },
{ "type": "Feature", "properties": { "amenity": "clinic", "healthcare": "clinic", "operator": "Municipal", "operator_type": "public", "name": "Unidad Sanitaria 33 De Berazategui", "addr_full": "Calle 161 Y 45 S\/N Barrio 3 De Junio", "addr_postcode": "1885", "phone": "4301-2326", "ref_sisa_codigo": 50060912202601, "ref_sisa_tipologia": "ESSIDT", "wikidata": "", "wikipedia": "" }, "geometry": { "type": "Point", "coordinates": [ -58.1697085, -34.78109 ] } },
{ "type": "Feature", "properties": { "amenity": "clinic", "healthcare": "clinic", "operator": "Municipal", "operator_type": "public", "name": "Unidad Sanitaria 4 De Berazategui", "addr_full": "Avenida Dardo Rocha Entre 15 Y 15 A S\/N Barrio N. Videla", "addr_postcode": "1884", "phone": "", "ref_sisa_codigo": 50060912202615, "ref_sisa_tipologia": "ESSIDT", "wikidata": "", "wikipedia": "" }, "geometry": { "type": "Point", "coordinates": [ -58.2357337, -34.7777854 ] } },
{ "type": "Feature", "properties": { "amenity": "clinic", "healthcare": "clinic", "operator": "Municipal", "operator_type": "public", "name": "Unidad Sanitaria 6 De Berazategui", "addr_full": "Calle 160 Entre 30 Y 31 Villa Mitre", "addr_postcode": "1884", "phone": "", "ref_sisa_codigo": 50060912202641, "ref_sisa_tipologia": "ESSIDT", "wikidata": "", "wikipedia": "" }, "geometry": { "type": "Point", "coordinates": [ -58.1842353, -34.7687875 ] } },
{ "type": "Feature", "properties": { "amenity": "clinic", "healthcare": "clinic", "operator": "Municipal", "operator_type": "public", "name": "Unidad Sanitaria 9 De Berazategui", "addr_full": "Calle 21 Y 125 S\/N", "addr_postcode": "1884", "phone": "", "ref_sisa_codigo": 50060912202675, "ref_sisa_tipologia": "ESSIDT", "wikidata": "", "wikipedia": "" }, "geometry": { "type": "Point", "coordinates": [ -58.2289853, -34.7815218 ] } },
{ "type": "Feature", "properties": { "amenity": "clinic", "healthcare": "clinic", "operator": "Municipal", "operator_type": "public", "name": "Unidad Sanitaria 1 Doctor J. Sabato", "addr_full": "Calle 14 3144 Entre 131 Y 132 Barrio La Lucila", "addr_postcode": "1884", "phone": "011-42561216", "ref_sisa_codigo": 50060912202465, "ref_sisa_tipologia": "ESSIDT", "wikidata": "", "wikipedia": "" }, "geometry": { "type": "Point", "coordinates": [ -58.226405, -34.770837 ] } },
{ "type": "Feature", "properties": { "amenity": "hospital", "healthcare": "hospital", "operator": "Municipal", "operator_type": "public", "name": "Unidad Sanitaria Nş 1 Javier Angel Sabatto", "addr_full": "Calle 14  3144", "addr_postcode": "1884", "phone": "01143369200 int2037", "ref_sisa_codigo": 10060912317143, "ref_sisa_tipologia": "ESCIG", "wikidata": "", "wikipedia": "" }, "geometry": { "type": "Point", "coordinates": [ -58.2269648, -34.7711368 ] } },
{ "type": "Feature", "properties": { "amenity": "clinic", "healthcare": "clinic", "operator": "Municipal", "operator_type": "public", "name": "Unidad Sanitaria 11", "addr_full": "Calle 517 Y 611 Ruta 36 Km 38.5", "addr_postcode": "1893", "phone": "011-491004", "ref_sisa_codigo": 50060912202479, "ref_sisa_tipologia": "ESSIDT", "wikidata": "", "wikipedia": "" }, "geometry": { "type": "Point", "coordinates": [ -58.173013, -34.8778593 ] } },
{ "type": "Feature", "properties": { "amenity": "clinic", "healthcare": "clinic", "operator": "Municipal", "operator_type": "public", "name": "Unidad Sanitaria 14 Villa España", "addr_full": "Calle 151 A Esquina Calle 35 - Barrio Chingo", "addr_postcode": "1884", "phone": "(011) 4223-1123", "ref_sisa_codigo": 50060912202503, "ref_sisa_tipologia": "ESSIDT", "wikidata": "", "wikipedia": "" }, "geometry": { "type": "Point", "coordinates": [ -58.188404, -34.778627 ] } },
{ "type": "Feature", "properties": { "amenity": "clinic", "healthcare": "clinic", "operator": "Municipal", "operator_type": "public", "name": "Unidad Sanitaria 19 - Carlos T. Sourigues", "addr_full": "262 A Esq. 216", "addr_postcode": "1884", "phone": "", "ref_sisa_codigo": 50060912215015, "ref_sisa_tipologia": "ESSIDT", "wikidata": "", "wikipedia": "" }, "geometry": { "type": "Point", "coordinates": [ -58.2123041, -34.8019903 ] } },
{ "type": "Feature", "properties": { "amenity": "clinic", "healthcare": "clinic", "operator": "Municipal", "operator_type": "public", "name": "Unidad Sanitaria 25", "addr_full": "58 E\/ 121 Y 122  S\/N", "addr_postcode": "1885", "phone": "011-49442151", "ref_sisa_codigo": 50060912216396, "ref_sisa_tipologia": "ESSIDT", "wikidata": "", "wikipedia": "" }, "geometry": { "type": "Point", "coordinates": [ -58.1880999, -34.8165779 ] } },
{ "type": "Feature", "properties": { "amenity": "clinic", "healthcare": "clinic", "operator": "Municipal", "operator_type": "public", "name": "Unidad Sanitaria 3", "addr_full": "458 Y 415", "addr_postcode": "1884", "phone": "", "ref_sisa_codigo": 50060912217135, "ref_sisa_tipologia": "ESSIDT", "wikidata": "", "wikipedia": "" }, "geometry": { "type": "Point", "coordinates": [ -58.1817698, -34.8315792 ] } },
{ "type": "Feature", "properties": { "amenity": "clinic", "healthcare": "clinic", "operator": "Municipal", "operator_type": "public", "name": "Unidad Sanitaria 5", "addr_full": "Calle 159 B Entre 23 Y 24", "addr_postcode": "1884", "phone": "011-43952056", "ref_sisa_codigo": 50060912202627, "ref_sisa_tipologia": "ESSIDT", "wikidata": "", "wikipedia": "" }, "geometry": { "type": "Point", "coordinates": [ -58.1901577, -34.7642397 ] } }
]
}
