{
"type": "FeatureCollection",
"name": "046-general_san_martin",
"features": [
{ "type": "Feature", "properties": { "amenity": "clinic", "healthcare": "clinic", "operator": "Municipal", "operator_type": "public", "name": "CAPS 19 Villa Libertad", "addr_full": "La Crujia 5815", "addr_postcode": "1778", "phone": "", "ref_sisa_codigo": 50063712215026, "ref_sisa_tipologia": "ESSIDT", "wikidata": "", "wikipedia": "" }, "geometry": { "type": "Point", "coordinates": [ -58.5635756, -34.5837436 ] } },
{ "type": "Feature", "properties": { "amenity": "clinic", "healthcare": "clinic", "operator": "Municipal", "operator_type": "public", "name": "CAPS 11 Santa Ana", "addr_full": "3 De Febrero 2590", "addr_postcode": "1651", "phone": "", "ref_sisa_codigo": 50063712217786, "ref_sisa_tipologia": "ESSIDT", "wikidata": "", "wikipedia": "" }, "geometry": { "type": "Point", "coordinates": [ -58.5340798, -34.564622 ] } },
{ "type": "Feature", "properties": { "amenity": "clinic", "healthcare": "clinic", "operator": "Municipal", "operator_type": "public", "name": "Centro De Salud Doctor Alexander Fleming", "addr_full": "Avenida Marquez Y 9 De Julio 4200", "addr_postcode": "1655", "phone": "011-4580-1045\/50", "ref_sisa_codigo": 50063712201220, "ref_sisa_tipologia": "ESSIDT", "wikidata": "", "wikipedia": "" }, "geometry": { "type": "Point", "coordinates": [ -58.5724926, -34.529682 ] } },
{ "type": "Feature", "properties": { "amenity": "clinic", "healthcare": "clinic", "operator": "Municipal", "operator_type": "public", "name": "Centro De Salud Doctor Luis Agote", "addr_full": "Av. San Martin  1655", "addr_postcode": "1655", "phone": "(011) 4580-1056\/57", "ref_sisa_codigo": 50063712201231, "ref_sisa_tipologia": "ESSIDT", "wikidata": "", "wikipedia": "" }, "geometry": { "type": "Point", "coordinates": [ -58.5752056, -34.5301621 ] } },
{ "type": "Feature", "properties": { "amenity": "clinic", "healthcare": "clinic", "operator": "Municipal", "operator_type": "public", "name": "Centro De Salud Ntra. Sra. Del Rosario", "addr_full": "Paso De La Patria S\/Nº", "addr_postcode": "1655", "phone": "", "ref_sisa_codigo": 50063712201338, "ref_sisa_tipologia": "ESSIDT", "wikidata": "", "wikipedia": "" }, "geometry": { "type": "Point", "coordinates": [ -58.57527, -34.527947 ] } },
{ "type": "Feature", "properties": { "amenity": "clinic", "healthcare": "clinic", "operator": "Municipal", "operator_type": "public", "name": "Centro De Salud 6 Barrio Libertador De Loma Hermosa", "addr_full": "Pensamiento 5321 Entre Hortensias Y Eva Perón", "addr_postcode": "1657", "phone": "(011) 4512-5122\/ 25", "ref_sisa_codigo": 50063712201328, "ref_sisa_tipologia": "ESSIDT", "wikidata": "", "wikipedia": "" }, "geometry": { "type": "Point", "coordinates": [ -58.5926285, -34.553781 ] } },
{ "type": "Feature", "properties": { "amenity": "clinic", "healthcare": "clinic", "operator": "Municipal", "operator_type": "public", "name": "Centro De Salud Ramon Carrillo De General San Martin", "addr_full": "Ocampos Esquina Maipu 5023", "addr_postcode": "1650", "phone": "011-48300690", "ref_sisa_codigo": 50063712201344, "ref_sisa_tipologia": "ESSIDT", "wikidata": "", "wikipedia": "" }, "geometry": { "type": "Point", "coordinates": [ -58.58161, -34.5603018 ] } },
{ "type": "Feature", "properties": { "amenity": "clinic", "healthcare": "clinic", "operator": "Municipal", "operator_type": "public", "name": "Centro De Salud Rene G. Favaloro", "addr_full": "102 (Industria) Esquina 115 (Mtro. Dasso) 5036", "addr_postcode": "1653", "phone": "011-4764-3260", "ref_sisa_codigo": 50063712201347, "ref_sisa_tipologia": "ESSIDT", "wikidata": "", "wikipedia": "" }, "geometry": { "type": "Point", "coordinates": [ -58.5668578, -34.5691104 ] } },
{ "type": "Feature", "properties": { "amenity": "clinic", "healthcare": "clinic", "operator": "Municipal", "operator_type": "public", "name": "Centro De Salud Villa Concepcion", "addr_full": "Calle 88 Independencia 866", "addr_postcode": "1650", "phone": "(011) 4830-0711", "ref_sisa_codigo": 50063712201367, "ref_sisa_tipologia": "ESSIDT", "wikidata": "", "wikipedia": "" }, "geometry": { "type": "Point", "coordinates": [ -58.5300543, -34.5460564 ] } },
{ "type": "Feature", "properties": { "amenity": "hospital", "healthcare": "hospital", "operator": "Privado", "operator_type": "private", "name": "Clinica Pedro Angel Salas", "addr_full": "J. M. Campos 2759", "addr_postcode": "1651", "phone": "", "ref_sisa_codigo": 10063712317179, "ref_sisa_tipologia": "ESCIG", "wikidata": "", "wikipedia": "" }, "geometry": { "type": "Point", "coordinates": [ -58.540084, -34.561336 ] } },
{ "type": "Feature", "properties": { "amenity": "hospital", "healthcare": "hospital", "operator": "Privado", "operator_type": "private", "name": "Clinica Privada Corporacion Medica General San Martin", "addr_full": "Matheu 4075 \/ Consultorios Felix Ballester 2221", "addr_postcode": "1650", "phone": "(011) 4754-7500", "ref_sisa_codigo": 10063712300005, "ref_sisa_tipologia": "ESCIG", "wikidata": "", "wikipedia": "" }, "geometry": { "type": "Point", "coordinates": [ -58.541733, -34.5779321 ] } },
{ "type": "Feature", "properties": { "amenity": "hospital", "healthcare": "hospital", "operator": "Privado", "operator_type": "private", "name": "Clinica Privada Independencia - (munro)", "addr_full": "Luis María Drago 5681\/99", "addr_postcode": "1605", "phone": "(011) 4721-2351", "ref_sisa_codigo": 10068612300047, "ref_sisa_tipologia": "ESCIG", "wikidata": "", "wikipedia": "" }, "geometry": { "type": "Point", "coordinates": [ -58.5333413, -34.5395795 ] } },
{ "type": "Feature", "properties": { "amenity": "hospital", "healthcare": "hospital", "operator": "Privado", "operator_type": "private", "name": "Clinica Privada Santa Maria", "addr_full": "E. Marengo 3908", "addr_postcode": "1653", "phone": "", "ref_sisa_codigo": 10063712305068, "ref_sisa_tipologia": "ESCIG", "wikidata": "", "wikipedia": "" }, "geometry": { "type": "Point", "coordinates": [ -58.5479339, -34.5561748 ] } },
{ "type": "Feature", "properties": { "amenity": "clinic", "healthcare": "clinic", "operator": "Municipal", "operator_type": "public", "name": "Direccion De Medicina Preventiva", "addr_full": "Belgrano 3747", "addr_postcode": "1778", "phone": "011-48300339", "ref_sisa_codigo": 50063712216398, "ref_sisa_tipologia": "ESSIDT", "wikidata": "", "wikipedia": "" }, "geometry": { "type": "Point", "coordinates": [ -58.5370804, -34.5776499 ] } },
{ "type": "Feature", "properties": { "amenity": "hospital", "healthcare": "hospital", "operator": "Municipal", "operator_type": "public", "name": "Hospital Municipal Doctor Diego E. Thompson", "addr_full": "Avellaneda 33 E\/ Matheu y Mitre", "addr_postcode": "1650", "phone": "(011) 4754-4635", "ref_sisa_codigo": 10063712200299, "ref_sisa_tipologia": "ESCIG", "wikidata": "", "wikipedia": "" }, "geometry": { "type": "Point", "coordinates": [ -58.5438251, -34.5812933 ] } },
{ "type": "Feature", "properties": { "amenity": "hospital", "healthcare": "hospital", "operator": "Provincial", "operator_type": "public", "name": "Hospital Zonal General Agudos Manuel Belgrano", "addr_full": "Avenida De Los Constituyentes 3120", "addr_postcode": "1651", "phone": "(011) 4747-7224", "ref_sisa_codigo": 10063712100390, "ref_sisa_tipologia": "ESCIG", "wikidata": "", "wikipedia": "" }, "geometry": { "type": "Point", "coordinates": [ -58.525644, -34.5498194 ] } },
{ "type": "Feature", "properties": { "amenity": "hospital", "healthcare": "hospital", "operator": "Privado", "operator_type": "private", "name": "Sanatorio Anchorena San Martin", "addr_full": "Liniers 1632", "addr_postcode": "7600", "phone": "", "ref_sisa_codigo": 10063712318092, "ref_sisa_tipologia": "ESCIG", "wikidata": "", "wikipedia": "" }, "geometry": { "type": "Point", "coordinates": [ -58.5360161, -34.5830512 ] } },
{ "type": "Feature", "properties": { "amenity": "hospital", "healthcare": "hospital", "operator": "Privado", "operator_type": "private", "name": "Sanatorio Modelo La Torre San Martin", "addr_full": "Avenida Eva Perón 3619", "addr_postcode": "7600", "phone": "", "ref_sisa_codigo": 10063712318397, "ref_sisa_tipologia": "ESCIG", "wikidata": "", "wikipedia": "" }, "geometry": { "type": "Point", "coordinates": [ -58.5655845, -34.5758668 ] } },
{ "type": "Feature", "properties": { "amenity": "hospital", "healthcare": "hospital", "operator": "Otros", "operator_type": "private", "name": "Sanatorio San Martin - Aniva S.a.", "addr_full": "18 De Diciembre De 1856 Nş 1848", "addr_postcode": "1650", "phone": "4014-4304  \/  115932-3917", "ref_sisa_codigo": 10063713017272, "ref_sisa_tipologia": "ESCIG", "wikidata": "", "wikipedia": "" }, "geometry": { "type": "Point", "coordinates": [ -58.5375143, -34.580575 ] } },
{ "type": "Feature", "properties": { "amenity": "clinic", "healthcare": "clinic", "operator": "Municipal", "operator_type": "public", "name": "Unidad Sanitaria Marengo", "addr_full": "Calle 51 (Republica) 10 Esquina Calle 110 (Pueyrredon)", "addr_postcode": "1653", "phone": "(011) 4847-5033", "ref_sisa_codigo": 50063712202441, "ref_sisa_tipologia": "ESSIDT", "wikidata": "", "wikipedia": "" }, "geometry": { "type": "Point", "coordinates": [ -58.549558, -34.547635 ] } },
{ "type": "Feature", "properties": { "amenity": "clinic", "healthcare": "clinic", "operator": "Municipal", "operator_type": "public", "name": "Unidad Sanitaria 10 Villa Esperanza De Jose Leon Suarez", "addr_full": "Garibaldi 1897", "addr_postcode": "1655", "phone": "(011) 4580-1042", "ref_sisa_codigo": 50063712202472, "ref_sisa_tipologia": "ESSIDT", "wikidata": "", "wikipedia": "" }, "geometry": { "type": "Point", "coordinates": [ -58.5667934, -34.5281697 ] } },
{ "type": "Feature", "properties": { "amenity": "clinic", "healthcare": "clinic", "operator": "Municipal", "operator_type": "public", "name": "Unidad Sanitaria 12 De Villa Piaggio", "addr_full": "Calle 81 Parravicini 965 (Entre 24 Y 26)", "addr_postcode": "1650", "phone": "(011) 4830-0710", "ref_sisa_codigo": 50063712202493, "ref_sisa_tipologia": "ESSIDT", "wikidata": "", "wikipedia": "" }, "geometry": { "type": "Point", "coordinates": [ -58.524166, -34.5843183 ] } },
{ "type": "Feature", "properties": { "amenity": "clinic", "healthcare": "clinic", "operator": "Municipal", "operator_type": "public", "name": "Unidad Sanitaria 13 De Villa Lynch", "addr_full": "Calle 8 (Azcuenaga) 226 Entre 95 Y 97", "addr_postcode": "1672", "phone": "(011) 4830-0709", "ref_sisa_codigo": 50063712202500, "ref_sisa_tipologia": "ESSIDT", "wikidata": "", "wikipedia": "" }, "geometry": { "type": "Point", "coordinates": [ -58.524667, -34.592762 ] } },
{ "type": "Feature", "properties": { "amenity": "clinic", "healthcare": "clinic", "operator": "Municipal", "operator_type": "public", "name": "Unidad Sanitaria 14 Barrio Uta De Loma Hermosa", "addr_full": "Calle 139 (Martolome Mitre) 1253", "addr_postcode": "1657", "phone": "(011) 4830-0711", "ref_sisa_codigo": 50063712202504, "ref_sisa_tipologia": "ESSIDT", "wikidata": "", "wikipedia": "" }, "geometry": { "type": "Point", "coordinates": [ -58.606464, -34.554987 ] } },
{ "type": "Feature", "properties": { "amenity": "clinic", "healthcare": "clinic", "operator": "Municipal", "operator_type": "public", "name": "Unidad Sanitaria 16 Salvador Mazza De Villa Zagala", "addr_full": "Pasaje A Entre 66 Y 68 (Almirante Brown 2850)", "addr_postcode": "1651", "phone": "(011) 4754-5640", "ref_sisa_codigo": 50063712202522, "ref_sisa_tipologia": "ESSIDT", "wikidata": "", "wikipedia": "" }, "geometry": { "type": "Point", "coordinates": [ -58.526405, -34.55501 ] } },
{ "type": "Feature", "properties": { "amenity": "clinic", "healthcare": "clinic", "operator": "Municipal", "operator_type": "public", "name": "Unidad Sanitaria 17 Barrio Necochea De Jose Leon Suarez", "addr_full": "Obligado 1610", "addr_postcode": "1655", "phone": "(011) 4508-4090", "ref_sisa_codigo": 50063712202527, "ref_sisa_tipologia": "ESSIDT", "wikidata": "", "wikipedia": "" }, "geometry": { "type": "Point", "coordinates": [ -58.5837779, -34.5109391 ] } },
{ "type": "Feature", "properties": { "amenity": "clinic", "healthcare": "clinic", "operator": "Municipal", "operator_type": "public", "name": "Unidad Sanitaria 7 Jose Pereyra De Jose Leon Suarez", "addr_full": "Malvinas Argentinas 3699", "addr_postcode": "1655", "phone": "(011) 4580-1043", "ref_sisa_codigo": 50063712202660, "ref_sisa_tipologia": "ESSIDT", "wikidata": "", "wikipedia": "" }, "geometry": { "type": "Point", "coordinates": [ -58.579743, -34.5354635 ] } },
{ "type": "Feature", "properties": { "amenity": "clinic", "healthcare": "clinic", "operator": "Municipal", "operator_type": "public", "name": "Unidad Sanitaria 8 Heroes De Malvinas De San Andres", "addr_full": "J. M. Campos Y Catamarca 2152", "addr_postcode": "1651", "phone": "011-4830-0708", "ref_sisa_codigo": 50063712202667, "ref_sisa_tipologia": "ESSIDT", "wikidata": "", "wikipedia": "" }, "geometry": { "type": "Point", "coordinates": [ -58.5352721, -34.5575893 ] } },
{ "type": "Feature", "properties": { "amenity": "clinic", "healthcare": "clinic", "operator": "Municipal", "operator_type": "public", "name": "Unidad Sanitaria 9 De Villa Billinghurst", "addr_full": "Primera Junta 5745", "addr_postcode": "1650", "phone": "(011) 4512-7040\/ 35", "ref_sisa_codigo": 50063712202680, "ref_sisa_tipologia": "ESSIDT", "wikidata": "", "wikipedia": "" }, "geometry": { "type": "Point", "coordinates": [ -58.5691387, -34.5805771 ] } },
{ "type": "Feature", "properties": { "amenity": "clinic", "healthcare": "clinic", "operator": "Municipal", "operator_type": "public", "name": "Unidad Sanitaria Villa Lanzone", "addr_full": "Iberá 7456 - Barrio 9 De Julio", "addr_postcode": "1655", "phone": "(011) 4513-5121", "ref_sisa_codigo": 50063712202892, "ref_sisa_tipologia": "ESSIDT", "wikidata": "", "wikipedia": "" }, "geometry": { "type": "Point", "coordinates": [ -58.58919, -34.544931 ] } }
]
}
