{
"type": "FeatureCollection",
"name": "047-comuna_8",
"features": [
{ "type": "Feature", "properties": { "amenity": "clinic", "healthcare": "clinic", "operator": "Municipal", "operator_type": "public", "name": "CESAC 43", "addr_full": "Fonrouge 4377", "addr_postcode": "1439", "phone": "4123-3240", "ref_sisa_codigo": 50020082218915, "ref_sisa_tipologia": "ESSIDT", "wikidata": "", "wikipedia": "" }, "geometry": { "type": "Point", "coordinates": [ -58.46725, -34.6771358 ] } },
{ "type": "Feature", "properties": { "amenity": "clinic", "healthcare": "clinic", "operator": "Municipal", "operator_type": "public", "name": "CESAC 18", "addr_full": "Miralla Y Batle Ordoñez", "addr_postcode": "1439", "phone": "(011) 4638-7226", "ref_sisa_codigo": 50020012115351, "ref_sisa_tipologia": "ESSIDT", "wikidata": "Q90206221", "wikipedia": "" }, "geometry": { "type": "Point", "coordinates": [ -58.4675646, -34.6741586 ] } },
{ "type": "Feature", "properties": { "amenity": "clinic", "healthcare": "clinic", "operator": "Municipal", "operator_type": "public", "name": "CESAC 24", "addr_full": "Calle L S\/N Entre M. Castroy Laguna (Villa Fatima Y Barrio Carrillo)", "addr_postcode": "1437", "phone": "(011) 4637-2002", "ref_sisa_codigo": 50020012115358, "ref_sisa_tipologia": "ESSIDT", "wikidata": "", "wikipedia": "" }, "geometry": { "type": "Point", "coordinates": [ -58.4709978, -34.6648759 ] } },
{ "type": "Feature", "properties": { "amenity": "clinic", "healthcare": "clinic", "operator": "Municipal", "operator_type": "public", "name": "CESAC 28", "addr_full": "Santander 5955", "addr_postcode": "1439", "phone": "2821-3628", "ref_sisa_codigo": 50020012115361, "ref_sisa_tipologia": "ESSIDT", "wikidata": "", "wikipedia": "" }, "geometry": { "type": "Point", "coordinates": [ -58.4649476, -34.6834771 ] } },
{ "type": "Feature", "properties": { "amenity": "clinic", "healthcare": "clinic", "operator": "Municipal", "operator_type": "public", "name": "CESAC 29", "addr_full": "Avenida Dellepiane 6999", "addr_postcode": "1439", "phone": "(011) 4601-7973", "ref_sisa_codigo": 50020012115362, "ref_sisa_tipologia": "ESSIDT", "wikidata": "", "wikipedia": "" }, "geometry": { "type": "Point", "coordinates": [ -58.4789801, -34.6804053 ] } },
{ "type": "Feature", "properties": { "amenity": "clinic", "healthcare": "clinic", "operator": "Municipal", "operator_type": "public", "name": "CESAC 3", "addr_full": "Soldado De La Frontera 5144", "addr_postcode": "1439", "phone": "(011) 4605-7823", "ref_sisa_codigo": 50020012115363, "ref_sisa_tipologia": "ESSIDT", "wikidata": "Q90206234", "wikipedia": "" }, "geometry": { "type": "Point", "coordinates": [ -58.4639521, -34.684602 ] } },
{ "type": "Feature", "properties": { "amenity": "clinic", "healthcare": "clinic", "operator": "Municipal", "operator_type": "public", "name": "CESAC 31", "addr_full": "Avenida Riestra Y Ana M. Janer", "addr_postcode": "1437", "phone": "(011) 4919-3994", "ref_sisa_codigo": 50020012115365, "ref_sisa_tipologia": "ESSIDT", "wikidata": "", "wikipedia": "" }, "geometry": { "type": "Point", "coordinates": [ -58.455677, -34.6595105 ] } },
{ "type": "Feature", "properties": { "amenity": "clinic", "healthcare": "clinic", "operator": "Municipal", "operator_type": "public", "name": "CESAC 37", "addr_full": "Avenida Corrales 6999 (Y Lisandro De La Torre)", "addr_postcode": "1440", "phone": "(011) 2821-3637", "ref_sisa_codigo": 50020012115370, "ref_sisa_tipologia": "ESSIDT", "wikidata": "", "wikipedia": "" }, "geometry": { "type": "Point", "coordinates": [ -58.468852, -34.6878161 ] } },
{ "type": "Feature", "properties": { "amenity": "clinic", "healthcare": "clinic", "operator": "Municipal", "operator_type": "public", "name": "CESAC 5", "addr_full": "Piedrabuena 3140", "addr_postcode": "1439", "phone": "(011) 4687-0494 \/ 1672", "ref_sisa_codigo": 50020012115376, "ref_sisa_tipologia": "ESSIDT", "wikidata": "", "wikipedia": "" }, "geometry": { "type": "Point", "coordinates": [ -58.4945466, -34.6712584 ] } },
{ "type": "Feature", "properties": { "amenity": "clinic", "healthcare": "clinic", "operator": "Municipal", "operator_type": "public", "name": "CESAC 6", "addr_full": "Mariano Acosta Y Presidente Roca", "addr_postcode": "1437", "phone": "(011) 4918-4879", "ref_sisa_codigo": 50020012115377, "ref_sisa_tipologia": "ESSIDT", "wikidata": "Q90206186", "wikipedia": "" }, "geometry": { "type": "Point", "coordinates": [ -58.4413862, -34.6665348 ] } },
{ "type": "Feature", "properties": { "amenity": "clinic", "healthcare": "clinic", "operator": "Municipal", "operator_type": "public", "name": "CESAC 7", "addr_full": "2 De Abril 1982 6850", "addr_postcode": "1439", "phone": "(011) 2829-3607", "ref_sisa_codigo": 50020012115378, "ref_sisa_tipologia": "ESSIDT", "wikidata": "Q90206974", "wikipedia": "" }, "geometry": { "type": "Point", "coordinates": [ -58.4913826, -34.6780408 ] } },
{ "type": "Feature", "properties": { "amenity": "hospital", "healthcare": "hospital", "operator": "Universitario privado", "operator_type": "private", "name": "Clinica Universitaria ( Uai )", "addr_full": "Portela 2967\/75", "addr_postcode": "1437", "phone": "(011) 4918-7561 \/ 7564", "ref_sisa_codigo": 10020012315457, "ref_sisa_tipologia": "ESCIG", "wikidata": "Q93140009", "wikipedia": "" }, "geometry": { "type": "Point", "coordinates": [ -58.4450555, -34.6604989 ] } },
{ "type": "Feature", "properties": { "amenity": "clinic", "healthcare": "clinic", "operator": "Municipal", "operator_type": "public", "name": "CMB 1", "addr_full": "Rivera Indarte 3512", "addr_postcode": "1437", "phone": "(011) 4919-7144", "ref_sisa_codigo": 50020012115386, "ref_sisa_tipologia": "ESSIDT", "wikidata": "", "wikipedia": "" }, "geometry": { "type": "Point", "coordinates": [ -58.4295475, -34.6611084 ] } },
{ "type": "Feature", "properties": { "amenity": "clinic", "healthcare": "clinic", "operator": "Municipal", "operator_type": "public", "name": "CMB 15", "addr_full": "Avenida Fernandez De La Cruz 6965", "addr_postcode": "1439", "phone": "(011) 4602-4579", "ref_sisa_codigo": 50020012115392, "ref_sisa_tipologia": "ESSIDT", "wikidata": "", "wikipedia": "" }, "geometry": { "type": "Point", "coordinates": [ -58.4788907, -34.6906839 ] } },
{ "type": "Feature", "properties": { "amenity": "clinic", "healthcare": "clinic", "operator": "Municipal", "operator_type": "public", "name": "CMB 28", "addr_full": "Echeandia 5567", "addr_postcode": "1439", "phone": "(011) 4601-1942", "ref_sisa_codigo": 50020012115406, "ref_sisa_tipologia": "ESSIDT", "wikidata": "", "wikipedia": "" }, "geometry": { "type": "Point", "coordinates": [ -58.4849547, -34.6658586 ] } },
{ "type": "Feature", "properties": { "amenity": "clinic", "healthcare": "clinic", "operator": "Municipal", "operator_type": "public", "name": "CMB 9", "addr_full": "Albariño 3512", "addr_postcode": "1439", "phone": "(011) 4601-2835", "ref_sisa_codigo": 50020012115423, "ref_sisa_tipologia": "ESSIDT", "wikidata": "", "wikipedia": "" }, "geometry": { "type": "Point", "coordinates": [ -58.4714593, -34.6698595 ] } },
{ "type": "Feature", "properties": { "amenity": "clinic", "healthcare": "clinic", "operator": "Municipal", "operator_type": "public", "name": "Hospital Cecilia Grierson - Centro De Salud Integral", "addr_full": "Avenida General Fernández De La Cruz 4402", "addr_postcode": "32", "phone": "4604-9000", "ref_sisa_codigo": 50020082218914, "ref_sisa_tipologia": "ESSIDT", "wikidata": "", "wikipedia": "" }, "geometry": { "type": "Point", "coordinates": [ -58.4591439, -34.6737219 ] } }
]
}
