{
"type": "FeatureCollection",
"name": "048-marcos_paz",
"features": [
{ "type": "Feature", "properties": { "amenity": "clinic", "healthcare": "clinic", "operator": "Municipal", "operator_type": "public", "name": "CAPS Cic Nestor Kirchner", "addr_full": "Calle Eva Duarte Esq. Colectora Juan Domingo Peron - Marcos Paz", "addr_postcode": "1727", "phone": "", "ref_sisa_codigo": 50065252216552, "ref_sisa_tipologia": "ESSIDT", "wikidata": "", "wikipedia": "" }, "geometry": { "type": "Point", "coordinates": [ -58.818655, -34.7602919 ] } },
{ "type": "Feature", "properties": { "amenity": "clinic", "healthcare": "clinic", "operator": "Municipal", "operator_type": "public", "name": "CAPS Unidad Sanitaria Ambiental", "addr_full": "Piedras 632 - Marcos Paz", "addr_postcode": "1727", "phone": "", "ref_sisa_codigo": 50065252216551, "ref_sisa_tipologia": "ESSIDT", "wikidata": "", "wikipedia": "" }, "geometry": { "type": "Point", "coordinates": [ -58.8507155, -34.7894211 ] } },
{ "type": "Feature", "properties": { "amenity": "clinic", "healthcare": "clinic", "operator": "Municipal", "operator_type": "public", "name": "CAPS Unidad Sanitaria El Prado", "addr_full": "Monteagudo 706", "addr_postcode": "1727", "phone": "", "ref_sisa_codigo": 50065252216550, "ref_sisa_tipologia": "ESSIDT", "wikidata": "", "wikipedia": "" }, "geometry": { "type": "Point", "coordinates": [ -58.8200256, -34.775424 ] } },
{ "type": "Feature", "properties": { "amenity": "clinic", "healthcare": "clinic", "operator": "Municipal", "operator_type": "public", "name": "Centro De Consultorios Externos Y Diagnostico Por Imagenes Dr Ramon Carrillo", "addr_full": "25 De Mayo 70", "addr_postcode": "1727", "phone": "", "ref_sisa_codigo": 50065252215035, "ref_sisa_tipologia": "ESSIDT", "wikidata": "", "wikipedia": "" }, "geometry": { "type": "Point", "coordinates": [ -58.8383113, -34.7832114 ] } },
{ "type": "Feature", "properties": { "amenity": "clinic", "healthcare": "clinic", "operator": "Municipal", "operator_type": "public", "name": "Centro De Consultorios Externos Y Diagnostico Por Imagens Dr Ramon Carillo", "addr_full": "25 De Mayo 70", "addr_postcode": "1727", "phone": "0220-4770793", "ref_sisa_codigo": 50065252207519, "ref_sisa_tipologia": "ESSIDT", "wikidata": "", "wikipedia": "" }, "geometry": { "type": "Point", "coordinates": [ -58.8383113, -34.7832114 ] } },
{ "type": "Feature", "properties": { "amenity": "hospital", "healthcare": "hospital", "operator": "Privado", "operator_type": "private", "name": "Clinica Privada Provincial", "addr_full": "25 De Mayo 70", "addr_postcode": "1727", "phone": "0220-71574", "ref_sisa_codigo": 10065252305923, "ref_sisa_tipologia": "ESCIG", "wikidata": "", "wikipedia": "" }, "geometry": { "type": "Point", "coordinates": [ -58.8382133, -34.7830739 ] } },
{ "type": "Feature", "properties": { "amenity": "hospital", "healthcare": "hospital", "operator": "Municipal", "operator_type": "public", "name": "Hospital Municipal Doctor Hector J. D Agnillo", "addr_full": "Leandro N. Alem 250", "addr_postcode": "1727", "phone": "(0220) 47-1333", "ref_sisa_codigo": 10065252200212, "ref_sisa_tipologia": "ESCIG", "wikidata": "", "wikipedia": "" }, "geometry": { "type": "Point", "coordinates": [ -58.8347013, -34.784579 ] } },
{ "type": "Feature", "properties": { "amenity": "clinic", "healthcare": "clinic", "operator": "Municipal", "operator_type": "public", "name": "Unidad Sanitaria Barrio El Zorzal De Marcos Paz", "addr_full": "Belisario Roldan Entre Filiberto Y Troilo Barrio El Zorzal", "addr_postcode": "1727", "phone": "0220-4983102", "ref_sisa_codigo": 50065252202086, "ref_sisa_tipologia": "ESSIDT", "wikidata": "", "wikipedia": "" }, "geometry": { "type": "Point", "coordinates": [ -58.8107114, -34.7393009 ] } },
{ "type": "Feature", "properties": { "amenity": "clinic", "healthcare": "clinic", "operator": "Municipal", "operator_type": "public", "name": "Unidad Sanitaria Barrio Gandara De Marcos Paz", "addr_full": "Bordoni Y Zamudio Barrio Gandara", "addr_postcode": "1727", "phone": "0220-4773334", "ref_sisa_codigo": 50065252202089, "ref_sisa_tipologia": "ESSIDT", "wikidata": "", "wikipedia": "" }, "geometry": { "type": "Point", "coordinates": [ -58.842704, -34.796769 ] } },
{ "type": "Feature", "properties": { "amenity": "clinic", "healthcare": "clinic", "operator": "Municipal", "operator_type": "public", "name": "Unidad Sanitaria Barrio Rayo De Sol De Marcos Paz", "addr_full": "Dorrego Y El Estilo S\/N Barrio Rayo De Sol", "addr_postcode": "1727", "phone": "0220-4994244", "ref_sisa_codigo": 50065252202121, "ref_sisa_tipologia": "ESSIDT", "wikidata": "", "wikipedia": "" }, "geometry": { "type": "Point", "coordinates": [ -58.8042762, -34.7502951 ] } },
{ "type": "Feature", "properties": { "amenity": "clinic", "healthcare": "clinic", "operator": "Municipal", "operator_type": "public", "name": "Unidad Sanitaria El Prado", "addr_full": "Diagonal Montegudo E\/ Corrientes Y Misiones", "addr_postcode": "1727", "phone": "011-41654380", "ref_sisa_codigo": 50065252216378, "ref_sisa_tipologia": "ESSIDT", "wikidata": "", "wikipedia": "" }, "geometry": { "type": "Point", "coordinates": [ -58.8191271, -34.7749751 ] } },
{ "type": "Feature", "properties": { "amenity": "clinic", "healthcare": "clinic", "operator": "Municipal", "operator_type": "public", "name": "Unidad Sanitaria Eva Peron De Marcos Paz", "addr_full": "Lisandro De La Torre", "addr_postcode": "1727", "phone": "", "ref_sisa_codigo": 50065252202286, "ref_sisa_tipologia": "ESSIDT", "wikidata": "", "wikipedia": "" }, "geometry": { "type": "Point", "coordinates": [ -58.818819, -34.7855021 ] } },
{ "type": "Feature", "properties": { "amenity": "clinic", "healthcare": "clinic", "operator": "Municipal", "operator_type": "public", "name": "Unidad Sanitaria Heroes De Malvinas", "addr_full": "Eva Duarte Y El Criollo", "addr_postcode": "1727", "phone": "0220-4983103", "ref_sisa_codigo": 50065252202322, "ref_sisa_tipologia": "ESSIDT", "wikidata": "", "wikipedia": "" }, "geometry": { "type": "Point", "coordinates": [ -58.815678, -34.761761 ] } }
]
}
