{
"type": "FeatureCollection",
"name": "049-moreno",
"features": [
{ "type": "Feature", "properties": { "amenity": "clinic", "healthcare": "clinic", "operator": "Provincial", "operator_type": "public", "name": "CAPS Altos De La Reja", "addr_full": "Pilcomayo E\/ Salta Y Benito Juarez", "addr_postcode": "1744", "phone": "", "ref_sisa_codigo": 50065602106680, "ref_sisa_tipologia": "ESSIDT", "wikidata": "", "wikipedia": "" }, "geometry": { "type": "Point", "coordinates": [ -58.8370979, -34.6492332 ] } },
{ "type": "Feature", "properties": { "amenity": "clinic", "healthcare": "clinic", "operator": "Municipal", "operator_type": "public", "name": "CAPS Centro Integrador Comunitario La Bibiana", "addr_full": "O Brien Y Ruta 23", "addr_postcode": "1744", "phone": "0237-4681156", "ref_sisa_codigo": 50065602207544, "ref_sisa_tipologia": "ESSIDT", "wikidata": "", "wikipedia": "" }, "geometry": { "type": "Point", "coordinates": [ -58.7695599, -34.6134402 ] } },
{ "type": "Feature", "properties": { "amenity": "clinic", "healthcare": "clinic", "operator": "Municipal", "operator_type": "public", "name": "CAPS 17 Barrio  Bengochea", "addr_full": "Gabriela Mistral 866 - General Rodriguez", "addr_postcode": "1748", "phone": "", "ref_sisa_codigo": 50063642216554, "ref_sisa_tipologia": "ESSIDT", "wikidata": "", "wikipedia": "" }, "geometry": { "type": "Point", "coordinates": [ -58.8823123, -34.5887 ] } },
{ "type": "Feature", "properties": { "amenity": "clinic", "healthcare": "clinic", "operator": "Municipal", "operator_type": "public", "name": "Centro Asistencial Juramento", "addr_full": "Juramento 1719 Villa Salas", "addr_postcode": "1744", "phone": "0237-4629951", "ref_sisa_codigo": 50065602201092, "ref_sisa_tipologia": "ESSIDT", "wikidata": "", "wikipedia": "" }, "geometry": { "type": "Point", "coordinates": [ -58.7946653, -34.6649465 ] } },
{ "type": "Feature", "properties": { "amenity": "clinic", "healthcare": "clinic", "operator": "Municipal", "operator_type": "public", "name": "Centro De Atencion De Ets", "addr_full": "Avenida Libertador 751 Moreno Centro", "addr_postcode": "1744", "phone": "0237-4622448", "ref_sisa_codigo": 50065602201123, "ref_sisa_tipologia": "ESSIDT", "wikidata": "", "wikipedia": "" }, "geometry": { "type": "Point", "coordinates": [ -58.7883568, -34.6417527 ] } },
{ "type": "Feature", "properties": { "amenity": "hospital", "healthcare": "hospital", "operator": "Privado", "operator_type": "private", "name": "Clinica Mariano Moreno", "addr_full": "Uruguay 146", "addr_postcode": "1744", "phone": "(0237) 463-5000", "ref_sisa_codigo": 10065602300054, "ref_sisa_tipologia": "ESCIG", "wikidata": "", "wikipedia": "" }, "geometry": { "type": "Point", "coordinates": [ -58.7868807, -34.6492451 ] } },
{ "type": "Feature", "properties": { "amenity": "hospital", "healthcare": "hospital", "operator": "Provincial", "operator_type": "public", "name": "Hospital Mariano Y Luciano De La Vega", "addr_full": "Avenida Del Libertador 710", "addr_postcode": "1744", "phone": "02228-4625946", "ref_sisa_codigo": 10065602100275, "ref_sisa_tipologia": "ESCIG", "wikidata": "", "wikipedia": "" }, "geometry": { "type": "Point", "coordinates": [ -58.788261, -34.6414342 ] } },
{ "type": "Feature", "properties": { "amenity": "clinic", "healthcare": "clinic", "operator": "Provincial", "operator_type": "public", "name": "Maternidad De Moreno Estela B. De Carlotto", "addr_full": "Albatros Nº7225 E\/ Boulogne Sur Mer Y M. V. Maza", "addr_postcode": "1744", "phone": "", "ref_sisa_codigo": 12065602116388, "ref_sisa_tipologia": "ESCIEM", "wikidata": "", "wikipedia": "" }, "geometry": { "type": "Point", "coordinates": [ -58.7501299, -34.588523 ] } },
{ "type": "Feature", "properties": { "amenity": "clinic", "healthcare": "clinic", "operator": "Municipal", "operator_type": "public", "name": "Posta Sanitaria San Carlos", "addr_full": "Miguel Cane 2245 Barrio San Carlos", "addr_postcode": "1744", "phone": "0237-4689245", "ref_sisa_codigo": 50065602201754, "ref_sisa_tipologia": "ESSIDT", "wikidata": "", "wikipedia": "" }, "geometry": { "type": "Point", "coordinates": [ -58.8099411, -34.6162825 ] } },
{ "type": "Feature", "properties": { "amenity": "clinic", "healthcare": "clinic", "operator": "Municipal", "operator_type": "public", "name": "Sala Cortez", "addr_full": "Del Carril 4051 Villa Zapiola", "addr_postcode": "1742", "phone": "0237-4629467", "ref_sisa_codigo": 50065602201780, "ref_sisa_tipologia": "ESSIDT", "wikidata": "", "wikipedia": "" }, "geometry": { "type": "Point", "coordinates": [ -58.7401714, -34.6376561 ] } },
{ "type": "Feature", "properties": { "amenity": "hospital", "healthcare": "hospital", "operator": "Privado", "operator_type": "private", "name": "Sanatorio Clinica Privada Alcorta", "addr_full": "Aristóbulo Del Valle 2629", "addr_postcode": "1744", "phone": "02228-427119", "ref_sisa_codigo": 10065602300073, "ref_sisa_tipologia": "ESCIG", "wikidata": "", "wikipedia": "" }, "geometry": { "type": "Point", "coordinates": [ -58.7890412, -34.6533515 ] } },
{ "type": "Feature", "properties": { "amenity": "clinic", "healthcare": "clinic", "operator": "Municipal", "operator_type": "public", "name": "Trailer Favaloro", "addr_full": "Carlos Saavedra Lamas 7800", "addr_postcode": "1665", "phone": "02320-440518", "ref_sisa_codigo": 50064122215009, "ref_sisa_tipologia": "ESSIDT", "wikidata": "", "wikipedia": "" }, "geometry": { "type": "Point", "coordinates": [ -58.8163055, -34.5158197 ] } },
{ "type": "Feature", "properties": { "amenity": "clinic", "healthcare": "clinic", "operator": "Municipal", "operator_type": "public", "name": "Unidad Sanitaria 25 De Mayo De Moreno", "addr_full": "Araucanos 237", "addr_postcode": "1744", "phone": "(0237) 468-8804", "ref_sisa_codigo": 50065602202934, "ref_sisa_tipologia": "ESSIDT", "wikidata": "", "wikipedia": "" }, "geometry": { "type": "Point", "coordinates": [ -58.8043987, -34.6011615 ] } },
{ "type": "Feature", "properties": { "amenity": "clinic", "healthcare": "clinic", "operator": "Municipal", "operator_type": "public", "name": "Unidad Sanitaria Amancio Alcorta", "addr_full": "Saenz Peña1860 - Barrio Alcorta", "addr_postcode": "1742", "phone": "(0237) 4636370", "ref_sisa_codigo": 50065602202055, "ref_sisa_tipologia": "ESSIDT", "wikidata": "", "wikipedia": "" }, "geometry": { "type": "Point", "coordinates": [ -58.7799034, -34.6596418 ] } },
{ "type": "Feature", "properties": { "amenity": "clinic", "healthcare": "clinic", "operator": "Municipal", "operator_type": "public", "name": "Unidad Sanitaria Anderson", "addr_full": "Discepolo 6702\/8 - Barrio Anderson", "addr_postcode": "1744", "phone": "(02320) 454056", "ref_sisa_codigo": 50065602202057, "ref_sisa_tipologia": "ESSIDT", "wikidata": "", "wikipedia": "" }, "geometry": { "type": "Point", "coordinates": [ -58.811824, -34.528039 ] } },
{ "type": "Feature", "properties": { "amenity": "clinic", "healthcare": "clinic", "operator": "Municipal", "operator_type": "public", "name": "Unidad Sanitaria Barrio Indanburu", "addr_full": "Segurola 1475", "addr_postcode": "1744", "phone": "(0237) 4688812", "ref_sisa_codigo": 50065602202091, "ref_sisa_tipologia": "ESSIDT", "wikidata": "", "wikipedia": "" }, "geometry": { "type": "Point", "coordinates": [ -58.7857971, -34.6102013 ] } },
{ "type": "Feature", "properties": { "amenity": "clinic", "healthcare": "clinic", "operator": "Municipal", "operator_type": "public", "name": "Unidad Sanitaria Bongiovani", "addr_full": "Remedios De Escalada De San Martín 4614\/26", "addr_postcode": "1742", "phone": "(0237) 4688809", "ref_sisa_codigo": 50065602202155, "ref_sisa_tipologia": "ESSIDT", "wikidata": "", "wikipedia": "" }, "geometry": { "type": "Point", "coordinates": [ -58.7470063, -34.6249722 ] } },
{ "type": "Feature", "properties": { "amenity": "clinic", "healthcare": "clinic", "operator": "Municipal", "operator_type": "public", "name": "Unidad Sanitaria Cortejarena", "addr_full": "Sofocles 1566 Entre Palma Y La Rioja  Barrio Cortejarena", "addr_postcode": "1744", "phone": "0237-4662400", "ref_sisa_codigo": 50065602202189, "ref_sisa_tipologia": "ESSIDT", "wikidata": "", "wikipedia": "" }, "geometry": { "type": "Point", "coordinates": [ -58.8318135, -34.6282386 ] } },
{ "type": "Feature", "properties": { "amenity": "clinic", "healthcare": "clinic", "operator": "Municipal", "operator_type": "public", "name": "Unidad Sanitaria Florencio Molina Campos", "addr_full": "Juana De Ibarborou 9547", "addr_postcode": "1744", "phone": "(02320) 451762", "ref_sisa_codigo": 50065602202295, "ref_sisa_tipologia": "ESSIDT", "wikidata": "", "wikipedia": "" }, "geometry": { "type": "Point", "coordinates": [ -58.8108077, -34.5479777 ] } },
{ "type": "Feature", "properties": { "amenity": "clinic", "healthcare": "clinic", "operator": "Municipal", "operator_type": "public", "name": "Unidad Sanitaria Jose De San Martin", "addr_full": "Peru 5160 - Barrio Lomas De San Jose", "addr_postcode": "1744", "phone": "(0237) 4688805", "ref_sisa_codigo": 50065602202347, "ref_sisa_tipologia": "ESSIDT", "wikidata": "", "wikipedia": "" }, "geometry": { "type": "Point", "coordinates": [ -58.7926725, -34.6257752 ] } },
{ "type": "Feature", "properties": { "amenity": "clinic", "healthcare": "clinic", "operator": "Municipal", "operator_type": "public", "name": "Unidad Sanitaria La Esperanza", "addr_full": "Tupac Amaru 6302 Barrio Arturo Ullia", "addr_postcode": "1744", "phone": "0237-4831336", "ref_sisa_codigo": 50065602202364, "ref_sisa_tipologia": "ESSIDT", "wikidata": "", "wikipedia": "" }, "geometry": { "type": "Point", "coordinates": [ -58.8675227, -34.5721848 ] } },
{ "type": "Feature", "properties": { "amenity": "clinic", "healthcare": "clinic", "operator": "Municipal", "operator_type": "public", "name": "Unidad Sanitaria La Reja Grande", "addr_full": "Victorino De La Plaza 1917 - Barrio Reja Grande", "addr_postcode": "1746", "phone": "(0237) 4831447", "ref_sisa_codigo": 50065602202378, "ref_sisa_tipologia": "ESSIDT", "wikidata": "", "wikipedia": "" }, "geometry": { "type": "Point", "coordinates": [ -58.841251, -34.6113898 ] } },
{ "type": "Feature", "properties": { "amenity": "clinic", "healthcare": "clinic", "operator": "Municipal", "operator_type": "public", "name": "Unidad Sanitaria La Victoria", "addr_full": "Guido Spano 986\/98 - Barrio Rififi", "addr_postcode": "1744", "phone": "(0237) 466-2426", "ref_sisa_codigo": 50065602202384, "ref_sisa_tipologia": "ESSIDT", "wikidata": "", "wikipedia": "" }, "geometry": { "type": "Point", "coordinates": [ -58.81677, -34.671171 ] } },
{ "type": "Feature", "properties": { "amenity": "clinic", "healthcare": "clinic", "operator": "Municipal", "operator_type": "public", "name": "Unidad Sanitaria Las Catonas", "addr_full": "Chuquisaca 3181", "addr_postcode": "1664", "phone": "(0237) 4816266", "ref_sisa_codigo": 50065602202395, "ref_sisa_tipologia": "ESSIDT", "wikidata": "", "wikipedia": "" }, "geometry": { "type": "Point", "coordinates": [ -58.7591875, -34.6130327 ] } },
{ "type": "Feature", "properties": { "amenity": "clinic", "healthcare": "clinic", "operator": "Municipal", "operator_type": "public", "name": "Unidad Sanitaria Las Flores De Moreno", "addr_full": "Federico Lacroze 3376 Barrio Las Flores", "addr_postcode": "1664", "phone": "0237-4816285", "ref_sisa_codigo": 50065602202398, "ref_sisa_tipologia": "ESSIDT", "wikidata": "", "wikipedia": "" }, "geometry": { "type": "Point", "coordinates": [ -58.7533125, -34.598048 ] } },
{ "type": "Feature", "properties": { "amenity": "clinic", "healthcare": "clinic", "operator": "Municipal", "operator_type": "public", "name": "Unidad Sanitaria Las Perlitas 2", "addr_full": "12 De Octubre 5569 - Barrio La Perlita", "addr_postcode": "1744", "phone": "(0237) 468-7273", "ref_sisa_codigo": 50065602202404, "ref_sisa_tipologia": "ESSIDT", "wikidata": "", "wikipedia": "" }, "geometry": { "type": "Point", "coordinates": [ -58.784262, -34.626811 ] } },
{ "type": "Feature", "properties": { "amenity": "clinic", "healthcare": "clinic", "operator": "Municipal", "operator_type": "public", "name": "Unidad Sanitaria Lomas De Casasco", "addr_full": "San Pablo 2286\/74", "addr_postcode": "1744", "phone": "(0237) 466-2390", "ref_sisa_codigo": 50065602202414, "ref_sisa_tipologia": "ESSIDT", "wikidata": "", "wikipedia": "" }, "geometry": { "type": "Point", "coordinates": [ -58.82737, -34.665047 ] } },
{ "type": "Feature", "properties": { "amenity": "clinic", "healthcare": "clinic", "operator": "Municipal", "operator_type": "public", "name": "Unidad Sanitaria Lomas De Marilo De Moreno", "addr_full": "Pinzon 2302\/42 Barrio Lomas De Marilo", "addr_postcode": "1744", "phone": "0237-4815607", "ref_sisa_codigo": 50065602202415, "ref_sisa_tipologia": "ESSIDT", "wikidata": "", "wikipedia": "" }, "geometry": { "type": "Point", "coordinates": [ -58.7318673, -34.606799 ] } },
{ "type": "Feature", "properties": { "amenity": "clinic", "healthcare": "clinic", "operator": "Municipal", "operator_type": "public", "name": "Unidad Sanitaria Los Paraisos", "addr_full": "El Salvador 6626 - Barrio Los Paraísos Ii", "addr_postcode": "1744", "phone": "(0237) 468-8811", "ref_sisa_codigo": 50065602202423, "ref_sisa_tipologia": "ESSIDT", "wikidata": "", "wikipedia": "" }, "geometry": { "type": "Point", "coordinates": [ -58.776215, -34.618229 ] } },
{ "type": "Feature", "properties": { "amenity": "clinic", "healthcare": "clinic", "operator": "Municipal", "operator_type": "public", "name": "Unidad Sanitaria Martin Fierro De Moreno", "addr_full": "Nahuel Huapi 90 Barrio Ampliacion La Lomita", "addr_postcode": "1744", "phone": "0237-4662402", "ref_sisa_codigo": 50065602202444, "ref_sisa_tipologia": "ESSIDT", "wikidata": "", "wikipedia": "" }, "geometry": { "type": "Point", "coordinates": [ -58.806776, -34.6617687 ] } },
{ "type": "Feature", "properties": { "amenity": "clinic", "healthcare": "clinic", "operator": "Municipal", "operator_type": "public", "name": "Unidad Sanitaria 4 La Fortuna De Moreno", "addr_full": "Enrique Larreta 10471", "addr_postcode": "1664", "phone": "0237-4815097", "ref_sisa_codigo": 50065602202622, "ref_sisa_tipologia": "ESSIDT", "wikidata": "", "wikipedia": "" }, "geometry": { "type": "Point", "coordinates": [ -58.757026, -34.58246 ] } },
{ "type": "Feature", "properties": { "amenity": "clinic", "healthcare": "clinic", "operator": "Municipal", "operator_type": "public", "name": "Unidad Sanitaria 5 Doctor Corsi De Moreno", "addr_full": "Avenida Miero 906 - Barrio Santa Rosa", "addr_postcode": "1744", "phone": "(0237) 466-2153", "ref_sisa_codigo": 50065602202637, "ref_sisa_tipologia": "ESSIDT", "wikidata": "", "wikipedia": "" }, "geometry": { "type": "Point", "coordinates": [ -58.805999, -34.650962 ] } },
{ "type": "Feature", "properties": { "amenity": "clinic", "healthcare": "clinic", "operator": "Municipal", "operator_type": "public", "name": "Unidad Sanitaria Paso Del Rey De Moreno", "addr_full": "Fray Luis Beltrán 2631\/53", "addr_postcode": "1742", "phone": "(0237) 468-1073", "ref_sisa_codigo": 50065602202711, "ref_sisa_tipologia": "ESSIDT", "wikidata": "", "wikipedia": "" }, "geometry": { "type": "Point", "coordinates": [ -58.759414, -34.623686 ] } },
{ "type": "Feature", "properties": { "amenity": "clinic", "healthcare": "clinic", "operator": "Municipal", "operator_type": "public", "name": "Unidad Sanitaria Pavon 4 Vientos", "addr_full": "Andinos 1311\/13 - Barrio Cuatro Vientos", "addr_postcode": "1664", "phone": "0237-4816303", "ref_sisa_codigo": 50065602202715, "ref_sisa_tipologia": "ESSIDT", "wikidata": "", "wikipedia": "" }, "geometry": { "type": "Point", "coordinates": [ -58.7634981, -34.5962378 ] } },
{ "type": "Feature", "properties": { "amenity": "clinic", "healthcare": "clinic", "operator": "Municipal", "operator_type": "public", "name": "Unidad Sanitaria Posta Jardines I", "addr_full": "Enrique Larreta 3057 - Barrio Jardines Ii", "addr_postcode": "1744", "phone": "(0237) 4690231", "ref_sisa_codigo": 50065602202731, "ref_sisa_tipologia": "ESSIDT", "wikidata": "", "wikipedia": "" }, "geometry": { "type": "Point", "coordinates": [ -58.7943774, -34.6133365 ] } },
{ "type": "Feature", "properties": { "amenity": "clinic", "healthcare": "clinic", "operator": "Municipal", "operator_type": "public", "name": "Unidad Sanitaria Posta Parque Paso Del Rey", "addr_full": "Belgrano 3873", "addr_postcode": "1742", "phone": "0237-4636474", "ref_sisa_codigo": 50065602202710, "ref_sisa_tipologia": "ESSIDT", "wikidata": "", "wikipedia": "" }, "geometry": { "type": "Point", "coordinates": [ -58.759483, -34.622751 ] } },
{ "type": "Feature", "properties": { "amenity": "clinic", "healthcare": "clinic", "operator": "Municipal", "operator_type": "public", "name": "Unidad Sanitaria Reja Centro", "addr_full": "Alfonsina Storni 1476 Barrio La Reja Centro", "addr_postcode": "1744", "phone": "0237-4626899", "ref_sisa_codigo": 50065602202751, "ref_sisa_tipologia": "ESSIDT", "wikidata": "", "wikipedia": "" }, "geometry": { "type": "Point", "coordinates": [ -58.8254944, -34.6376601 ] } },
{ "type": "Feature", "properties": { "amenity": "clinic", "healthcare": "clinic", "operator": "Municipal", "operator_type": "public", "name": "Unidad Sanitaria Sambrizzi Sanguinetti", "addr_full": "Corrientes 2301 - Barrio Sanguinetti", "addr_postcode": "1742", "phone": "(0237) 4629542", "ref_sisa_codigo": 50065602202768, "ref_sisa_tipologia": "ESSIDT", "wikidata": "", "wikipedia": "" }, "geometry": { "type": "Point", "coordinates": [ -58.75889, -34.6436808 ] } },
{ "type": "Feature", "properties": { "amenity": "clinic", "healthcare": "clinic", "operator": "Municipal", "operator_type": "public", "name": "Unidad Sanitaria San Carlos De Moreno", "addr_full": "Juan De La Cierva 958 - Barrio Amplación Amberastugui", "addr_postcode": "1664", "phone": "(0237) 481-6359", "ref_sisa_codigo": 50065602202777, "ref_sisa_tipologia": "ESSIDT", "wikidata": "", "wikipedia": "" }, "geometry": { "type": "Point", "coordinates": [ -58.771473, -34.608534 ] } },
{ "type": "Feature", "properties": { "amenity": "clinic", "healthcare": "clinic", "operator": "Municipal", "operator_type": "public", "name": "Unidad Sanitaria San Jorge De Moreno", "addr_full": "Fonrouge 2202 - Barrio San Jorge", "addr_postcode": "1744", "phone": "(0237) 4635450", "ref_sisa_codigo": 50065602202792, "ref_sisa_tipologia": "ESSIDT", "wikidata": "", "wikipedia": "" }, "geometry": { "type": "Point", "coordinates": [ -58.7979187, -34.6699591 ] } },
{ "type": "Feature", "properties": { "amenity": "clinic", "healthcare": "clinic", "operator": "Municipal", "operator_type": "public", "name": "Unidad Sanitaria Santa Brigida 17 De Agosto", "addr_full": "Republica  Argentina 716\/80 Barrio Santa Brigida", "addr_postcode": "1664", "phone": "02320-460585", "ref_sisa_codigo": 50065602202809, "ref_sisa_tipologia": "ESSIDT", "wikidata": "", "wikipedia": "" }, "geometry": { "type": "Point", "coordinates": [ -58.7683725, -34.567256 ] } },
{ "type": "Feature", "properties": { "amenity": "clinic", "healthcare": "clinic", "operator": "Municipal", "operator_type": "public", "name": "Unidad Sanitaria Vergel", "addr_full": "Luis Pedro Agote E\/ Vieytes Y La Musica", "addr_postcode": "1744", "phone": "0232-450106", "ref_sisa_codigo": 50065602216383, "ref_sisa_tipologia": "ESSIDT", "wikidata": "", "wikipedia": "" }, "geometry": { "type": "Point", "coordinates": [ -58.8437176, -34.5585179 ] } },
{ "type": "Feature", "properties": { "amenity": "clinic", "healthcare": "clinic", "operator": "Municipal", "operator_type": "public", "name": "Unidad Sanitaria Villa Escobar", "addr_full": "Tito Livio 4502 - Barrio Villa Escobar", "addr_postcode": "1746", "phone": "(0237) 487-3843", "ref_sisa_codigo": 50065602202881, "ref_sisa_tipologia": "ESSIDT", "wikidata": "", "wikipedia": "" }, "geometry": { "type": "Point", "coordinates": [ -58.872153, -34.643848 ] } }
]
}
