{
"type": "FeatureCollection",
"name": "050-chacabuco",
"features": [
{ "type": "Feature", "properties": { "amenity": "clinic", "healthcare": "clinic", "operator": "Provincial", "operator_type": "public", "name": "Centro De Salud Barrio Itati", "addr_full": "Blas Parera 1165", "addr_postcode": "3730", "phone": "", "ref_sisa_codigo": 50220282126144, "ref_sisa_tipologia": "ESSIDT", "wikidata": "", "wikipedia": "" }, "geometry": { "type": "Point", "coordinates": [ -61.1883548, -27.2252749 ] } },
{ "type": "Feature", "properties": { "amenity": "clinic", "healthcare": "clinic", "operator": "Provincial", "operator_type": "public", "name": "Centro De Salud Barrio Juventud", "addr_full": "Las Heras 340", "addr_postcode": "3730", "phone": "03731-420070", "ref_sisa_codigo": 50220282126145, "ref_sisa_tipologia": "ESSIDT", "wikidata": "", "wikipedia": "" }, "geometry": { "type": "Point", "coordinates": [ -61.1969991, -27.2141338 ] } },
{ "type": "Feature", "properties": { "amenity": "clinic", "healthcare": "clinic", "operator": "Provincial", "operator_type": "public", "name": "Centro De Salud Barrio Libertad", "addr_full": "Magallanes 134", "addr_postcode": "3730", "phone": "03731-423041", "ref_sisa_codigo": 50220282126148, "ref_sisa_tipologia": "ESSIDT", "wikidata": "", "wikipedia": "" }, "geometry": { "type": "Point", "coordinates": [ -61.2005925, -27.2208196 ] } },
{ "type": "Feature", "properties": { "amenity": "clinic", "healthcare": "clinic", "operator": "Provincial", "operator_type": "public", "name": "Centro De Salud Barrio Ulm", "addr_full": "Coronel Bogado S\/N Barrio Ulm", "addr_postcode": "3730", "phone": "", "ref_sisa_codigo": 50220282126165, "ref_sisa_tipologia": "ESSIDT", "wikidata": "", "wikipedia": "" }, "geometry": { "type": "Point", "coordinates": [ -61.1876678, -27.2167775 ] } },
{ "type": "Feature", "properties": { "amenity": "clinic", "healthcare": "clinic", "operator": "Provincial", "operator_type": "public", "name": "Centro De Salud Las Tolderias", "addr_full": "Zona Rural - Las Tolderias", "addr_postcode": "3730", "phone": "", "ref_sisa_codigo": 50220282126321, "ref_sisa_tipologia": "ESSIDT", "wikidata": "", "wikipedia": "" }, "geometry": { "type": "Point", "coordinates": [ -60.97753, -27.31926 ] } },
{ "type": "Feature", "properties": { "amenity": "clinic", "healthcare": "clinic", "operator": "Provincial", "operator_type": "public", "name": "Centro De Salud Pampa Cabrera", "addr_full": "Seccion Xv Colonia Necochea", "addr_postcode": "3730", "phone": "", "ref_sisa_codigo": 50220282126124, "ref_sisa_tipologia": "ESSIDT", "wikidata": "", "wikipedia": "" }, "geometry": { "type": "Point", "coordinates": [ -61.187582, -27.217846 ] } },
{ "type": "Feature", "properties": { "amenity": "clinic", "healthcare": "clinic", "operator": "Provincial", "operator_type": "public", "name": "Centro De Salud Tres Estacas", "addr_full": "Zona Rural-Tres Estacas", "addr_postcode": "3730", "phone": "", "ref_sisa_codigo": 50220282126459, "ref_sisa_tipologia": "ESSIDT", "wikidata": "", "wikipedia": "" }, "geometry": { "type": "Point", "coordinates": [ -61.62741, -26.9222 ] } },
{ "type": "Feature", "properties": { "amenity": "hospital", "healthcare": "hospital", "operator": "Privado", "operator_type": "private", "name": "Clinica Giuliani", "addr_full": "25 De Mayo 541", "addr_postcode": "3730", "phone": "(03731)- 42-0049", "ref_sisa_codigo": 10220282326007, "ref_sisa_tipologia": "ESCIG", "wikidata": "", "wikipedia": "" }, "geometry": { "type": "Point", "coordinates": [ -61.189869, -27.2163508 ] } },
{ "type": "Feature", "properties": { "amenity": "hospital", "healthcare": "hospital", "operator": "Provincial", "operator_type": "public", "name": "Hospital Enrique V. De Llamas", "addr_full": "Doctor Mariano Castex", "addr_postcode": "3730", "phone": "(03731)- 47-0070", "ref_sisa_codigo": 10220282126051, "ref_sisa_tipologia": "ESCIG", "wikidata": "", "wikipedia": "" }, "geometry": { "type": "Point", "coordinates": [ -61.1830623, -27.204377 ] } }
]
}
