{
"type": "FeatureCollection",
"name": "051-hurlingham",
"features": [
{ "type": "Feature", "properties": { "amenity": "clinic", "healthcare": "clinic", "operator": "Municipal", "operator_type": "public", "name": "Centro De Salud 21 De Agosto", "addr_full": "Granada 2349 - Barrio El Destino", "addr_postcode": "1686", "phone": "(011) 4452-6074", "ref_sisa_codigo": 50064082201388, "ref_sisa_tipologia": "ESSIDT", "wikidata": "", "wikipedia": "" }, "geometry": { "type": "Point", "coordinates": [ -58.6606967, -34.5998343 ] } },
{ "type": "Feature", "properties": { "amenity": "clinic", "healthcare": "clinic", "operator": "Municipal", "operator_type": "public", "name": "Centro De Salud Doctor Ramon Carrillo", "addr_full": "Manuela Pedraza 750", "addr_postcode": "1686", "phone": "(011) 4459-9022", "ref_sisa_codigo": 50064082202745, "ref_sisa_tipologia": "ESSIDT", "wikidata": "", "wikipedia": "" }, "geometry": { "type": "Point", "coordinates": [ -58.6191952, -34.6194156 ] } },
{ "type": "Feature", "properties": { "amenity": "hospital", "healthcare": "hospital", "operator": "Privado", "operator_type": "private", "name": "Centro Rehabilitacion San Juan De Dios", "addr_full": "General Pedro Díaz 3366", "addr_postcode": "1686", "phone": "", "ref_sisa_codigo": 10064082305929, "ref_sisa_tipologia": "ESCIG", "wikidata": "", "wikipedia": "" }, "geometry": { "type": "Point", "coordinates": [ -58.6674128, -34.5891346 ] } },
{ "type": "Feature", "properties": { "amenity": "hospital", "healthcare": "hospital", "operator": "Privado", "operator_type": "private", "name": "Clinica Nuestra Seńora De Fatima", "addr_full": "Victor Vergani 830", "addr_postcode": "1629", "phone": "02322-420303", "ref_sisa_codigo": 10066382300069, "ref_sisa_tipologia": "ESCIG", "wikidata": "", "wikipedia": "" }, "geometry": { "type": "Point", "coordinates": [ -58.6203004, -34.5977439 ] } },
{ "type": "Feature", "properties": { "amenity": "hospital", "healthcare": "hospital", "operator": "Privado", "operator_type": "private", "name": "Clinica Y Maternidad Del Sagrado Corazon", "addr_full": "Teniente General Pablo Ricchieri 1634", "addr_postcode": "1686", "phone": "(011) 4665-1920 \/ 0817", "ref_sisa_codigo": 10064082306649, "ref_sisa_tipologia": "ESCIG", "wikidata": "", "wikipedia": "" }, "geometry": { "type": "Point", "coordinates": [ -58.637482, -34.5868366 ] } },
{ "type": "Feature", "properties": { "amenity": "clinic", "healthcare": "clinic", "operator": "Municipal", "operator_type": "public", "name": "Hogar Nuestra Señora De Guadalupe", "addr_full": "Av. Gdor. Vergara 6100", "addr_postcode": "1663", "phone": "46669898 INT 6111", "ref_sisa_codigo": 50067602201628, "ref_sisa_tipologia": "ESSIDT", "wikidata": "", "wikipedia": "" }, "geometry": { "type": "Point", "coordinates": [ -58.6476587, -34.568153 ] } },
{ "type": "Feature", "properties": { "amenity": "hospital", "healthcare": "hospital", "operator": "Municipal", "operator_type": "public", "name": "Hospital Municipal San Bernardino De Siena", "addr_full": "German Argerich 1650", "addr_postcode": "1686", "phone": "011 44528924", "ref_sisa_codigo": 10064082200206, "ref_sisa_tipologia": "ESCIG", "wikidata": "", "wikipedia": "" }, "geometry": { "type": "Point", "coordinates": [ -58.641194, -34.588885 ] } },
{ "type": "Feature", "properties": { "amenity": "clinic", "healthcare": "clinic", "operator": "Municipal", "operator_type": "public", "name": "Hospital Odontologico - (Hurlingham)", "addr_full": "Concepción Arenal 2963", "addr_postcode": "1686", "phone": "", "ref_sisa_codigo": 50064082206771, "ref_sisa_tipologia": "ESSIDT", "wikidata": "", "wikipedia": "" }, "geometry": { "type": "Point", "coordinates": [ -58.6322217, -34.614347 ] } },
{ "type": "Feature", "properties": { "amenity": "hospital", "healthcare": "hospital", "operator": "Privado", "operator_type": "private", "name": "Policlinica Doctor Argerich", "addr_full": "German Argerich 1496", "addr_postcode": "1686", "phone": "", "ref_sisa_codigo": 10064082317855, "ref_sisa_tipologia": "ESCIG", "wikidata": "", "wikipedia": "" }, "geometry": { "type": "Point", "coordinates": [ -58.6397063, -34.5900614 ] } },
{ "type": "Feature", "properties": { "amenity": "clinic", "healthcare": "clinic", "operator": "Municipal", "operator_type": "public", "name": "Unidad Sanitaria 2 De Abril De Hurlingham", "addr_full": "La Trilla Y Ciudadela - Barrio 2 De Abril", "addr_postcode": "1686", "phone": "(011) 4450-6605", "ref_sisa_codigo": 50064082202927, "ref_sisa_tipologia": "ESSIDT", "wikidata": "", "wikipedia": "" }, "geometry": { "type": "Point", "coordinates": [ -58.6612501, -34.620238 ] } },
{ "type": "Feature", "properties": { "amenity": "clinic", "healthcare": "clinic", "operator": "Municipal", "operator_type": "public", "name": "Unidad Sanitaria 2 De Junio De Hurlingham", "addr_full": "Plass Y Nightingale", "addr_postcode": "1688", "phone": "(011) 4459-3384", "ref_sisa_codigo": 50064082202929, "ref_sisa_tipologia": "ESSIDT", "wikidata": "", "wikipedia": "" }, "geometry": { "type": "Point", "coordinates": [ -58.6412298, -34.6236829 ] } },
{ "type": "Feature", "properties": { "amenity": "clinic", "healthcare": "clinic", "operator": "Municipal", "operator_type": "public", "name": "Unidad Sanitaria Barrio Angel", "addr_full": "Potosi Y Levalle - Barrio San Damian", "addr_postcode": "1686", "phone": "(011) 4665-7021", "ref_sisa_codigo": 50064082202076, "ref_sisa_tipologia": "ESSIDT", "wikidata": "", "wikipedia": "" }, "geometry": { "type": "Point", "coordinates": [ -58.6587288, -34.5784392 ] } },
{ "type": "Feature", "properties": { "amenity": "clinic", "healthcare": "clinic", "operator": "Municipal", "operator_type": "public", "name": "Unidad Sanitaria Barrio Libertador", "addr_full": "Carabelas 4900", "addr_postcode": "1686", "phone": "(011) 4450-8965", "ref_sisa_codigo": 50064082202101, "ref_sisa_tipologia": "ESSIDT", "wikidata": "", "wikipedia": "" }, "geometry": { "type": "Point", "coordinates": [ -58.6467093, -34.6283904 ] } },
{ "type": "Feature", "properties": { "amenity": "clinic", "healthcare": "clinic", "operator": "Municipal", "operator_type": "public", "name": "Unidad Sanitaria Bartolome Mitre De Hurlingham", "addr_full": "Palermo 555 Entre Cuzco Y Amberes - Barrio Bartolome Mitre", "addr_postcode": "1686", "phone": "(011) 4459-7767", "ref_sisa_codigo": 50064082202146, "ref_sisa_tipologia": "ESSIDT", "wikidata": "", "wikipedia": "" }, "geometry": { "type": "Point", "coordinates": [ -58.6491694, -34.6123709 ] } },
{ "type": "Feature", "properties": { "amenity": "clinic", "healthcare": "clinic", "operator": "Municipal", "operator_type": "public", "name": "Unidad Sanitaria Eva Peron De Hurlingham", "addr_full": "J. Jufre 2263", "addr_postcode": "1686", "phone": "(011) 4450-8965", "ref_sisa_codigo": 50064082202284, "ref_sisa_tipologia": "ESSIDT", "wikidata": "", "wikipedia": "" }, "geometry": { "type": "Point", "coordinates": [ -58.6243625, -34.6124043 ] } },
{ "type": "Feature", "properties": { "amenity": "clinic", "healthcare": "clinic", "operator": "Municipal", "operator_type": "public", "name": "Unidad Sanitaria San J. Obrero", "addr_full": "Quequen Y Levalle", "addr_postcode": "1686", "phone": "", "ref_sisa_codigo": 50064082202791, "ref_sisa_tipologia": "ESSIDT", "wikidata": "", "wikipedia": "" }, "geometry": { "type": "Point", "coordinates": [ -58.6557999, -34.5746937 ] } }
]
}
