{
"type": "FeatureCollection",
"name": "053-bermejo",
"features": [
{ "type": "Feature", "properties": { "amenity": "clinic", "healthcare": "clinic", "operator": "Municipal", "operator_type": "public", "name": "C I C General Vedia", "addr_full": "Explorador Soria S\/N", "addr_postcode": "3522", "phone": "0362 4 072123", "ref_sisa_codigo": 50220142227283, "ref_sisa_tipologia": "ESSIDT", "wikidata": "", "wikipedia": "" }, "geometry": { "type": "Point", "coordinates": [ -58.65716, -26.93129 ] } },
{ "type": "Feature", "properties": { "amenity": "clinic", "healthcare": "clinic", "operator": "Provincial", "operator_type": "public", "name": "Centro De Salud Cabral Cue", "addr_full": "Zona Rural", "addr_postcode": "3518", "phone": "", "ref_sisa_codigo": 50220142126171, "ref_sisa_tipologia": "ESSIDT", "wikidata": "", "wikipedia": "" }, "geometry": { "type": "Point", "coordinates": [ -58.7583, -27.0083 ] } },
{ "type": "Feature", "properties": { "amenity": "clinic", "healthcare": "clinic", "operator": "Provincial", "operator_type": "public", "name": "Centro De Salud El Fiscal", "addr_full": "Zona Rural-Puerto Eva Peron", "addr_postcode": "3522", "phone": "", "ref_sisa_codigo": 50220142126224, "ref_sisa_tipologia": "ESSIDT", "wikidata": "", "wikipedia": "" }, "geometry": { "type": "Point", "coordinates": [ -58.661499, -26.9326686 ] } },
{ "type": "Feature", "properties": { "amenity": "clinic", "healthcare": "clinic", "operator": "Provincial", "operator_type": "public", "name": "Centro De Salud El Naranjito", "addr_full": "Zona Rural", "addr_postcode": "3522", "phone": "", "ref_sisa_codigo": 50220142126230, "ref_sisa_tipologia": "ESSIDT", "wikidata": "", "wikipedia": "" }, "geometry": { "type": "Point", "coordinates": [ -58.661027, -26.9327834 ] } },
{ "type": "Feature", "properties": { "amenity": "clinic", "healthcare": "clinic", "operator": "Provincial", "operator_type": "public", "name": "Centro De Salud El Palmar La Leonesa", "addr_full": "Zona Rural-El Palmar-La Leonesa", "addr_postcode": "3518", "phone": "", "ref_sisa_codigo": 50220142126235, "ref_sisa_tipologia": "ESSIDT", "wikidata": "", "wikipedia": "" }, "geometry": { "type": "Point", "coordinates": [ -58.7391422, -27.1710146 ] } },
{ "type": "Feature", "properties": { "amenity": "clinic", "healthcare": "clinic", "operator": "Provincial", "operator_type": "public", "name": "Centro De Salud Florodora", "addr_full": "Zona Rural- Las Palmas", "addr_postcode": "3518", "phone": "", "ref_sisa_codigo": 50220142126258, "ref_sisa_tipologia": "ESSIDT", "wikidata": "", "wikipedia": "" }, "geometry": { "type": "Point", "coordinates": [ -58.6781502, -27.0537752 ] } },
{ "type": "Feature", "properties": { "amenity": "clinic", "healthcare": "clinic", "operator": "Provincial", "operator_type": "public", "name": "Centro De Salud Isla Del Cerrito", "addr_full": "Maximo Aberastury 8", "addr_postcode": "3518", "phone": "(0362) 4496262", "ref_sisa_codigo": 50220142126273, "ref_sisa_tipologia": "ESSIDT", "wikidata": "", "wikipedia": "" }, "geometry": { "type": "Point", "coordinates": [ -58.61687, -27.29121 ] } },
{ "type": "Feature", "properties": { "amenity": "clinic", "healthcare": "clinic", "operator": "Provincial", "operator_type": "public", "name": "Centro De Salud La Textil", "addr_full": "Zona Rural-Puerto Eva Peron", "addr_postcode": "3522", "phone": "", "ref_sisa_codigo": 50220142126306, "ref_sisa_tipologia": "ESSIDT", "wikidata": "", "wikipedia": "" }, "geometry": { "type": "Point", "coordinates": [ -58.6612415, -26.9326304 ] } },
{ "type": "Feature", "properties": { "amenity": "clinic", "healthcare": "clinic", "operator": "Provincial", "operator_type": "public", "name": "Centro De Salud Laguna Pato", "addr_full": "Zona Rural", "addr_postcode": "3518", "phone": "", "ref_sisa_codigo": 50220142126311, "ref_sisa_tipologia": "ESSIDT", "wikidata": "", "wikipedia": "" }, "geometry": { "type": "Point", "coordinates": [ -58.8167, -27.0833 ] } },
{ "type": "Feature", "properties": { "amenity": "clinic", "healthcare": "clinic", "operator": "Provincial", "operator_type": "public", "name": "Centro De Salud Las Palmas \/ 02846", "addr_full": "Remedios De Escalada S\/N Y San Lorenzo", "addr_postcode": "3518", "phone": "0362-4470861", "ref_sisa_codigo": 50220142126318, "ref_sisa_tipologia": "ESSIDT", "wikidata": "", "wikipedia": "" }, "geometry": { "type": "Point", "coordinates": [ -58.6833369, -27.047991 ] } },
{ "type": "Feature", "properties": { "amenity": "clinic", "healthcare": "clinic", "operator": "Provincial", "operator_type": "public", "name": "Centro De Salud Lote 16", "addr_full": "Zona Rural-Lote 16", "addr_postcode": "3522", "phone": "", "ref_sisa_codigo": 50220142126347, "ref_sisa_tipologia": "ESSIDT", "wikidata": "", "wikipedia": "" }, "geometry": { "type": "Point", "coordinates": [ -58.66403, -26.934956 ] } },
{ "type": "Feature", "properties": { "amenity": "clinic", "healthcare": "clinic", "operator": "Provincial", "operator_type": "public", "name": "Centro De Salud Paraje Quia", "addr_full": "Zona Rural-Paraje Quia", "addr_postcode": "3518", "phone": "", "ref_sisa_codigo": 50220142126404, "ref_sisa_tipologia": "ESSIDT", "wikidata": "", "wikipedia": "" }, "geometry": { "type": "Point", "coordinates": [ -58.9329, -26.9634 ] } },
{ "type": "Feature", "properties": { "amenity": "clinic", "healthcare": "clinic", "operator": "Provincial", "operator_type": "public", "name": "Centro De Salud Puerto Eva Peron", "addr_full": "Planta Urbana-Puerto Eva Peron", "addr_postcode": "3522", "phone": "", "ref_sisa_codigo": 50220142126423, "ref_sisa_tipologia": "ESSIDT", "wikidata": "", "wikipedia": "" }, "geometry": { "type": "Point", "coordinates": [ -58.6318, -26.66375 ] } },
{ "type": "Feature", "properties": { "amenity": "clinic", "healthcare": "clinic", "operator": "Provincial", "operator_type": "public", "name": "Centro De Salud Puerto Las Palmas", "addr_full": "Zona Rural-Puerto Las Palmas", "addr_postcode": "3518", "phone": "", "ref_sisa_codigo": 50220142126430, "ref_sisa_tipologia": "ESSIDT", "wikidata": "", "wikipedia": "" }, "geometry": { "type": "Point", "coordinates": [ -58.6452, -27.1187 ] } },
{ "type": "Feature", "properties": { "amenity": "clinic", "healthcare": "clinic", "operator": "Provincial", "operator_type": "public", "name": "Centro De Salud San Carlos", "addr_full": "Zona Rural", "addr_postcode": "3522", "phone": "", "ref_sisa_codigo": 50220142126440, "ref_sisa_tipologia": "ESSIDT", "wikidata": "", "wikipedia": "" }, "geometry": { "type": "Point", "coordinates": [ -58.668, -26.958 ] } },
{ "type": "Feature", "properties": { "amenity": "clinic", "healthcare": "clinic", "operator": "Provincial", "operator_type": "public", "name": "Centro De Salud Solalinde", "addr_full": "Zona Rural", "addr_postcode": "3518", "phone": "", "ref_sisa_codigo": 50220142126456, "ref_sisa_tipologia": "ESSIDT", "wikidata": "", "wikipedia": "" }, "geometry": { "type": "Point", "coordinates": [ -58.6756611, -27.0617819 ] } },
{ "type": "Feature", "properties": { "amenity": "clinic", "healthcare": "clinic", "operator": "Provincial", "operator_type": "public", "name": "Centro De Salud Tres Horquetas(Dupl)", "addr_full": "Zona Rural-Tres Horquetas", "addr_postcode": "3522", "phone": "", "ref_sisa_codigo": 50220142126461, "ref_sisa_tipologia": "ESSIDT", "wikidata": "", "wikipedia": "" }, "geometry": { "type": "Point", "coordinates": [ -58.5993, -26.9662 ] } },
{ "type": "Feature", "properties": { "amenity": "clinic", "healthcare": "clinic", "operator": "Provincial", "operator_type": "public", "name": "Centro De Salud Viejo Asentamiento", "addr_full": "Zona Rural-Viejo Asentamiento", "addr_postcode": "3524", "phone": "", "ref_sisa_codigo": 50220142126468, "ref_sisa_tipologia": "ESSIDT", "wikidata": "", "wikipedia": "" }, "geometry": { "type": "Point", "coordinates": [ -58.508909, -26.928086 ] } },
{ "type": "Feature", "properties": { "amenity": "clinic", "healthcare": "clinic", "operator": "Municipal", "operator_type": "public", "name": "Centro Integrador Comunitario -Cic- Isla Del Cerrito", "addr_full": "Diagonal Uruguay", "addr_postcode": "3522", "phone": "03725 402357", "ref_sisa_codigo": 50220142227281, "ref_sisa_tipologia": "ESSIDT", "wikidata": "", "wikipedia": "" }, "geometry": { "type": "Point", "coordinates": [ -58.616998, -27.292397 ] } },
{ "type": "Feature", "properties": { "amenity": "hospital", "healthcare": "hospital", "operator": "Privado", "operator_type": "private", "name": "Clinica S.a.l.l.u.d. S.r.l.", "addr_full": "Jorge Denis 120", "addr_postcode": "3518", "phone": "(0362)- 447-0204", "ref_sisa_codigo": 10220142326014, "ref_sisa_tipologia": "ESCIG", "wikidata": "", "wikipedia": "" }, "geometry": { "type": "Point", "coordinates": [ -58.706669, -27.0433798 ] } },
{ "type": "Feature", "properties": { "amenity": "hospital", "healthcare": "hospital", "operator": "Privado", "operator_type": "private", "name": "Clinica Santa Rosa", "addr_full": "Manuel Belgrano Y 4 De Julio", "addr_postcode": "3518", "phone": "(0362)- 447-0019", "ref_sisa_codigo": 10220142326019, "ref_sisa_tipologia": "ESCIG", "wikidata": "", "wikipedia": "" }, "geometry": { "type": "Point", "coordinates": [ -58.702813, -27.03904 ] } },
{ "type": "Feature", "properties": { "amenity": "hospital", "healthcare": "hospital", "operator": "Provincial", "operator_type": "public", "name": "Hospital De La Hermandad Argentino Paraguaya", "addr_full": "Cacique Moreno Sin Numero Barrio La Isla", "addr_postcode": "3518", "phone": "0362 4471304", "ref_sisa_codigo": 10220142126030, "ref_sisa_tipologia": "ESCIG", "wikidata": "", "wikipedia": "" }, "geometry": { "type": "Point", "coordinates": [ -58.690409, -27.042447 ] } },
{ "type": "Feature", "properties": { "amenity": "hospital", "healthcare": "hospital", "operator": "Provincial", "operator_type": "public", "name": "Hospital Doctor Alejandro Fleming", "addr_full": "Juan María Chena 462", "addr_postcode": "3522", "phone": "0362-4470027", "ref_sisa_codigo": 10220142126032, "ref_sisa_tipologia": "ESCIG", "wikidata": "", "wikipedia": "" }, "geometry": { "type": "Point", "coordinates": [ -58.7042, -27.0409 ] } },
{ "type": "Feature", "properties": { "amenity": "hospital", "healthcare": "hospital", "operator": "Provincial", "operator_type": "public", "name": "Hospital Doctor Angel Ramon Bitti", "addr_full": "Av. San Martín S\/n", "addr_postcode": "3522", "phone": "0362-4498810", "ref_sisa_codigo": 10220142126058, "ref_sisa_tipologia": "ESCIG", "wikidata": "", "wikipedia": "" }, "geometry": { "type": "Point", "coordinates": [ -58.6638808, -26.9335869 ] } },
{ "type": "Feature", "properties": { "amenity": "hospital", "healthcare": "hospital", "operator": "Provincial", "operator_type": "public", "name": "Hospital Doctor Ernesto Merlo", "addr_full": "Dr. Raúl César Moreyra S\/n", "addr_postcode": "3524", "phone": "0362-4494049", "ref_sisa_codigo": 10220142126043, "ref_sisa_tipologia": "ESCIG", "wikidata": "", "wikipedia": "" }, "geometry": { "type": "Point", "coordinates": [ -58.544564, -26.90469 ] } },
{ "type": "Feature", "properties": { "amenity": "hospital", "healthcare": "hospital", "operator": "Privado", "operator_type": "private", "name": "Medicas Gimenez Srl", "addr_full": "Cosme Gimenez y San Lorenzo", "addr_postcode": "3518", "phone": "0362- 447-0062", "ref_sisa_codigo": 10220142326006, "ref_sisa_tipologia": "ESCIG", "wikidata": "", "wikipedia": "" }, "geometry": { "type": "Point", "coordinates": [ -58.677356, -27.048733 ] } }
]
}
