{
"type": "FeatureCollection",
"name": "054-rio_grande",
"features": [
{ "type": "Feature", "properties": { "amenity": "clinic", "healthcare": "clinic", "operator": "Provincial", "operator_type": "public", "name": "CAPS 1 Joaquin Goytisolo", "addr_full": "J. B. Thorne 2005", "addr_postcode": "9420", "phone": "02964-424765", "ref_sisa_codigo": 50940072195011, "ref_sisa_tipologia": "ESSIDT", "wikidata": "", "wikipedia": "" }, "geometry": { "type": "Point", "coordinates": [ -67.720547, -53.7935211 ] } },
{ "type": "Feature", "properties": { "amenity": "clinic", "healthcare": "clinic", "operator": "Provincial", "operator_type": "public", "name": "CAPS 2 Doctor Ernesto Loffler", "addr_full": "9 De Julio 1249", "addr_postcode": "9420", "phone": "0296-4421136", "ref_sisa_codigo": 50940072195013, "ref_sisa_tipologia": "ESSIDT", "wikidata": "", "wikipedia": "" }, "geometry": { "type": "Point", "coordinates": [ -67.7023029, -53.7935281 ] } },
{ "type": "Feature", "properties": { "amenity": "clinic", "healthcare": "clinic", "operator": "Provincial", "operator_type": "public", "name": "CAPS 3  Doctor Tomas Gonzalez", "addr_full": "Karukinka Y Kekumboch - Barrio Margen Sur", "addr_postcode": "9420", "phone": "02964-441373", "ref_sisa_codigo": 50940072195015, "ref_sisa_tipologia": "ESSIDT", "wikidata": "", "wikipedia": "" }, "geometry": { "type": "Point", "coordinates": [ -67.659925, -53.802614 ] } },
{ "type": "Feature", "properties": { "amenity": "clinic", "healthcare": "clinic", "operator": "Provincial", "operator_type": "public", "name": "CAPS 4 Zully Balberdi", "addr_full": "Juan Visic 3077", "addr_postcode": "9420", "phone": "0296-445284", "ref_sisa_codigo": 50940072195017, "ref_sisa_tipologia": "ESSIDT", "wikidata": "", "wikipedia": "" }, "geometry": { "type": "Point", "coordinates": [ -67.7381437, -53.7710643 ] } },
{ "type": "Feature", "properties": { "amenity": "clinic", "healthcare": "clinic", "operator": "Provincial", "operator_type": "public", "name": "CAPS 6 - Hilda Paredes", "addr_full": "Muñoz 1116", "addr_postcode": "9420", "phone": "02964-432354", "ref_sisa_codigo": 50940072195021, "ref_sisa_tipologia": "ESSIDT", "wikidata": "", "wikipedia": "" }, "geometry": { "type": "Point", "coordinates": [ -67.6868242, -53.7990684 ] } },
{ "type": "Feature", "properties": { "amenity": "clinic", "healthcare": "clinic", "operator": "Provincial", "operator_type": "public", "name": "CAPS 7 Soler De La Laguna", "addr_full": "Facundo Quiroga 2142", "addr_postcode": "9420", "phone": "", "ref_sisa_codigo": 50940072195101, "ref_sisa_tipologia": "ESSIDT", "wikidata": "", "wikipedia": "" }, "geometry": { "type": "Point", "coordinates": [ -67.7327728, -53.7902578 ] } },
{ "type": "Feature", "properties": { "amenity": "clinic", "healthcare": "clinic", "operator": "Provincial", "operator_type": "public", "name": "CAPS Nro. 5 Doctor Ramon Carrillo", "addr_full": "Avenida San Martin 2480", "addr_postcode": "9420", "phone": "0296-443520", "ref_sisa_codigo": 50940072195018, "ref_sisa_tipologia": "ESSIDT", "wikidata": "", "wikipedia": "" }, "geometry": { "type": "Point", "coordinates": [ -67.7270059, -53.7731721 ] } },
{ "type": "Feature", "properties": { "amenity": "hospital", "healthcare": "hospital", "operator": "Provincial", "operator_type": "public", "name": "Centro Asistencial Tolhuin", "addr_full": "Avenida De Los Shelknam 243", "addr_postcode": "9420", "phone": "(02901) 49-2121", "ref_sisa_codigo": 50940072195023, "ref_sisa_tipologia": "ESCIG", "wikidata": "", "wikipedia": "" }, "geometry": { "type": "Point", "coordinates": [ -67.6628637, -53.8015886 ] } },
{ "type": "Feature", "properties": { "amenity": "clinic", "healthcare": "clinic", "operator": "Municipal", "operator_type": "public", "name": "Centro De Atencion Municipal 1 Alberto Ferrer", "addr_full": "Luisa Rosso 779", "addr_postcode": "9420", "phone": "02964-430414", "ref_sisa_codigo": 50940072295025, "ref_sisa_tipologia": "ESSIDT", "wikidata": "", "wikipedia": "" }, "geometry": { "type": "Point", "coordinates": [ -67.7226071, -53.7664379 ] } },
{ "type": "Feature", "properties": { "amenity": "clinic", "healthcare": "clinic", "operator": "Provincial", "operator_type": "public", "name": "Centro De Dia ( Ex Cpa)", "addr_full": "Intevu 12 Casa 95", "addr_postcode": "9420", "phone": "02964-422285", "ref_sisa_codigo": 50940072195100, "ref_sisa_tipologia": "ESSIDT", "wikidata": "", "wikipedia": "" }, "geometry": { "type": "Point", "coordinates": [ -67.7120876, -53.7916268 ] } },
{ "type": "Feature", "properties": { "amenity": "clinic", "healthcare": "clinic", "operator": "Municipal", "operator_type": "public", "name": "Centro Medico Municipal 2 Chacra Xiii", "addr_full": "Hermana Antonieta Tapparello 389", "addr_postcode": "9420", "phone": "", "ref_sisa_codigo": 50940072295219, "ref_sisa_tipologia": "ESSIDT", "wikidata": "", "wikipedia": "" }, "geometry": { "type": "Point", "coordinates": [ -67.751047, -53.801713 ] } },
{ "type": "Feature", "properties": { "amenity": "clinic", "healthcare": "clinic", "operator": "Municipal", "operator_type": "public", "name": "Centro Medico Municipal Salud 3", "addr_full": "El Alambrador 212", "addr_postcode": "9420", "phone": "", "ref_sisa_codigo": 50940072295231, "ref_sisa_tipologia": "ESSIDT", "wikidata": "", "wikipedia": "" }, "geometry": { "type": "Point", "coordinates": [ -67.6794067, -53.8058331 ] } },
{ "type": "Feature", "properties": { "amenity": "hospital", "healthcare": "hospital", "operator": "Privado", "operator_type": "private", "name": "Clinica De Especialidades Medicas Privada (cemep)", "addr_full": "20 De Junio 815", "addr_postcode": "9420", "phone": "(02964) 431002", "ref_sisa_codigo": 10940072395000, "ref_sisa_tipologia": "ESCIG", "wikidata": "", "wikipedia": "" }, "geometry": { "type": "Point", "coordinates": [ -67.712239, -53.766114 ] } },
{ "type": "Feature", "properties": { "amenity": "hospital", "healthcare": "hospital", "operator": "Privado", "operator_type": "private", "name": "Clinica Del Sanatorio Fueguino De Diagnostico Y Tratamiento", "addr_full": "Cordoba 784", "addr_postcode": "9420", "phone": "(02964) 425017\/432068", "ref_sisa_codigo": 10940072395004, "ref_sisa_tipologia": "ESCIG", "wikidata": "", "wikipedia": "" }, "geometry": { "type": "Point", "coordinates": [ -67.7091717, -53.7699361 ] } },
{ "type": "Feature", "properties": { "amenity": "clinic", "healthcare": "clinic", "operator": "Municipal", "operator_type": "public", "name": "Consultorio Medico En Natatorio Municipal", "addr_full": "Alberdi 645", "addr_postcode": "9420", "phone": "", "ref_sisa_codigo": 50940072295261, "ref_sisa_tipologia": "ESSIDT", "wikidata": "", "wikipedia": "" }, "geometry": { "type": "Point", "coordinates": [ -67.7052271, -53.7872216 ] } },
{ "type": "Feature", "properties": { "amenity": "hospital", "healthcare": "hospital", "operator": "Provincial", "operator_type": "public", "name": "Hospital Regional Nuestra Seńora De La Candelaria.", "addr_full": "Avenida Manuel Belgrano 350", "addr_postcode": "9420", "phone": "422086\/ 422088", "ref_sisa_codigo": 10940072195002, "ref_sisa_tipologia": "ESCIG", "wikidata": "", "wikipedia": "" }, "geometry": { "type": "Point", "coordinates": [ -67.6973576, -53.7828964 ] } },
{ "type": "Feature", "properties": { "amenity": "clinic", "healthcare": "clinic", "operator": "Provincial", "operator_type": "public", "name": "Optica Del Instituto De Servicios Sociales De Tierra Del Fuego", "addr_full": "Prefectura Naval 55", "addr_postcode": "9420", "phone": "", "ref_sisa_codigo": 53940072195179, "ref_sisa_tipologia": "ESCL", "wikidata": "", "wikipedia": "" }, "geometry": { "type": "Point", "coordinates": [ -67.8076172, -53.8265967 ] } },
{ "type": "Feature", "properties": { "amenity": "clinic", "healthcare": "clinic", "operator": "Provincial", "operator_type": "public", "name": "Puesto Sanitario San Sebastian", "addr_full": "San Sebastian", "addr_postcode": "9420", "phone": "", "ref_sisa_codigo": 50940072195080, "ref_sisa_tipologia": "ESSIDT", "wikidata": "", "wikipedia": "" }, "geometry": { "type": "Point", "coordinates": [ -68.4695435, -53.299697 ] } },
{ "type": "Feature", "properties": { "amenity": "clinic", "healthcare": "clinic", "operator": "Provincial", "operator_type": "public", "name": "Unidades Sanitarias Moviles", "addr_full": "Pasaje Viqueira 20", "addr_postcode": "9420", "phone": "", "ref_sisa_codigo": 53940072195221, "ref_sisa_tipologia": "ESCL", "wikidata": "", "wikipedia": "" }, "geometry": { "type": "Point", "coordinates": [ -67.7035681, -53.7959608 ] } }
]
}
