{
"type": "FeatureCollection",
"name": "055-comuna_9",
"features": [
{ "type": "Feature", "properties": { "amenity": "clinic", "healthcare": "clinic", "operator": "Municipal", "operator_type": "public", "name": "Centro Edico Barrial 20", "addr_full": "Araujo 1246", "addr_postcode": "1407", "phone": "4682-1802", "ref_sisa_codigo": 50020092218932, "ref_sisa_tipologia": "ESSIDT", "wikidata": "", "wikipedia": "" }, "geometry": { "type": "Point", "coordinates": [ -58.4943973, -34.6493439 ] } },
{ "type": "Feature", "properties": { "amenity": "clinic", "healthcare": "clinic", "operator": "Municipal", "operator_type": "public", "name": "CESAC 13", "addr_full": "Directorio 4210", "addr_postcode": "1407", "phone": "(011) 4671-5693", "ref_sisa_codigo": 50020012115347, "ref_sisa_tipologia": "ESSIDT", "wikidata": "", "wikipedia": "" }, "geometry": { "type": "Point", "coordinates": [ -58.48183, -34.6433989 ] } },
{ "type": "Feature", "properties": { "amenity": "clinic", "healthcare": "clinic", "operator": "Municipal", "operator_type": "public", "name": "CESAC 14", "addr_full": "Horacio Casco 4446", "addr_postcode": "1439", "phone": "(011) 4602-6527\/ 5928", "ref_sisa_codigo": 50020012115348, "ref_sisa_tipologia": "ESSIDT", "wikidata": "Q90206249", "wikipedia": "" }, "geometry": { "type": "Point", "coordinates": [ -58.4743952, -34.6601581 ] } },
{ "type": "Feature", "properties": { "amenity": "clinic", "healthcare": "clinic", "operator": "Municipal", "operator_type": "public", "name": "CESAC 4", "addr_full": "Alberdi Y Pilar - Plaza Zalaberry", "addr_postcode": "1440", "phone": "(011) 4686-6660", "ref_sisa_codigo": 50020012115373, "ref_sisa_tipologia": "ESSIDT", "wikidata": "Q90206231", "wikipedia": "" }, "geometry": { "type": "Point", "coordinates": [ -58.507154, -34.6555391 ] } },
{ "type": "Feature", "properties": { "amenity": "clinic", "healthcare": "clinic", "operator": "Municipal", "operator_type": "public", "name": "CMB 20", "addr_full": "Araujo 1246", "addr_postcode": "1440", "phone": "(011) 4682-1802", "ref_sisa_codigo": 50020012115398, "ref_sisa_tipologia": "ESSIDT", "wikidata": "", "wikipedia": "" }, "geometry": { "type": "Point", "coordinates": [ -58.4945059, -34.649304 ] } },
{ "type": "Feature", "properties": { "amenity": "clinic", "healthcare": "clinic", "operator": "Municipal", "operator_type": "public", "name": "CMB 25", "addr_full": "Echeandia 3417", "addr_postcode": "1407", "phone": "(011) 4637-8831", "ref_sisa_codigo": 50020012115403, "ref_sisa_tipologia": "ESSIDT", "wikidata": "", "wikipedia": "" }, "geometry": { "type": "Point", "coordinates": [ -58.4650492, -34.6478925 ] } },
{ "type": "Feature", "properties": { "amenity": "clinic", "healthcare": "clinic", "operator": "Municipal", "operator_type": "public", "name": "CMB 7", "addr_full": "Patron 6119", "addr_postcode": "1408", "phone": "(011) 4642-5422", "ref_sisa_codigo": 50020012115421, "ref_sisa_tipologia": "ESSIDT", "wikidata": "", "wikipedia": "" }, "geometry": { "type": "Point", "coordinates": [ -58.5123761, -34.645174 ] } },
{ "type": "Feature", "properties": { "amenity": "clinic", "healthcare": "clinic", "operator": "Municipal", "operator_type": "public", "name": "COI 1", "addr_full": "Avenida De Los Corrales Y Carhue", "addr_postcode": "1440", "phone": "(011) 4687-0363", "ref_sisa_codigo": 50020012115424, "ref_sisa_tipologia": "ESSIDT", "wikidata": "Q90206189", "wikipedia": "" }, "geometry": { "type": "Point", "coordinates": [ -58.5040527, -34.665844 ] } },
{ "type": "Feature", "properties": { "amenity": "hospital", "healthcare": "hospital", "operator": "Municipal", "operator_type": "public", "name": "Hospital General De Agudos Donacion Francisco Santojanni", "addr_full": "Pilar 950", "addr_postcode": "", "phone": "(011) 4630-5500 \/ 5509", "ref_sisa_codigo": 10020012215215, "ref_sisa_tipologia": "ESCIG", "wikidata": "Q93140617", "wikipedia": "" }, "geometry": { "type": "Point", "coordinates": [ -58.5137844, -34.6489551 ] } },
{ "type": "Feature", "properties": { "amenity": "hospital", "healthcare": "hospital", "operator": "Obra social", "operator_type": "private", "name": "Sanatorio San Cayetano - Osmata", "addr_full": "Av. Directorio 4743", "addr_postcode": "1407", "phone": "(011) 4630-6500", "ref_sisa_codigo": 10020012715453, "ref_sisa_tipologia": "ESCIG", "wikidata": "Q93141695", "wikipedia": "" }, "geometry": { "type": "Point", "coordinates": [ -58.4887218, -34.648964 ] } },
{ "type": "Feature", "properties": { "amenity": "clinic", "healthcare": "clinic", "operator": "Municipal", "operator_type": "public", "name": "Unidad Sanitaria Puerto Argentino Ciudad Evita", "addr_full": "Roberto J.  Payr√≥ 351", "addr_postcode": "1778", "phone": "(011) 4620-2555", "ref_sisa_codigo": 50064272202740, "ref_sisa_tipologia": "ESSIDT", "wikidata": "", "wikipedia": "" }, "geometry": { "type": "Point", "coordinates": [ -58.4779549, -34.657135 ] } }
]
}
