{
"type": "FeatureCollection",
"name": "056-baradero",
"features": [
{ "type": "Feature", "properties": { "amenity": "clinic", "healthcare": "clinic", "operator": "Municipal", "operator_type": "public", "name": "CAPS Intendente Pedro Carossi Alsina", "addr_full": "Primera Junta Y San Marin S\/Nº", "addr_postcode": "2942", "phone": "03329-494095", "ref_sisa_codigo": 50060702201135, "ref_sisa_tipologia": "ESSIDT", "wikidata": "", "wikipedia": "" }, "geometry": { "type": "Point", "coordinates": [ -59.5046654, -33.8082354 ] } },
{ "type": "Feature", "properties": { "amenity": "clinic", "healthcare": "clinic", "operator": "Municipal", "operator_type": "public", "name": "CAPS Jose P. Astigueta", "addr_full": "Boedo Y Costa De Rio Baradero S\/Nº", "addr_postcode": "2942", "phone": "", "ref_sisa_codigo": 50060702201136, "ref_sisa_tipologia": "ESSIDT", "wikidata": "", "wikipedia": "" }, "geometry": { "type": "Point", "coordinates": [ -59.5066223, -33.8059104 ] } },
{ "type": "Feature", "properties": { "amenity": "clinic", "healthcare": "clinic", "operator": "Municipal", "operator_type": "public", "name": "CAPS Luis F. Leloir", "addr_full": "Martín De Gainza 3450", "addr_postcode": "2942", "phone": "03329-482451", "ref_sisa_codigo": 50060702201138, "ref_sisa_tipologia": "ESSIDT", "wikidata": "", "wikipedia": "" }, "geometry": { "type": "Point", "coordinates": [ -59.5195055, -33.8254487 ] } },
{ "type": "Feature", "properties": { "amenity": "clinic", "healthcare": "clinic", "operator": "Municipal", "operator_type": "public", "name": "Cic Baradero (Ex Unidad Perisferica Casimiro Liaudat)", "addr_full": "Maza Y Maipu S\/Nº", "addr_postcode": "2942", "phone": "033929-486706", "ref_sisa_codigo": 50060702201512, "ref_sisa_tipologia": "ESSIDT", "wikidata": "", "wikipedia": "" }, "geometry": { "type": "Point", "coordinates": [ -59.5018158, -33.8053399 ] } },
{ "type": "Feature", "properties": { "amenity": "hospital", "healthcare": "hospital", "operator": "Privado", "operator_type": "private", "name": "Clinica Privada Moderna", "addr_full": "Laprida", "addr_postcode": "2942", "phone": "", "ref_sisa_codigo": 10060702305010, "ref_sisa_tipologia": "ESCIG", "wikidata": "", "wikipedia": "" }, "geometry": { "type": "Point", "coordinates": [ -59.5018039, -33.8092207 ] } },
{ "type": "Feature", "properties": { "amenity": "hospital", "healthcare": "hospital", "operator": "Privado", "operator_type": "private", "name": "Clinica Privada Moderna Sa", "addr_full": "Boedo", "addr_postcode": "2942", "phone": "03329-480202", "ref_sisa_codigo": 10060702300135, "ref_sisa_tipologia": "ESCIG", "wikidata": "", "wikipedia": "" }, "geometry": { "type": "Point", "coordinates": [ -59.5004134, -33.8084573 ] } },
{ "type": "Feature", "properties": { "amenity": "hospital", "healthcare": "hospital", "operator": "Municipal", "operator_type": "public", "name": "Hospital Subzonal General Doctor Lino Pińeiro", "addr_full": "Teofilo Rosell 1170", "addr_postcode": "2942", "phone": "(03329) 48-0004", "ref_sisa_codigo": 10060702200364, "ref_sisa_tipologia": "ESCIG", "wikidata": "", "wikipedia": "" }, "geometry": { "type": "Point", "coordinates": [ -59.5025024, -33.8059104 ] } },
{ "type": "Feature", "properties": { "amenity": "clinic", "healthcare": "clinic", "operator": "Municipal", "operator_type": "public", "name": "Sala De Primeros Auxilios Pedro Carossi", "addr_full": "Ricardo Rojas 197", "addr_postcode": "2942", "phone": "03329-486702", "ref_sisa_codigo": 50060702201877, "ref_sisa_tipologia": "ESSIDT", "wikidata": "", "wikipedia": "" }, "geometry": { "type": "Point", "coordinates": [ -59.5079956, -33.806481 ] } },
{ "type": "Feature", "properties": { "amenity": "clinic", "healthcare": "clinic", "operator": "Municipal", "operator_type": "public", "name": "Sala De Primeros Auxilios Santa Coloma", "addr_full": "Delegacion Municipal S\/Nº", "addr_postcode": "2761", "phone": "02326-451035", "ref_sisa_codigo": 50060702201886, "ref_sisa_tipologia": "ESSIDT", "wikidata": "", "wikipedia": "" }, "geometry": { "type": "Point", "coordinates": [ -59.5485077, -34.0617045 ] } },
{ "type": "Feature", "properties": { "amenity": "hospital", "healthcare": "hospital", "operator": "Obra social", "operator_type": "private", "name": "Sanatorio Obra Social De Obreros Y Empleados De Refinerias De Maiz", "addr_full": "Rene Simon 910", "addr_postcode": "2942", "phone": "03329-480108", "ref_sisa_codigo": 10060702700462, "ref_sisa_tipologia": "ESCIG", "wikidata": "", "wikipedia": "" }, "geometry": { "type": "Point", "coordinates": [ -59.4976187, -33.8079376 ] } },
{ "type": "Feature", "properties": { "amenity": "hospital", "healthcare": "hospital", "operator": "Obra social", "operator_type": "private", "name": "Sanatorio Osprem", "addr_full": "Avenida René Simón 910", "addr_postcode": "2942", "phone": "(03329)480108", "ref_sisa_codigo": 10060702705006, "ref_sisa_tipologia": "ESCIG", "wikidata": "", "wikipedia": "" }, "geometry": { "type": "Point", "coordinates": [ -59.4983005, -33.8088465 ] } },
{ "type": "Feature", "properties": { "amenity": "clinic", "healthcare": "clinic", "operator": "Municipal", "operator_type": "public", "name": "Unidad Sanitaria Carmelo Di Gregorio", "addr_full": "Primera Colonia S\/Nº", "addr_postcode": "2943", "phone": "03329-496033", "ref_sisa_codigo": 50060702202163, "ref_sisa_tipologia": "ESSIDT", "wikidata": "", "wikipedia": "" }, "geometry": { "type": "Point", "coordinates": [ -59.6693573, -33.9734883 ] } },
{ "type": "Feature", "properties": { "amenity": "clinic", "healthcare": "clinic", "operator": "Municipal", "operator_type": "public", "name": "Unidad Sanitaria Nuestra Señora De Pompeya", "addr_full": "Maza 350", "addr_postcode": "2942", "phone": "03329-486697", "ref_sisa_codigo": 50060702202692, "ref_sisa_tipologia": "ESSIDT", "wikidata": "", "wikipedia": "" }, "geometry": { "type": "Point", "coordinates": [ -59.5038757, -33.8053399 ] } },
{ "type": "Feature", "properties": { "amenity": "clinic", "healthcare": "clinic", "operator": "Municipal", "operator_type": "public", "name": "Unidad Sanitaria Pedro Carossi", "addr_full": "Del Corro Y Ricardo Rojas", "addr_postcode": "2942", "phone": "03329-486702", "ref_sisa_codigo": 50060702202718, "ref_sisa_tipologia": "ESSIDT", "wikidata": "", "wikipedia": "" }, "geometry": { "type": "Point", "coordinates": [ -59.505249, -33.8053399 ] } }
]
}
