{
"type": "FeatureCollection",
"name": "057-san_isidro",
"features": [
{ "type": "Feature", "properties": { "amenity": "clinic", "healthcare": "clinic", "operator": "Municipal", "operator_type": "public", "name": "CAPS Bajo Boulogne", "addr_full": "Avenida Camino Real Morón 902", "addr_postcode": "1609", "phone": "(011) 4512-7824", "ref_sisa_codigo": 50067562201452, "ref_sisa_tipologia": "ESSIDT", "wikidata": "", "wikipedia": "" }, "geometry": { "type": "Point", "coordinates": [ -58.5818846, -34.4883778 ] } },
{ "type": "Feature", "properties": { "amenity": "clinic", "healthcare": "clinic", "operator": "Municipal", "operator_type": "public", "name": "CAPS Beccar", "addr_full": "Udaondo Y Bergallo", "addr_postcode": "1643", "phone": "(011) 4512-3152", "ref_sisa_codigo": 50067562201457, "ref_sisa_tipologia": "ESSIDT", "wikidata": "", "wikipedia": "" }, "geometry": { "type": "Point", "coordinates": [ -58.5472974, -34.463606 ] } },
{ "type": "Feature", "properties": { "amenity": "clinic", "healthcare": "clinic", "operator": "Municipal", "operator_type": "public", "name": "CAPS Diagonal Salta", "addr_full": "Fray Luis Beltran 1110", "addr_postcode": "1640", "phone": "011-45803127", "ref_sisa_codigo": 50067562201468, "ref_sisa_tipologia": "ESSIDT", "wikidata": "", "wikipedia": "" }, "geometry": { "type": "Point", "coordinates": [ -58.51992, -34.490413 ] } },
{ "type": "Feature", "properties": { "amenity": "clinic", "healthcare": "clinic", "operator": "Municipal", "operator_type": "public", "name": "CAPS La Ribera", "addr_full": "Coronel Rosales 1196", "addr_postcode": "1642", "phone": "011-45123150", "ref_sisa_codigo": 50067562201471, "ref_sisa_tipologia": "ESSIDT", "wikidata": "", "wikipedia": "" }, "geometry": { "type": "Point", "coordinates": [ -58.5011448, -34.4666194 ] } },
{ "type": "Feature", "properties": { "amenity": "clinic", "healthcare": "clinic", "operator": "Municipal", "operator_type": "public", "name": "CAPS Martinez", "addr_full": "Saenz Valiente 2110", "addr_postcode": "1640", "phone": "011-45803125", "ref_sisa_codigo": 50067562201472, "ref_sisa_tipologia": "ESSIDT", "wikidata": "", "wikipedia": "" }, "geometry": { "type": "Point", "coordinates": [ -58.5264384, -34.4966538 ] } },
{ "type": "Feature", "properties": { "amenity": "clinic", "healthcare": "clinic", "operator": "Municipal", "operator_type": "public", "name": "CAPS Villa Adelina", "addr_full": "Avenida De Mayo 1397", "addr_postcode": "1607", "phone": "(011) 4513-7823", "ref_sisa_codigo": 50067562201494, "ref_sisa_tipologia": "ESSIDT", "wikidata": "", "wikipedia": "" }, "geometry": { "type": "Point", "coordinates": [ -58.5449402, -34.520996 ] } },
{ "type": "Feature", "properties": { "amenity": "clinic", "healthcare": "clinic", "operator": "Municipal", "operator_type": "public", "name": "CAPS Doctor Ramon Carrillo", "addr_full": "Tomkinson 2130", "addr_postcode": "1642", "phone": "011-47173148", "ref_sisa_codigo": 50067562201104, "ref_sisa_tipologia": "ESSIDT", "wikidata": "", "wikipedia": "" }, "geometry": { "type": "Point", "coordinates": [ -58.5455162, -34.4767291 ] } },
{ "type": "Feature", "properties": { "amenity": "clinic", "healthcare": "clinic", "operator": "Municipal", "operator_type": "public", "name": "CAPS San Pantaleon", "addr_full": "Bernardo De Irigoyen 2140", "addr_postcode": "1642", "phone": "", "ref_sisa_codigo": 50067562217965, "ref_sisa_tipologia": "ESSIDT", "wikidata": "", "wikipedia": "" }, "geometry": { "type": "Point", "coordinates": [ -58.5847696, -34.4942329 ] } },
{ "type": "Feature", "properties": { "amenity": "clinic", "healthcare": "clinic", "operator": "Municipal", "operator_type": "public", "name": "CAPS San Isidro Labrador", "addr_full": "Tomkinson Y Av. Andrés Rolón", "addr_postcode": "1643", "phone": "4732-9369", "ref_sisa_codigo": 50067562206994, "ref_sisa_tipologia": "ESSIDT", "wikidata": "", "wikipedia": "" }, "geometry": { "type": "Point", "coordinates": [ -58.5382354, -34.4725242 ] } },
{ "type": "Feature", "properties": { "amenity": "clinic", "healthcare": "clinic", "operator": "Municipal", "operator_type": "public", "name": "Centro De Francisco Muñiz El Nido", "addr_full": "Avenida Andres Rolón 1854 - Pb", "addr_postcode": "1643", "phone": "(011) 4512-3453", "ref_sisa_codigo": 50067562201243, "ref_sisa_tipologia": "ESSIDT", "wikidata": "", "wikipedia": "" }, "geometry": { "type": "Point", "coordinates": [ -58.541613, -34.468421 ] } },
{ "type": "Feature", "properties": { "amenity": "clinic", "healthcare": "clinic", "operator": "Municipal", "operator_type": "public", "name": "Centro De Promocion De La Salud", "addr_full": "Int Neyer 1220", "addr_postcode": "1643", "phone": "011-45123144", "ref_sisa_codigo": 50067562201185, "ref_sisa_tipologia": "ESSIDT", "wikidata": "", "wikipedia": "" }, "geometry": { "type": "Point", "coordinates": [ -58.5374037, -34.468781 ] } },
{ "type": "Feature", "properties": { "amenity": "clinic", "healthcare": "clinic", "operator": "Municipal", "operator_type": "public", "name": "Centro De Salud Med. Prev Y Sanitaria", "addr_full": "Alem 81", "addr_postcode": "1642", "phone": "011-45123581", "ref_sisa_codigo": 50067562201268, "ref_sisa_tipologia": "ESSIDT", "wikidata": "", "wikipedia": "" }, "geometry": { "type": "Point", "coordinates": [ -58.5129826, -34.473223 ] } },
{ "type": "Feature", "properties": { "amenity": "hospital", "healthcare": "hospital", "operator": "Privado", "operator_type": "private", "name": "Clinica Angelus", "addr_full": "Avenida Fondo De La Legua 390", "addr_postcode": "1642", "phone": "(011) 4735-0315", "ref_sisa_codigo": 10067562300018, "ref_sisa_tipologia": "ESCIG", "wikidata": "", "wikipedia": "" }, "geometry": { "type": "Point", "coordinates": [ -58.5459173, -34.4970987 ] } },
{ "type": "Feature", "properties": { "amenity": "hospital", "healthcare": "hospital", "operator": "Municipal", "operator_type": "public", "name": "Hospital Central De San Isidro Doctor Melchor A. Posse", "addr_full": "Avenida Santa Fe 431", "addr_postcode": "1642", "phone": "011-45123723", "ref_sisa_codigo": 10067562200293, "ref_sisa_tipologia": "ESCIG", "wikidata": "", "wikipedia": "" }, "geometry": { "type": "Point", "coordinates": [ -58.5096515, -34.4774707 ] } },
{ "type": "Feature", "properties": { "amenity": "hospital", "healthcare": "hospital", "operator": "Municipal", "operator_type": "public", "name": "Hospital Ciudad De Boulogne", "addr_full": "Avenida Avelino Rolón 1200", "addr_postcode": "1642", "phone": "(011) 4513-7860", "ref_sisa_codigo": 10067562200202, "ref_sisa_tipologia": "ESCIG", "wikidata": "", "wikipedia": "" }, "geometry": { "type": "Point", "coordinates": [ -58.5594559, -34.5012796 ] } },
{ "type": "Feature", "properties": { "amenity": "hospital", "healthcare": "hospital", "operator": "Municipal", "operator_type": "public", "name": "Hospital Municipal Profesor Doctor Bernardo Houssay", "addr_full": "Hipólito Yrigoyen 1750\/57", "addr_postcode": "1602", "phone": "(011) 4797-2004", "ref_sisa_codigo": 10068612200298, "ref_sisa_tipologia": "ESCIG", "wikidata": "", "wikipedia": "" }, "geometry": { "type": "Point", "coordinates": [ -58.5210109, -34.4992089 ] } },
{ "type": "Feature", "properties": { "amenity": "hospital", "healthcare": "hospital", "operator": "Privado", "operator_type": "private", "name": "Nueva Clinica Privada Beccar", "addr_full": "Julian Navarro 48", "addr_postcode": "1643", "phone": "(011) 4743-0396", "ref_sisa_codigo": 10067562300019, "ref_sisa_tipologia": "ESCIG", "wikidata": "", "wikipedia": "" }, "geometry": { "type": "Point", "coordinates": [ -58.5295774, -34.4599991 ] } },
{ "type": "Feature", "properties": { "amenity": "hospital", "healthcare": "hospital", "operator": "Privado", "operator_type": "private", "name": "Sanatorio De La Trinidad San Isidro", "addr_full": "Avenida Fondo De La Legua 851", "addr_postcode": "1642", "phone": "", "ref_sisa_codigo": 10067562305066, "ref_sisa_tipologia": "ESCIG", "wikidata": "", "wikipedia": "" }, "geometry": { "type": "Point", "coordinates": [ -58.542869, -34.4998189 ] } },
{ "type": "Feature", "properties": { "amenity": "hospital", "healthcare": "hospital", "operator": "Privado", "operator_type": "private", "name": "Sanatorio Las Lomas", "addr_full": "Avenida Diego Carman 555", "addr_postcode": "1642", "phone": "(011) 4129-5500", "ref_sisa_codigo": 10067562306613, "ref_sisa_tipologia": "ESCIG", "wikidata": "", "wikipedia": "" }, "geometry": { "type": "Point", "coordinates": [ -58.5447763, -34.4959574 ] } },
{ "type": "Feature", "properties": { "amenity": "hospital", "healthcare": "hospital", "operator": "Privado", "operator_type": "private", "name": "Sanatorio San Lucas", "addr_full": "Belgrano 369", "addr_postcode": "1642", "phone": "47428888", "ref_sisa_codigo": 10067562307333, "ref_sisa_tipologia": "ESCIG", "wikidata": "", "wikipedia": "" }, "geometry": { "type": "Point", "coordinates": [ -58.5104154, -34.4697797 ] } },
{ "type": "Feature", "properties": { "amenity": "hospital", "healthcare": "hospital", "operator": "Privado", "operator_type": "private", "name": "Sanatorio Santa Sofia", "addr_full": "Los Ceibos 1792", "addr_postcode": "1607", "phone": "", "ref_sisa_codigo": 10067562316690, "ref_sisa_tipologia": "ESCIG", "wikidata": "", "wikipedia": "" }, "geometry": { "type": "Point", "coordinates": [ -58.5495305, -34.5260771 ] } },
{ "type": "Feature", "properties": { "amenity": "clinic", "healthcare": "clinic", "operator": "Municipal", "operator_type": "public", "name": "Unidad Sanidad Centro Civico Boulogne", "addr_full": "Avelino Rolon 2305", "addr_postcode": "1609", "phone": "011-4513-7821", "ref_sisa_codigo": 50067562202037, "ref_sisa_tipologia": "ESSIDT", "wikidata": "", "wikipedia": "" }, "geometry": { "type": "Point", "coordinates": [ -58.5674636, -34.5126595 ] } }
]
}
