{
"type": "FeatureCollection",
"name": "058-san_miguel",
"features": [
{ "type": "Feature", "properties": { "amenity": "clinic", "healthcare": "clinic", "operator": "Municipal", "operator_type": "public", "name": "29 De Septiembre", "addr_full": "Letonia Y Rodrigo De Triana", "addr_postcode": "1663", "phone": "011-44515843", "ref_sisa_codigo": 50067602202948, "ref_sisa_tipologia": "ESSIDT", "wikidata": "", "wikipedia": "" }, "geometry": { "type": "Point", "coordinates": [ -58.7587364, -34.5583992 ] } },
{ "type": "Feature", "properties": { "amenity": "clinic", "healthcare": "clinic", "operator": "Municipal", "operator_type": "public", "name": "CAPS 20 De Julio", "addr_full": "Carlos María De Alvear 1889", "addr_postcode": "1663", "phone": "", "ref_sisa_codigo": 50067602216399, "ref_sisa_tipologia": "ESSIDT", "wikidata": "", "wikipedia": "" }, "geometry": { "type": "Point", "coordinates": [ -58.7353856, -34.5579673 ] } },
{ "type": "Feature", "properties": { "amenity": "clinic", "healthcare": "clinic", "operator": "Municipal", "operator_type": "public", "name": "CAPS Doctor Luis Suarez Paris", "addr_full": "Tomás A. Edison 3285", "addr_postcode": "1663", "phone": "", "ref_sisa_codigo": 50067602216374, "ref_sisa_tipologia": "ESSIDT", "wikidata": "", "wikipedia": "" }, "geometry": { "type": "Point", "coordinates": [ -58.7436074, -34.5473201 ] } },
{ "type": "Feature", "properties": { "amenity": "clinic", "healthcare": "clinic", "operator": "Municipal", "operator_type": "public", "name": "CAPS Doctor Raul Matera", "addr_full": "Emilio Lamarca 1217", "addr_postcode": "1661", "phone": "(011) 4468-0299", "ref_sisa_codigo": 50067602202416, "ref_sisa_tipologia": "ESSIDT", "wikidata": "", "wikipedia": "" }, "geometry": { "type": "Point", "coordinates": [ -58.7186485, -34.5970842 ] } },
{ "type": "Feature", "properties": { "amenity": "clinic", "healthcare": "clinic", "operator": "Municipal", "operator_type": "public", "name": "CAPS Doctor Rene Favaloro", "addr_full": "Aristóbulo Del Valle 5219", "addr_postcode": "1663", "phone": "", "ref_sisa_codigo": 50067602216427, "ref_sisa_tipologia": "ESSIDT", "wikidata": "", "wikipedia": "" }, "geometry": { "type": "Point", "coordinates": [ -58.7324493, -34.5831762 ] } },
{ "type": "Feature", "properties": { "amenity": "clinic", "healthcare": "clinic", "operator": "Municipal", "operator_type": "public", "name": "CAPS Padre Mora", "addr_full": "Pavón 2723", "addr_postcode": "1663", "phone": "011-44515786", "ref_sisa_codigo": 50067602216379, "ref_sisa_tipologia": "ESSIDT", "wikidata": "", "wikipedia": "" }, "geometry": { "type": "Point", "coordinates": [ -58.7156656, -34.5245707 ] } },
{ "type": "Feature", "properties": { "amenity": "clinic", "healthcare": "clinic", "operator": "Municipal", "operator_type": "public", "name": "CAPS San Miguel Oeste", "addr_full": "Maestro Eduardo Ferreyra 1800", "addr_postcode": "1663", "phone": "", "ref_sisa_codigo": 50067602216435, "ref_sisa_tipologia": "ESSIDT", "wikidata": "", "wikipedia": "" }, "geometry": { "type": "Point", "coordinates": [ -58.7441943, -34.5675793 ] } },
{ "type": "Feature", "properties": { "amenity": "clinic", "healthcare": "clinic", "operator": "Municipal", "operator_type": "public", "name": "CAPS Venerable Madre De San Jose Barrio Camila Rolon", "addr_full": "General Las Heras 956", "addr_postcode": "1663", "phone": "", "ref_sisa_codigo": 50067602215008, "ref_sisa_tipologia": "ESSIDT", "wikidata": "", "wikipedia": "" }, "geometry": { "type": "Point", "coordinates": [ -58.7032229, -34.5452496 ] } },
{ "type": "Feature", "properties": { "amenity": "clinic", "healthcare": "clinic", "operator": "Municipal", "operator_type": "public", "name": "Centro De Salud Candido Castelo", "addr_full": "Aristóbulo Del Valle Y Bramante", "addr_postcode": "1663", "phone": "011-44557326", "ref_sisa_codigo": 50067602201211, "ref_sisa_tipologia": "ESSIDT", "wikidata": "", "wikipedia": "" }, "geometry": { "type": "Point", "coordinates": [ -58.7215805, -34.5736168 ] } },
{ "type": "Feature", "properties": { "amenity": "clinic", "healthcare": "clinic", "operator": "Municipal", "operator_type": "public", "name": "Centro De Salud La Casita", "addr_full": "Serrano 2773 (Entre Primera Junta Y Salerno)", "addr_postcode": "1663", "phone": "", "ref_sisa_codigo": 50067602201252, "ref_sisa_tipologia": "ESSIDT", "wikidata": "", "wikipedia": "" }, "geometry": { "type": "Point", "coordinates": [ -58.7215821, -34.5301435 ] } },
{ "type": "Feature", "properties": { "amenity": "clinic", "healthcare": "clinic", "operator": "Municipal", "operator_type": "public", "name": "Centro Materno Infantil 1 Bella Vista De San Miguel", "addr_full": "Mattaldi 1057", "addr_postcode": "1661", "phone": "(011) 4666-0221", "ref_sisa_codigo": 50067602201404, "ref_sisa_tipologia": "ESSIDT", "wikidata": "", "wikipedia": "" }, "geometry": { "type": "Point", "coordinates": [ -58.6802959, -34.5618843 ] } },
{ "type": "Feature", "properties": { "amenity": "clinic", "healthcare": "clinic", "operator": "Municipal", "operator_type": "public", "name": "Cic Maria Lobato", "addr_full": "Juan Jose Paso Y Av. Almirante J.R. López", "addr_postcode": "1663", "phone": "", "ref_sisa_codigo": 50067602201523, "ref_sisa_tipologia": "ESSIDT", "wikidata": "", "wikipedia": "" }, "geometry": { "type": "Point", "coordinates": [ -58.729505, -34.573771 ] } },
{ "type": "Feature", "properties": { "amenity": "hospital", "healthcare": "hospital", "operator": "Privado", "operator_type": "private", "name": "Clinica Bessone", "addr_full": "Paunero 1652", "addr_postcode": "1663", "phone": "(011) 46672040", "ref_sisa_codigo": 10067602305056, "ref_sisa_tipologia": "ESCIG", "wikidata": "", "wikipedia": "" }, "geometry": { "type": "Point", "coordinates": [ -58.7286061, -34.5289453 ] } },
{ "type": "Feature", "properties": { "amenity": "hospital", "healthcare": "hospital", "operator": "Privado", "operator_type": "private", "name": "Clinica Privada Sanatorio General Sarmiento", "addr_full": "Avenida Presidente Juan Domingo Perón 1796", "addr_postcode": "1663", "phone": "(011) 46643092", "ref_sisa_codigo": 10067602300158, "ref_sisa_tipologia": "ESCIG", "wikidata": "", "wikipedia": "" }, "geometry": { "type": "Point", "coordinates": [ -58.7145504, -34.5400795 ] } },
{ "type": "Feature", "properties": { "amenity": "hospital", "healthcare": "hospital", "operator": "Privado", "operator_type": "private", "name": "Consultorios Oftalmologicos Serrano", "addr_full": "Serrano 1264", "addr_postcode": "1663", "phone": "46641293", "ref_sisa_codigo": 10067602315066, "ref_sisa_tipologia": "ESCIG", "wikidata": "", "wikipedia": "" }, "geometry": { "type": "Point", "coordinates": [ -58.704824, -34.541722 ] } },
{ "type": "Feature", "properties": { "amenity": "clinic", "healthcare": "clinic", "operator": "Municipal", "operator_type": "public", "name": "Doctor Luis Domingo Suarez Paris", "addr_full": "Calle Platon Esq. Tomás A. Edison", "addr_postcode": "1663", "phone": "011-44515843", "ref_sisa_codigo": 50067602201613, "ref_sisa_tipologia": "ESSIDT", "wikidata": "", "wikipedia": "" }, "geometry": { "type": "Point", "coordinates": [ -58.743639, -34.5474284 ] } },
{ "type": "Feature", "properties": { "amenity": "hospital", "healthcare": "hospital", "operator": "FFAA\/Seguridad", "operator_type": "public", "name": "Hospital Militar Campo De Mayo", "addr_full": "Av Tte Grl Pablo Riccheri S\/nro - Campo De Mayo", "addr_postcode": "1659", "phone": "011-4666-0859", "ref_sisa_codigo": 10067602400281, "ref_sisa_tipologia": "ESCIG", "wikidata": "Q48785326", "wikipedia": "ES:Campo de Mayo Military Hospital" }, "geometry": { "type": "Point", "coordinates": [ -58.67309, -34.549476 ] } },
{ "type": "Feature", "properties": { "amenity": "hospital", "healthcare": "hospital", "operator": "Municipal", "operator_type": "public", "name": "Hospital Municipal Doctor Raul Larcade", "addr_full": "Avenida Presidente Juan Domingo Perón 2311", "addr_postcode": "1663", "phone": "(011) 4451-5830", "ref_sisa_codigo": 10067602200313, "ref_sisa_tipologia": "ESCIG", "wikidata": "", "wikipedia": "" }, "geometry": { "type": "Point", "coordinates": [ -58.7205075, -34.5360326 ] } },
{ "type": "Feature", "properties": { "amenity": "hospital", "healthcare": "hospital", "operator": "Municipal", "operator_type": "public", "name": "Hospital Municipal San Miguel Arcangel", "addr_full": "Avenida Mattaldi 1057", "addr_postcode": "1661", "phone": "", "ref_sisa_codigo": 10067602217952, "ref_sisa_tipologia": "ESCIG", "wikidata": "", "wikipedia": "" }, "geometry": { "type": "Point", "coordinates": [ -58.67873, -34.562053 ] } },
{ "type": "Feature", "properties": { "amenity": "hospital", "healthcare": "hospital", "operator": "Privado", "operator_type": "private", "name": "Sanatorio San Miguel", "addr_full": "Sarmiento 1646", "addr_postcode": "1663", "phone": "(011) 4664-4343", "ref_sisa_codigo": 10067602300479, "ref_sisa_tipologia": "ESCIG", "wikidata": "", "wikipedia": "" }, "geometry": { "type": "Point", "coordinates": [ -58.7387252, -34.5530661 ] } },
{ "type": "Feature", "properties": { "amenity": "clinic", "healthcare": "clinic", "operator": "Municipal", "operator_type": "public", "name": "Unidad Sanitaria Atencion Programada Ufo", "addr_full": "Pringles 2774 - Barrio Manuelita", "addr_postcode": "1663", "phone": "(011) 4465-5211", "ref_sisa_codigo": 50067602202065, "ref_sisa_tipologia": "ESSIDT", "wikidata": "", "wikipedia": "" }, "geometry": { "type": "Point", "coordinates": [ -58.731605, -34.548908 ] } },
{ "type": "Feature", "properties": { "amenity": "clinic", "healthcare": "clinic", "operator": "Municipal", "operator_type": "public", "name": "Unidad Sanitaria Barrio Barrufaldi", "addr_full": "O. V. Andrade 1953 - Bo. Barrufaldi - Bella Vista", "addr_postcode": "1661", "phone": "011-46664396", "ref_sisa_codigo": 50067602202078, "ref_sisa_tipologia": "ESSIDT", "wikidata": "", "wikipedia": "" }, "geometry": { "type": "Point", "coordinates": [ -58.6601668, -34.5643936 ] } },
{ "type": "Feature", "properties": { "amenity": "clinic", "healthcare": "clinic", "operator": "Municipal", "operator_type": "public", "name": "Unidad Sanitaria Barrio Mitre De San Miguel", "addr_full": "Coronel Charlone 4553", "addr_postcode": "1663", "phone": "(011) 4455-1558", "ref_sisa_codigo": 50067602202107, "ref_sisa_tipologia": "ESSIDT", "wikidata": "", "wikipedia": "" }, "geometry": { "type": "Point", "coordinates": [ -58.7372471, -34.5704685 ] } },
{ "type": "Feature", "properties": { "amenity": "clinic", "healthcare": "clinic", "operator": "Municipal", "operator_type": "public", "name": "Unidad Sanitaria Barrio Obligado", "addr_full": "Salta 2749 Entre Iguazú Y Diamante - Barrio Obligado", "addr_postcode": "1661", "phone": "(011) 4666-4981", "ref_sisa_codigo": 50067602202115, "ref_sisa_tipologia": "ESSIDT", "wikidata": "", "wikipedia": "" }, "geometry": { "type": "Point", "coordinates": [ -58.688325, -34.581226 ] } },
{ "type": "Feature", "properties": { "amenity": "clinic", "healthcare": "clinic", "operator": "Municipal", "operator_type": "public", "name": "Unidad Sanitaria Barrio Trujuy", "addr_full": "Aristóbulo Del Valle 6219 Y Tres Marías - Barrio Trujuy", "addr_postcode": "1663", "phone": "(011) 4465-5238", "ref_sisa_codigo": 50067602202139, "ref_sisa_tipologia": "ESSIDT", "wikidata": "", "wikipedia": "" }, "geometry": { "type": "Point", "coordinates": [ -58.732403, -34.583129 ] } },
{ "type": "Feature", "properties": { "amenity": "clinic", "healthcare": "clinic", "operator": "Municipal", "operator_type": "public", "name": "Unidad Sanitaria Bella Vista Norte", "addr_full": "Misiones Y Sordeaux", "addr_postcode": "1661", "phone": "(011) 4666-2343", "ref_sisa_codigo": 50067602202149, "ref_sisa_tipologia": "ESSIDT", "wikidata": "", "wikipedia": "" }, "geometry": { "type": "Point", "coordinates": [ -58.684055, -34.555252 ] } },
{ "type": "Feature", "properties": { "amenity": "clinic", "healthcare": "clinic", "operator": "Municipal", "operator_type": "public", "name": "Unidad Sanitaria Doctor Sabin (Ex Los Paraisos)", "addr_full": "Génova Y España - Barrio Los Paraísos", "addr_postcode": "1663", "phone": "(011) 4465-5228", "ref_sisa_codigo": 50067602202250, "ref_sisa_tipologia": "ESSIDT", "wikidata": "", "wikipedia": "" }, "geometry": { "type": "Point", "coordinates": [ -58.752462, -34.575396 ] } },
{ "type": "Feature", "properties": { "amenity": "clinic", "healthcare": "clinic", "operator": "Municipal", "operator_type": "public", "name": "Unidad Sanitaria Dra. Marta Antoniazzi (Ex-Us Virgen De Lujan)", "addr_full": "Int. Juan Irigoin Entre El Zonda Y Avenida Almirante J.R. López - Barrio Sarmiento", "addr_postcode": "1663", "phone": "(011) 4465-4967", "ref_sisa_codigo": 50067602202255, "ref_sisa_tipologia": "ESSIDT", "wikidata": "", "wikipedia": "" }, "geometry": { "type": "Point", "coordinates": [ -58.747473, -34.561447 ] } },
{ "type": "Feature", "properties": { "amenity": "clinic", "healthcare": "clinic", "operator": "Municipal", "operator_type": "public", "name": "Unidad Sanitaria Presidente Peron De San Miguel", "addr_full": "Marconi Y La Pinta - Santa Brígida", "addr_postcode": "1663", "phone": "(011) 4465-2476", "ref_sisa_codigo": 50067602202734, "ref_sisa_tipologia": "ESSIDT", "wikidata": "", "wikipedia": "" }, "geometry": { "type": "Point", "coordinates": [ -58.766946, -34.562727 ] } },
{ "type": "Feature", "properties": { "amenity": "clinic", "healthcare": "clinic", "operator": "Municipal", "operator_type": "public", "name": "Unidad Sanitaria Ramon Carrillo De San Miguel", "addr_full": "Americo Vespucio Y Corrientes", "addr_postcode": "1663", "phone": "011-44681071", "ref_sisa_codigo": 50067602202747, "ref_sisa_tipologia": "ESSIDT", "wikidata": "", "wikipedia": "" }, "geometry": { "type": "Point", "coordinates": [ -58.730358, -34.5895222 ] } },
{ "type": "Feature", "properties": { "amenity": "clinic", "healthcare": "clinic", "operator": "Municipal", "operator_type": "public", "name": "Unidad Sanitaria San Ambrosio Doctor Esquivel", "addr_full": "El Ceibo 2758 - Barrio Lomas De Marilo", "addr_postcode": "1664", "phone": "011-44680453", "ref_sisa_codigo": 50065602202772, "ref_sisa_tipologia": "ESSIDT", "wikidata": "", "wikipedia": "" }, "geometry": { "type": "Point", "coordinates": [ -58.7298954, -34.5937892 ] } },
{ "type": "Feature", "properties": { "amenity": "clinic", "healthcare": "clinic", "operator": "Municipal", "operator_type": "public", "name": "Unidad Sanitaria San Miguel Oeste", "addr_full": "Maestro Eduardo Ferreyra 1789", "addr_postcode": "1663", "phone": "", "ref_sisa_codigo": 50067602215009, "ref_sisa_tipologia": "ESSIDT", "wikidata": "", "wikipedia": "" }, "geometry": { "type": "Point", "coordinates": [ -58.7440729, -34.5676635 ] } }
]
}
