{
"type": "FeatureCollection",
"name": "059-mayor_luis_jorge_fontana",
"features": [
{ "type": "Feature", "properties": { "amenity": "clinic", "healthcare": "clinic", "operator": "Provincial", "operator_type": "public", "name": "CAPS  Drs. L.Cahn- Jaime Braverman", "addr_full": "Calle Publica E\/ Moreno Y Balcarce", "addr_postcode": "3540", "phone": "03735-429018", "ref_sisa_codigo": 50220982126113, "ref_sisa_tipologia": "ESSIDT", "wikidata": "", "wikipedia": "" }, "geometry": { "type": "Point", "coordinates": [ -60.7238388, -27.5748624 ] } },
{ "type": "Feature", "properties": { "amenity": "clinic", "healthcare": "clinic", "operator": "Provincial", "operator_type": "public", "name": "Centro De Salud Abel Otaño", "addr_full": "Tucumán Y Chacabuco", "addr_postcode": "3540", "phone": "", "ref_sisa_codigo": 50220982126126, "ref_sisa_tipologia": "ESSIDT", "wikidata": "", "wikipedia": "" }, "geometry": { "type": "Point", "coordinates": [ -60.7012868, -27.5743869 ] } },
{ "type": "Feature", "properties": { "amenity": "clinic", "healthcare": "clinic", "operator": "Provincial", "operator_type": "public", "name": "Centro De Salud Colonia El Pastoril", "addr_full": "Zona Rural-Colonia Pastoril", "addr_postcode": "3540", "phone": "", "ref_sisa_codigo": 50220982126190, "ref_sisa_tipologia": "ESSIDT", "wikidata": "", "wikipedia": "" }, "geometry": { "type": "Point", "coordinates": [ -60.749, -27.628 ] } },
{ "type": "Feature", "properties": { "amenity": "clinic", "healthcare": "clinic", "operator": "Provincial", "operator_type": "public", "name": "Centro De Salud Colonia Juan Jose Paso", "addr_full": "Zona Rural-Colonia Juan Jose Paso", "addr_postcode": "3540", "phone": "", "ref_sisa_codigo": 50220982126192, "ref_sisa_tipologia": "ESSIDT", "wikidata": "", "wikipedia": "" }, "geometry": { "type": "Point", "coordinates": [ -60.8167191, -27.5380049 ] } },
{ "type": "Feature", "properties": { "amenity": "clinic", "healthcare": "clinic", "operator": "Provincial", "operator_type": "public", "name": "Centro De Salud Enrique Urien", "addr_full": "Ruta Nacional 89 Km 20 (Desde Villa Angela)", "addr_postcode": "3543", "phone": "03735-431911", "ref_sisa_codigo": 50220982126254, "ref_sisa_tipologia": "ESSIDT", "wikidata": "", "wikipedia": "" }, "geometry": { "type": "Point", "coordinates": [ -60.526495, -27.555312 ] } },
{ "type": "Feature", "properties": { "amenity": "clinic", "healthcare": "clinic", "operator": "Provincial", "operator_type": "public", "name": "Centro De Salud La Viruela", "addr_full": "Zona Rural", "addr_postcode": "3540", "phone": "", "ref_sisa_codigo": 50220982126308, "ref_sisa_tipologia": "ESSIDT", "wikidata": "", "wikipedia": "" }, "geometry": { "type": "Point", "coordinates": [ -60.733881, -27.5563732 ] } },
{ "type": "Feature", "properties": { "amenity": "clinic", "healthcare": "clinic", "operator": "Provincial", "operator_type": "public", "name": "Centro De Salud Las Avispas", "addr_full": "Zona Rural", "addr_postcode": "3540", "phone": "", "ref_sisa_codigo": 50220982126313, "ref_sisa_tipologia": "ESSIDT", "wikidata": "", "wikipedia": "" }, "geometry": { "type": "Point", "coordinates": [ -60.7313919, -27.5572863 ] } },
{ "type": "Feature", "properties": { "amenity": "clinic", "healthcare": "clinic", "operator": "Provincial", "operator_type": "public", "name": "Centro De Salud San Cayetano", "addr_full": "Pasaje Interno S\/N Entre Iberlucea  Y Kennedy -Barrio San Cayetano", "addr_postcode": "3540", "phone": "03735-429064", "ref_sisa_codigo": 50220982126441, "ref_sisa_tipologia": "ESSIDT", "wikidata": "", "wikipedia": "" }, "geometry": { "type": "Point", "coordinates": [ -60.729332, -27.5898493 ] } },
{ "type": "Feature", "properties": { "amenity": "clinic", "healthcare": "clinic", "operator": "Municipal", "operator_type": "public", "name": "Centro Integrador Comunitario C.I.C. 14029", "addr_full": "Avenida La Plata Y Alberdi", "addr_postcode": "3540", "phone": "03735-421222", "ref_sisa_codigo": 50220982226682, "ref_sisa_tipologia": "ESSIDT", "wikidata": "", "wikipedia": "" }, "geometry": { "type": "Point", "coordinates": [ -60.722941, -27.579541 ] } },
{ "type": "Feature", "properties": { "amenity": "hospital", "healthcare": "hospital", "operator": "Provincial", "operator_type": "public", "name": "Hospital Coronel Du Graty", "addr_full": "Sarmiento 155", "addr_postcode": "3541", "phone": "03735-498457", "ref_sisa_codigo": 10220982126027, "ref_sisa_tipologia": "ESCIG", "wikidata": "", "wikipedia": "" }, "geometry": { "type": "Point", "coordinates": [ -60.9103, -27.683066 ] } },
{ "type": "Feature", "properties": { "amenity": "hospital", "healthcare": "hospital", "operator": "Provincial", "operator_type": "public", "name": "Hospital Doctor Salvador Mazza", "addr_full": "Sta Josefa Rossello  356", "addr_postcode": "3540", "phone": "(03735)- 42-0056", "ref_sisa_codigo": 10220982126049, "ref_sisa_tipologia": "ESCIG", "wikidata": "", "wikipedia": "" }, "geometry": { "type": "Point", "coordinates": [ -60.7147161, -27.5861588 ] } },
{ "type": "Feature", "properties": { "amenity": "hospital", "healthcare": "hospital", "operator": "Privado", "operator_type": "private", "name": "Sanatorio Central De Salud S.r.l.", "addr_full": "25 De Mayo 625", "addr_postcode": "3540", "phone": "(03735)- 42-0292", "ref_sisa_codigo": 10220982326074, "ref_sisa_tipologia": "ESCIG", "wikidata": "", "wikipedia": "" }, "geometry": { "type": "Point", "coordinates": [ -60.7116904, -27.5725981 ] } },
{ "type": "Feature", "properties": { "amenity": "hospital", "healthcare": "hospital", "operator": "Privado", "operator_type": "private", "name": "Sanatorio Parque S.r.l.", "addr_full": "San Martín Y Donovan", "addr_postcode": "3540", "phone": "(03735)- 42-1364", "ref_sisa_codigo": 10220982326088, "ref_sisa_tipologia": "ESCIG", "wikidata": "", "wikipedia": "" }, "geometry": { "type": "Point", "coordinates": [ -60.7108784, -27.5731886 ] } },
{ "type": "Feature", "properties": { "amenity": "hospital", "healthcare": "hospital", "operator": "Privado", "operator_type": "private", "name": "Sanatorio Sur S.r.l.", "addr_full": "Balcarce 373", "addr_postcode": "3540", "phone": "(03735)- 42-0576", "ref_sisa_codigo": 10220982326090, "ref_sisa_tipologia": "ESCIG", "wikidata": "", "wikipedia": "" }, "geometry": { "type": "Point", "coordinates": [ -60.716325, -27.576232 ] } }
]
}
