{
"type": "FeatureCollection",
"name": "060-comuna_15",
"features": [
{ "type": "Feature", "properties": { "amenity": "hospital", "healthcare": "hospital", "operator": "Privado", "operator_type": "private", "name": "Centro Medico Integral Fitz Roy", "addr_full": "Acevedo 865", "addr_postcode": "1414", "phone": "(011) 4777-4800", "ref_sisa_codigo": 10020012315179, "ref_sisa_tipologia": "ESCIG", "wikidata": "Q93139724", "wikipedia": "" }, "geometry": { "type": "Point", "coordinates": [ -58.4355927, -34.5949396 ] } },
{ "type": "Feature", "properties": { "amenity": "clinic", "healthcare": "clinic", "operator": "Municipal", "operator_type": "public", "name": "CESAC 22", "addr_full": "Fragata Pte. Sarmiento 2152", "addr_postcode": "1427", "phone": "(011) 4855-6268", "ref_sisa_codigo": 50020012115356, "ref_sisa_tipologia": "ESSIDT", "wikidata": "", "wikipedia": "" }, "geometry": { "type": "Point", "coordinates": [ -58.4490927, -34.5924441 ] } },
{ "type": "Feature", "properties": { "amenity": "hospital", "healthcare": "hospital", "operator": "Privado", "operator_type": "private", "name": "Clinica Adventista Belgrano", "addr_full": "Estomba 1710", "addr_postcode": "1430", "phone": "(011) 4555-1444", "ref_sisa_codigo": 10020012315184, "ref_sisa_tipologia": "ESCIG", "wikidata": "Q2979292", "wikipedia": "FR:Belgrano Adventist Hospital" }, "geometry": { "type": "Point", "coordinates": [ -58.4682727, -34.5741468 ] } },
{ "type": "Feature", "properties": { "amenity": "clinic", "healthcare": "clinic", "operator": "Municipal", "operator_type": "public", "name": "CMB 27", "addr_full": "Antezana 340", "addr_postcode": "1414", "phone": "(011) 4854-8737", "ref_sisa_codigo": 50020012115405, "ref_sisa_tipologia": "ESSIDT", "wikidata": "", "wikipedia": "" }, "geometry": { "type": "Point", "coordinates": [ -58.4449113, -34.6051698 ] } },
{ "type": "Feature", "properties": { "amenity": "clinic", "healthcare": "clinic", "operator": "Municipal", "operator_type": "public", "name": "CMB 34", "addr_full": "Rivadavia 5126 4° 8", "addr_postcode": "1424", "phone": "4902-6816", "ref_sisa_codigo": 50020012115413, "ref_sisa_tipologia": "ESSIDT", "wikidata": "", "wikipedia": "" }, "geometry": { "type": "Point", "coordinates": [ -58.4386525, -34.5927379 ] } },
{ "type": "Feature", "properties": { "amenity": "clinic", "healthcare": "clinic", "operator": "Municipal", "operator_type": "public", "name": "CMB 35", "addr_full": "Salvador Maria Del Carril 2956", "addr_postcode": "1419", "phone": "(011) 4574-3664 \/", "ref_sisa_codigo": 50020012115414, "ref_sisa_tipologia": "ESSIDT", "wikidata": "", "wikipedia": "" }, "geometry": { "type": "Point", "coordinates": [ -58.498534, -34.5910839 ] } },
{ "type": "Feature", "properties": { "amenity": "clinic", "healthcare": "clinic", "operator": "Municipal", "operator_type": "public", "name": "CMB 36", "addr_full": "Burela 1604", "addr_postcode": "1431", "phone": "(011) 4524-7685", "ref_sisa_codigo": 50020012115415, "ref_sisa_tipologia": "ESSIDT", "wikidata": "", "wikipedia": "" }, "geometry": { "type": "Point", "coordinates": [ -58.4860852, -34.5851964 ] } },
{ "type": "Feature", "properties": { "amenity": "hospital", "healthcare": "hospital", "operator": "Municipal", "operator_type": "public", "name": "Hospital General De Agudos Doctor Enrique Tornu", "addr_full": "Combatientes De Malvinas 3002", "addr_postcode": "", "phone": "(011) 4521-3600 \/ 1236 \/ 8700", "ref_sisa_codigo": 10020012215210, "ref_sisa_tipologia": "ESCIG", "wikidata": "Q93140705", "wikipedia": "" }, "geometry": { "type": "Point", "coordinates": [ -58.4726934, -34.5866858 ] } },
{ "type": "Feature", "properties": { "amenity": "hospital", "healthcare": "hospital", "operator": "Universitario público", "operator_type": "public", "name": "Instituto De Investigaciones Medicas Doctor Alfredo Lanari", "addr_full": "Combatientes De Malvinas 3150", "addr_postcode": "1427", "phone": "(011) 4514-8701 \/ 8706 \/ 8704", "ref_sisa_codigo": 10020012515227, "ref_sisa_tipologia": "ESCIG", "wikidata": "Q93141285", "wikipedia": "" }, "geometry": { "type": "Point", "coordinates": [ -58.4724812, -34.5849645 ] } }
]
}
