{
"type": "FeatureCollection",
"name": "062-comuna_3",
"features": [
{ "type": "Feature", "properties": { "amenity": "hospital", "healthcare": "hospital", "operator": "Privado", "operator_type": "private", "name": "Centro Gallego De Buenos Aires", "addr_full": "Avenida Belgrano 2199", "addr_postcode": "1094", "phone": "(011) 4127-1000", "ref_sisa_codigo": 10020012315175, "ref_sisa_tipologia": "ESCIG", "wikidata": "Q5761275", "wikipedia": "ES:Centro Gallego De Buenos Aires" }, "geometry": { "type": "Point", "coordinates": [ -58.3980846, -34.614279 ] } },
{ "type": "Feature", "properties": { "amenity": "hospital", "healthcare": "hospital", "operator": "Privado", "operator_type": "private", "name": "Centro Medico Integral Clinica Lopez", "addr_full": "Avenida Belgrano 1844", "addr_postcode": "1094", "phone": "(011) 4383-5145", "ref_sisa_codigo": 10020012315178, "ref_sisa_tipologia": "ESCIG", "wikidata": "Q93139723", "wikipedia": "" }, "geometry": { "type": "Point", "coordinates": [ -58.3923769, -34.6140318 ] } },
{ "type": "Feature", "properties": { "amenity": "clinic", "healthcare": "clinic", "operator": "Municipal", "operator_type": "public", "name": "CESAC 11", "addr_full": "Agüero 940", "addr_postcode": "1186", "phone": "(011) 4864-1446", "ref_sisa_codigo": 50020012115345, "ref_sisa_tipologia": "ESSIDT", "wikidata": "Q90206236", "wikipedia": "" }, "geometry": { "type": "Point", "coordinates": [ -58.410614, -34.598894 ] } },
{ "type": "Feature", "properties": { "amenity": "clinic", "healthcare": "clinic", "operator": "Municipal", "operator_type": "public", "name": "CESAC 45", "addr_full": "Cochabamba 2622", "addr_postcode": "C1252AAR", "phone": "(011) 4941-0969 \/ 4941-0826 \/ 4941-1987", "ref_sisa_codigo": 50020012117480, "ref_sisa_tipologia": "ESSIDT", "wikidata": "Q90206182", "wikipedia": "" }, "geometry": { "type": "Point", "coordinates": [ -58.402119, -34.625086 ] } },
{ "type": "Feature", "properties": { "amenity": "hospital", "healthcare": "hospital", "operator": "Privado", "operator_type": "private", "name": "Climedica", "addr_full": "Saavedra 1039", "addr_postcode": "1229", "phone": "(011) 4943-0183", "ref_sisa_codigo": 10020012315195, "ref_sisa_tipologia": "ESCIG", "wikidata": "Q93139728", "wikipedia": "" }, "geometry": { "type": "Point", "coordinates": [ -58.4016037, -34.6216427 ] } },
{ "type": "Feature", "properties": { "amenity": "hospital", "healthcare": "hospital", "operator": "Privado", "operator_type": "private", "name": "Clinica A.m.e.b.p.b.a.  Asociacion Mutualista De Empleados Del Banco De La Provincia De Buenos Aires", "addr_full": "Bartolomé Mitre 2040", "addr_postcode": "", "phone": "(011) 4013-6400", "ref_sisa_codigo": 50020012316714, "ref_sisa_tipologia": "ESCIG", "wikidata": "Q93139731", "wikipedia": "" }, "geometry": { "type": "Point", "coordinates": [ -58.3956385, -34.6081333 ] } },
{ "type": "Feature", "properties": { "amenity": "hospital", "healthcare": "hospital", "operator": "Obra social", "operator_type": "private", "name": "Clinica Amebpba", "addr_full": "Bartolome Mitre 2040", "addr_postcode": "1039", "phone": "0810-222-6888", "ref_sisa_codigo": 10020032718937, "ref_sisa_tipologia": "ESCIG", "wikidata": "Q93139756", "wikipedia": "" }, "geometry": { "type": "Point", "coordinates": [ -58.3955624, -34.6083667 ] } },
{ "type": "Feature", "properties": { "amenity": "hospital", "healthcare": "hospital", "operator": "Obra social", "operator_type": "private", "name": "Clinica Ciudad De La Vida - Obra Social Del Personal Grafico", "addr_full": "Alberti 447\/9", "addr_postcode": "1096", "phone": "(011) 4308-2433", "ref_sisa_codigo": 10020012715186, "ref_sisa_tipologia": "ESCIG", "wikidata": "Q90410146", "wikipedia": "" }, "geometry": { "type": "Point", "coordinates": [ -58.4012604, -34.615056 ] } },
{ "type": "Feature", "properties": { "amenity": "clinic", "healthcare": "clinic", "operator": "Municipal", "operator_type": "public", "name": "CMB 21", "addr_full": "Anchorena 656", "addr_postcode": "1170", "phone": "(011) 4865-6940", "ref_sisa_codigo": 50020012115399, "ref_sisa_tipologia": "ESSIDT", "wikidata": "", "wikipedia": "" }, "geometry": { "type": "Point", "coordinates": [ -58.409543, -34.6016162 ] } },
{ "type": "Feature", "properties": { "amenity": "clinic", "healthcare": "clinic", "operator": "Municipal", "operator_type": "public", "name": "CMB 29", "addr_full": "Saavedra 205", "addr_postcode": "1083", "phone": "(011) 4951-2443", "ref_sisa_codigo": 50020012115407, "ref_sisa_tipologia": "ESSIDT", "wikidata": "", "wikipedia": "" }, "geometry": { "type": "Point", "coordinates": [ -58.403321, -34.612402 ] } },
{ "type": "Feature", "properties": { "amenity": "clinic", "healthcare": "clinic", "operator": "Municipal", "operator_type": "public", "name": "CMB 6", "addr_full": "Estados Unidos 1936", "addr_postcode": "1227", "phone": "(011) 4308-6058", "ref_sisa_codigo": 50020012115420, "ref_sisa_tipologia": "ESSIDT", "wikidata": "", "wikipedia": "" }, "geometry": { "type": "Point", "coordinates": [ -58.3936481, -34.6195845 ] } },
{ "type": "Feature", "properties": { "amenity": "hospital", "healthcare": "hospital", "operator": "Municipal", "operator_type": "public", "name": "Hospital General De Agudos Jose Maria Ramos Mejia", "addr_full": "General Urquiza 609", "addr_postcode": "", "phone": "(011) 4931-1884\/6702", "ref_sisa_codigo": 10020012215211, "ref_sisa_tipologia": "ESCIG", "wikidata": "Q5490732", "wikipedia": "ES:Hospital Ramos Mejía" }, "geometry": { "type": "Point", "coordinates": [ -58.4094787, -34.617493 ] } },
{ "type": "Feature", "properties": { "amenity": "hospital", "healthcare": "hospital", "operator": "Privado", "operator_type": "private", "name": "Instituto Quirurgico Del Callao", "addr_full": "Callao  483\/486 \/499 \/ Lavalle 1790", "addr_postcode": "1048", "phone": "(011) 4371-1827", "ref_sisa_codigo": 10020012315230, "ref_sisa_tipologia": "ESCIG", "wikidata": "Q93141378", "wikipedia": "" }, "geometry": { "type": "Point", "coordinates": [ -58.3924198, -34.6031528 ] } },
{ "type": "Feature", "properties": { "amenity": "hospital", "healthcare": "hospital", "operator": "Obra social", "operator_type": "private", "name": "Policlinico Del Docente - Osplad", "addr_full": "Lavalle 1974", "addr_postcode": "1051", "phone": "(011) 5218-7100", "ref_sisa_codigo": 10020012715233, "ref_sisa_tipologia": "ESCIG", "wikidata": "Q93141406", "wikipedia": "" }, "geometry": { "type": "Point", "coordinates": [ -58.3946943, -34.6032941 ] } },
{ "type": "Feature", "properties": { "amenity": "hospital", "healthcare": "hospital", "operator": "Privado", "operator_type": "private", "name": "Sanatorio De La Providencia", "addr_full": "Tucumán 1863", "addr_postcode": "1050", "phone": "(011) 4813-2721", "ref_sisa_codigo": 10020012315237, "ref_sisa_tipologia": "ESCIG", "wikidata": "Q93141481", "wikipedia": "" }, "geometry": { "type": "Point", "coordinates": [ -58.3933425, -34.6020224 ] } },
{ "type": "Feature", "properties": { "amenity": "hospital", "healthcare": "hospital", "operator": "Privado", "operator_type": "private", "name": "Sanatorio De La Trinidad Mitre", "addr_full": "Bartolomé Mitre 2553", "addr_postcode": "1039", "phone": "(011) 4954-7070", "ref_sisa_codigo": 10020012315238, "ref_sisa_tipologia": "ESCIG", "wikidata": "Q93141483", "wikipedia": "" }, "geometry": { "type": "Point", "coordinates": [ -58.4028482, -34.6086101 ] } },
{ "type": "Feature", "properties": { "amenity": "hospital", "healthcare": "hospital", "operator": "Privado", "operator_type": "private", "name": "Sanatorio Privado Del Centro", "addr_full": "Av. Pueyrredón 845", "addr_postcode": "1405", "phone": "(011) 4962-2828", "ref_sisa_codigo": 10020012315482, "ref_sisa_tipologia": "ESCIG", "wikidata": "Q93141629", "wikipedia": "" }, "geometry": { "type": "Point", "coordinates": [ -58.4043288, -34.6003798 ] } },
{ "type": "Feature", "properties": { "amenity": "hospital", "healthcare": "hospital", "operator": "Privado", "operator_type": "private", "name": "Sanatorio Sagrado Corazon", "addr_full": "Bartolomé Mitre 1955", "addr_postcode": "1039", "phone": "(011) 5238-7800", "ref_sisa_codigo": 10020012315449, "ref_sisa_tipologia": "ESCIG", "wikidata": "", "wikipedia": "" }, "geometry": { "type": "Point", "coordinates": [ -58.3942008, -34.6081156 ] } },
{ "type": "Feature", "properties": { "amenity": "hospital", "healthcare": "hospital", "operator": "Privado", "operator_type": "private", "name": "Sociedad Espańola De Beneficencia Hospital Espańol", "addr_full": "Avenida Belgrano 2975", "addr_postcode": "1209", "phone": "(011) 4959-6100", "ref_sisa_codigo": 10020012315255, "ref_sisa_tipologia": "ESCIG", "wikidata": "Q93141736", "wikipedia": "" }, "geometry": { "type": "Point", "coordinates": [ -58.4078693, -34.615056 ] } },
{ "type": "Feature", "properties": { "amenity": "hospital", "healthcare": "hospital", "operator": "Nacional", "operator_type": "public", "name": "Unidad Asistencial Por Mas Salud Doctor Cesar Milstein (ex Hospital Frances)", "addr_full": "La Rioja 951", "addr_postcode": "1221", "phone": "(011) 4959-1500", "ref_sisa_codigo": 14020012715328, "ref_sisa_tipologia": "ESCIG", "wikidata": "Q93141743", "wikipedia": "ES:Hospital Francés" }, "geometry": { "type": "Point", "coordinates": [ -58.4074402, -34.6214838 ] } }
]
}
