{
"type": "FeatureCollection",
"name": "063-san_fernando",
"features": [
{ "type": "Feature", "properties": { "amenity": "clinic", "healthcare": "clinic", "operator": "Municipal", "operator_type": "public", "name": "Centro Asistencial Absalon Rojas", "addr_full": "Arroyo Filicarias S\/N", "addr_postcode": "1646", "phone": "011-47282386", "ref_sisa_codigo": 50067492201086, "ref_sisa_tipologia": "ESSIDT", "wikidata": "", "wikipedia": "" }, "geometry": { "type": "Point", "coordinates": [ -58.540975, -34.257929 ] } },
{ "type": "Feature", "properties": { "amenity": "clinic", "healthcare": "clinic", "operator": "Municipal", "operator_type": "public", "name": "Centro De Salud Crisol", "addr_full": "Martin Rodríguez 2600", "addr_postcode": "1644", "phone": "(011) 4746-4126", "ref_sisa_codigo": 50067492201217, "ref_sisa_tipologia": "ESSIDT", "wikidata": "", "wikipedia": "" }, "geometry": { "type": "Point", "coordinates": [ -58.5509297, -34.4620064 ] } },
{ "type": "Feature", "properties": { "amenity": "clinic", "healthcare": "clinic", "operator": "Municipal", "operator_type": "public", "name": "Centro De Salud Doctor Arturo Reinecke", "addr_full": "Alvear 600 Y Escalada San José", "addr_postcode": "1646", "phone": "011-47463856", "ref_sisa_codigo": 50067492201222, "ref_sisa_tipologia": "ESSIDT", "wikidata": "", "wikipedia": "" }, "geometry": { "type": "Point", "coordinates": [ -58.5583928, -34.4336811 ] } },
{ "type": "Feature", "properties": { "amenity": "clinic", "healthcare": "clinic", "operator": "Municipal", "operator_type": "public", "name": "Centro De Salud Doctor Finochietto", "addr_full": "Ruta Prov. 202 Km 5 San Jorge - Virreyes", "addr_postcode": "1646", "phone": "011-47146492", "ref_sisa_codigo": 50067492201226, "ref_sisa_tipologia": "ESSIDT", "wikidata": "", "wikipedia": "" }, "geometry": { "type": "Point", "coordinates": [ -58.5972011, -34.4725287 ] } },
{ "type": "Feature", "properties": { "amenity": "clinic", "healthcare": "clinic", "operator": "Municipal", "operator_type": "public", "name": "Centro De Salud Doctor Isidoro Galvez", "addr_full": "Portugal 2276", "addr_postcode": "1646", "phone": "(011) 4714-1664", "ref_sisa_codigo": 50067492201228, "ref_sisa_tipologia": "ESSIDT", "wikidata": "", "wikipedia": "" }, "geometry": { "type": "Point", "coordinates": [ -58.5870815, -34.4689895 ] } },
{ "type": "Feature", "properties": { "amenity": "clinic", "healthcare": "clinic", "operator": "Municipal", "operator_type": "public", "name": "Centro De Salud Doctor Italo Piaggi", "addr_full": "Málaga Y Garibaldi", "addr_postcode": "1646", "phone": "(011) 4714-7094", "ref_sisa_codigo": 50067492201229, "ref_sisa_tipologia": "ESSIDT", "wikidata": "", "wikipedia": "" }, "geometry": { "type": "Point", "coordinates": [ -58.591787, -34.472842 ] } },
{ "type": "Feature", "properties": { "amenity": "clinic", "healthcare": "clinic", "operator": "Municipal", "operator_type": "public", "name": "Centro De Salud Escobar", "addr_full": "Constitucion 1044", "addr_postcode": "1646", "phone": "011-47251488", "ref_sisa_codigo": 50067492201240, "ref_sisa_tipologia": "ESSIDT", "wikidata": "", "wikipedia": "" }, "geometry": { "type": "Point", "coordinates": [ -58.556961, -34.440853 ] } },
{ "type": "Feature", "properties": { "amenity": "clinic", "healthcare": "clinic", "operator": "Municipal", "operator_type": "public", "name": "Centro De Salud Maria Isabel", "addr_full": "Arenales 3220 \/ 3200", "addr_postcode": "1646", "phone": "(011) 4746-1941", "ref_sisa_codigo": 50067492201264, "ref_sisa_tipologia": "ESSIDT", "wikidata": "", "wikipedia": "" }, "geometry": { "type": "Point", "coordinates": [ -58.56911, -34.4562727 ] } },
{ "type": "Feature", "properties": { "amenity": "clinic", "healthcare": "clinic", "operator": "Municipal", "operator_type": "public", "name": "Centro De Salud 26", "addr_full": "Maipu 2354", "addr_postcode": "1646", "phone": "011-47464132", "ref_sisa_codigo": 50067492201303, "ref_sisa_tipologia": "ESSIDT", "wikidata": "", "wikipedia": "" }, "geometry": { "type": "Point", "coordinates": [ -58.5619793, -34.4512733 ] } },
{ "type": "Feature", "properties": { "amenity": "clinic", "healthcare": "clinic", "operator": "Municipal", "operator_type": "public", "name": "Centro De Salud 31 De San Fernando", "addr_full": "Garibaldi 2727", "addr_postcode": "1646", "phone": "011-47463921", "ref_sisa_codigo": 50067492201313, "ref_sisa_tipologia": "ESSIDT", "wikidata": "", "wikipedia": "" }, "geometry": { "type": "Point", "coordinates": [ -58.5601402, -34.4574457 ] } },
{ "type": "Feature", "properties": { "amenity": "clinic", "healthcare": "clinic", "operator": "Municipal", "operator_type": "public", "name": "Centro De Salud 66 De San Fernando", "addr_full": "Balcarce 2950", "addr_postcode": "1644", "phone": "(011) 4714-5159", "ref_sisa_codigo": 50067492201330, "ref_sisa_tipologia": "ESSIDT", "wikidata": "", "wikipedia": "" }, "geometry": { "type": "Point", "coordinates": [ -58.5742853, -34.4695186 ] } },
{ "type": "Feature", "properties": { "amenity": "clinic", "healthcare": "clinic", "operator": "Municipal", "operator_type": "public", "name": "Centro De Salud Villa Federal", "addr_full": "Sarmiento 3244 - Aviación - Virreyes", "addr_postcode": "1646", "phone": "011-47441718", "ref_sisa_codigo": 50067492201373, "ref_sisa_tipologia": "ESSIDT", "wikidata": "", "wikipedia": "" }, "geometry": { "type": "Point", "coordinates": [ -58.5742929, -34.4509613 ] } },
{ "type": "Feature", "properties": { "amenity": "clinic", "healthcare": "clinic", "operator": "Municipal", "operator_type": "public", "name": "Centro De Salud Villa Jardin", "addr_full": "Guatemala 3069", "addr_postcode": "1646", "phone": "011-47146746", "ref_sisa_codigo": 50067492201377, "ref_sisa_tipologia": "ESSIDT", "wikidata": "", "wikipedia": "" }, "geometry": { "type": "Point", "coordinates": [ -58.5858575, -34.4767319 ] } },
{ "type": "Feature", "properties": { "amenity": "clinic", "healthcare": "clinic", "operator": "Municipal", "operator_type": "public", "name": "Centro Medico Familiar La Union", "addr_full": "Ituzaingó 3650", "addr_postcode": "1646", "phone": "(011) 4714-6861", "ref_sisa_codigo": 50067492201422, "ref_sisa_tipologia": "ESSIDT", "wikidata": "", "wikipedia": "" }, "geometry": { "type": "Point", "coordinates": [ -58.5783355, -34.4502736 ] } },
{ "type": "Feature", "properties": { "amenity": "hospital", "healthcare": "hospital", "operator": "Privado", "operator_type": "private", "name": "Clinica Aires De Pacheco", "addr_full": "Avenida Hipólito Yrigoyen 2270", "addr_postcode": "1648", "phone": "(011) 4740-7014", "ref_sisa_codigo": 10068052300062, "ref_sisa_tipologia": "ESCIG", "wikidata": "", "wikipedia": "" }, "geometry": { "type": "Point", "coordinates": [ -58.5645158, -34.4483009 ] } },
{ "type": "Feature", "properties": { "amenity": "hospital", "healthcare": "hospital", "operator": "Privado", "operator_type": "private", "name": "Clinica Privada Aranzazu", "addr_full": "Avenida Presidente Teniente General Juan Domingo Perón 1212", "addr_postcode": "1646", "phone": "(011) 4744-5521", "ref_sisa_codigo": 10067492300074, "ref_sisa_tipologia": "ESCIG", "wikidata": "", "wikipedia": "" }, "geometry": { "type": "Point", "coordinates": [ -58.5548835, -34.4411781 ] } },
{ "type": "Feature", "properties": { "amenity": "hospital", "healthcare": "hospital", "operator": "Privado", "operator_type": "private", "name": "Clinica Privada San Fernando", "addr_full": "Gral. Lavalle 1439", "addr_postcode": "1646", "phone": "(011) 4890077", "ref_sisa_codigo": 10067492305030, "ref_sisa_tipologia": "ESCIG", "wikidata": "", "wikipedia": "" }, "geometry": { "type": "Point", "coordinates": [ -58.5552, -34.444684 ] } },
{ "type": "Feature", "properties": { "amenity": "clinic", "healthcare": "clinic", "operator": "Municipal", "operator_type": "public", "name": "Consultorio En Terreno Barrio Mejoral", "addr_full": "Guido Spano 3134", "addr_postcode": "1646", "phone": "011-47449156", "ref_sisa_codigo": 50067492201559, "ref_sisa_tipologia": "ESSIDT", "wikidata": "", "wikipedia": "" }, "geometry": { "type": "Point", "coordinates": [ -58.5637996, -34.4617931 ] } },
{ "type": "Feature", "properties": { "amenity": "clinic", "healthcare": "clinic", "operator": "Municipal", "operator_type": "public", "name": "Consultorio Medico Municipal", "addr_full": "Necochea 1398", "addr_postcode": "1646", "phone": "(011) 4744-4791", "ref_sisa_codigo": 50067492201565, "ref_sisa_tipologia": "ESSIDT", "wikidata": "", "wikipedia": "" }, "geometry": { "type": "Point", "coordinates": [ -58.5539834, -34.4454623 ] } },
{ "type": "Feature", "properties": { "amenity": "hospital", "healthcare": "hospital", "operator": "Municipal", "operator_type": "public", "name": "Hospital Doctor Ramon Carrillo", "addr_full": "Rio Parana Mini Y Arroyo Chana S\/n", "addr_postcode": "1646", "phone": "011-47282434\/1391\/7434", "ref_sisa_codigo": 10067492200216, "ref_sisa_tipologia": "ESCIG", "wikidata": "", "wikipedia": "" }, "geometry": { "type": "Point", "coordinates": [ -58.5058, -34.129387 ] } },
{ "type": "Feature", "properties": { "amenity": "hospital", "healthcare": "hospital", "operator": "Municipal", "operator_type": "public", "name": "Hospital General De Agudos Oscar Do Porto.", "addr_full": "Parana De Las Palmas", "addr_postcode": "1646", "phone": "011-47498526", "ref_sisa_codigo": 10067492200247, "ref_sisa_tipologia": "ESCIG", "wikidata": "", "wikipedia": "" }, "geometry": { "type": "Point", "coordinates": [ -58.709328, -34.2464251 ] } },
{ "type": "Feature", "properties": { "amenity": "hospital", "healthcare": "hospital", "operator": "Municipal", "operator_type": "public", "name": "Hospital Local General Agudos Parana Mini Y Canal 4", "addr_full": "Rio Parana Mini Y Canal 4", "addr_postcode": "1646", "phone": "011-47281356", "ref_sisa_codigo": 10067492200252, "ref_sisa_tipologia": "ESCIG", "wikidata": "", "wikipedia": "" }, "geometry": { "type": "Point", "coordinates": [ -58.5782, -34.1448 ] } },
{ "type": "Feature", "properties": { "amenity": "hospital", "healthcare": "hospital", "operator": "Provincial", "operator_type": "public", "name": "Hospital Zonal General Agudos Petrona V. De Cordero", "addr_full": "Belgrano 1955", "addr_postcode": "1646", "phone": "(011) 4744-2693", "ref_sisa_codigo": 10067492100393, "ref_sisa_tipologia": "ESCIG", "wikidata": "", "wikipedia": "" }, "geometry": { "type": "Point", "coordinates": [ -58.5519667, -34.4483395 ] } },
{ "type": "Feature", "properties": { "amenity": "clinic", "healthcare": "clinic", "operator": "Municipal", "operator_type": "public", "name": "Instituto De Odontologia Infantil", "addr_full": "Necochea 1396", "addr_postcode": "1646", "phone": "(011) 4746-3472", "ref_sisa_codigo": 50067492201648, "ref_sisa_tipologia": "ESSIDT", "wikidata": "", "wikipedia": "" }, "geometry": { "type": "Point", "coordinates": [ -58.5539573, -34.445431 ] } },
{ "type": "Feature", "properties": { "amenity": "clinic", "healthcare": "clinic", "operator": "Municipal", "operator_type": "public", "name": "Posta Centro De Salud Carupa", "addr_full": "Ruta 197 Y Sarmiento - Carupa", "addr_postcode": "1648", "phone": "", "ref_sisa_codigo": 50068052201746, "ref_sisa_tipologia": "ESSIDT", "wikidata": "", "wikipedia": "" }, "geometry": { "type": "Point", "coordinates": [ -58.5825348, -34.4456361 ] } },
{ "type": "Feature", "properties": { "amenity": "hospital", "healthcare": "hospital", "operator": "Privado", "operator_type": "private", "name": "Sanatorio San Pablo", "addr_full": "Alvear 1444", "addr_postcode": "1646", "phone": "(011) 4745-4111", "ref_sisa_codigo": 10067492306623, "ref_sisa_tipologia": "ESCIG", "wikidata": "", "wikipedia": "" }, "geometry": { "type": "Point", "coordinates": [ -58.5638101, -34.4384601 ] } },
{ "type": "Feature", "properties": { "amenity": "clinic", "healthcare": "clinic", "operator": "Municipal", "operator_type": "public", "name": "Unidad De Diagnostico Precoz 27", "addr_full": "25 De Mayo 2290", "addr_postcode": "1646", "phone": "(011) 47441491", "ref_sisa_codigo": 50067492217609, "ref_sisa_tipologia": "ESSIDT", "wikidata": "", "wikipedia": "" }, "geometry": { "type": "Point", "coordinates": [ -58.5669892, -34.4464952 ] } },
{ "type": "Feature", "properties": { "amenity": "clinic", "healthcare": "clinic", "operator": "Municipal", "operator_type": "public", "name": "Unidad Sanitaria Barrio Alsina", "addr_full": "Ayacucho Y Rio De La Plata Barrio Alsina", "addr_postcode": "1646", "phone": "011-47464353", "ref_sisa_codigo": 50067492202075, "ref_sisa_tipologia": "ESSIDT", "wikidata": "", "wikipedia": "" }, "geometry": { "type": "Point", "coordinates": [ -58.5483398, -34.4365924 ] } },
{ "type": "Feature", "properties": { "amenity": "clinic", "healthcare": "clinic", "operator": "Municipal", "operator_type": "public", "name": "Unidad Sanitaria H. Bertres", "addr_full": "Azcuénaga 1745", "addr_postcode": "1646", "phone": "(011) 4714-6214", "ref_sisa_codigo": 50067492202319, "ref_sisa_tipologia": "ESSIDT", "wikidata": "", "wikipedia": "" }, "geometry": { "type": "Point", "coordinates": [ -58.576996, -34.457545 ] } },
{ "type": "Feature", "properties": { "amenity": "clinic", "healthcare": "clinic", "operator": "Provincial", "operator_type": "public", "name": "Unidad Sanitaria Isla Martin Garcia", "addr_full": "Isla Martin Garcia", "addr_postcode": "1646", "phone": "011 1551551351", "ref_sisa_codigo": 50067492102334, "ref_sisa_tipologia": "ESSIDT", "wikidata": "", "wikipedia": "" }, "geometry": { "type": "Point", "coordinates": [ -58.4912109, -34.3017554 ] } },
{ "type": "Feature", "properties": { "amenity": "clinic", "healthcare": "clinic", "operator": "Municipal", "operator_type": "public", "name": "Unidad Sanitaria San Gines", "addr_full": "Chacabuco 4450 Barrio San Gines", "addr_postcode": "1646", "phone": "011-45753444", "ref_sisa_codigo": 50067492202790, "ref_sisa_tipologia": "ESSIDT", "wikidata": "", "wikipedia": "" }, "geometry": { "type": "Point", "coordinates": [ -58.5830476, -34.4595337 ] } }
]
}
