{
"type": "FeatureCollection",
"name": "064-lanus",
"features": [
{ "type": "Feature", "properties": { "amenity": "clinic", "healthcare": "clinic", "operator": "Municipal", "operator_type": "public", "name": "Centro De Medicina Preventiva Doctor Floreal Ferrara (Ex Rene Favaloro)", "addr_full": "Sitio De Montevideo 1862", "addr_postcode": "1824", "phone": "(011) 4240-0493", "ref_sisa_codigo": 50064342201589, "ref_sisa_tipologia": "ESSIDT", "wikidata": "", "wikipedia": "" }, "geometry": { "type": "Point", "coordinates": [ -58.3815199, -34.7113727 ] } },
{ "type": "Feature", "properties": { "amenity": "clinic", "healthcare": "clinic", "operator": "Municipal", "operator_type": "public", "name": "Centro De Salud 1° De Mayo De Lanus", "addr_full": "Manuel Castro 2663", "addr_postcode": "1824", "phone": "", "ref_sisa_codigo": 50064342201386, "ref_sisa_tipologia": "ESSIDT", "wikidata": "", "wikipedia": "" }, "geometry": { "type": "Point", "coordinates": [ -58.4133711, -34.7111284 ] } },
{ "type": "Feature", "properties": { "amenity": "clinic", "healthcare": "clinic", "operator": "Municipal", "operator_type": "public", "name": "Centro De Salud 25 De Mayo De Lanus", "addr_full": "Cazon 2570", "addr_postcode": "1824", "phone": "(011) 4246-7714", "ref_sisa_codigo": 50064342201390, "ref_sisa_tipologia": "ESSIDT", "wikidata": "", "wikipedia": "" }, "geometry": { "type": "Point", "coordinates": [ -58.3583922, -34.7389394 ] } },
{ "type": "Feature", "properties": { "amenity": "clinic", "healthcare": "clinic", "operator": "Municipal", "operator_type": "public", "name": "Centro De Salud 26 De Abril", "addr_full": "Av. Eva Peron Y Echeverria", "addr_postcode": "1825", "phone": "011-4246-4082", "ref_sisa_codigo": 50064342201392, "ref_sisa_tipologia": "ESSIDT", "wikidata": "", "wikipedia": "" }, "geometry": { "type": "Point", "coordinates": [ -58.349015, -34.736247 ] } },
{ "type": "Feature", "properties": { "amenity": "clinic", "healthcare": "clinic", "operator": "Municipal", "operator_type": "public", "name": "Centro De Salud Arturo Illia", "addr_full": "E. Castro Esq. R. Balbin 2972", "addr_postcode": "1824", "phone": "011-4228-8281", "ref_sisa_codigo": 50064342201192, "ref_sisa_tipologia": "ESSIDT", "wikidata": "", "wikipedia": "" }, "geometry": { "type": "Point", "coordinates": [ -58.4236, -34.6882025 ] } },
{ "type": "Feature", "properties": { "amenity": "clinic", "healthcare": "clinic", "operator": "Municipal", "operator_type": "public", "name": "Centro De Salud Cosme Argerich", "addr_full": "Alvear Y Chorroarin  4493", "addr_postcode": "1825", "phone": "011-1567280400", "ref_sisa_codigo": 50064342201216, "ref_sisa_tipologia": "ESSIDT", "wikidata": "", "wikipedia": "" }, "geometry": { "type": "Point", "coordinates": [ -58.3621119, -34.7379034 ] } },
{ "type": "Feature", "properties": { "amenity": "clinic", "healthcare": "clinic", "operator": "Municipal", "operator_type": "public", "name": "Centro De Salud Eden Argentino", "addr_full": "San Martin 4057", "addr_postcode": "1824", "phone": "011-4267-5753", "ref_sisa_codigo": 50064342201234, "ref_sisa_tipologia": "ESSIDT", "wikidata": "", "wikipedia": "" }, "geometry": { "type": "Point", "coordinates": [ -58.4226665, -34.710623 ] } },
{ "type": "Feature", "properties": { "amenity": "clinic", "healthcare": "clinic", "operator": "Municipal", "operator_type": "public", "name": "Centro De Salud El Triangulo", "addr_full": "Cnel. Osorio 2099", "addr_postcode": "1824", "phone": "011-4209-4131", "ref_sisa_codigo": 50064342201236, "ref_sisa_tipologia": "ESSIDT", "wikidata": "", "wikipedia": "" }, "geometry": { "type": "Point", "coordinates": [ -58.423674, -34.6776605 ] } },
{ "type": "Feature", "properties": { "amenity": "clinic", "healthcare": "clinic", "operator": "Municipal", "operator_type": "public", "name": "Centro De Salud Eva Peron De Lanus", "addr_full": "Pasaje Eva Perón 270", "addr_postcode": "1824", "phone": "(011) 4266-8420", "ref_sisa_codigo": 50064342201242, "ref_sisa_tipologia": "ESSIDT", "wikidata": "", "wikipedia": "" }, "geometry": { "type": "Point", "coordinates": [ -58.3922001, -34.6984114 ] } },
{ "type": "Feature", "properties": { "amenity": "clinic", "healthcare": "clinic", "operator": "Municipal", "operator_type": "public", "name": "Centro De Salud Gral. Belgrano", "addr_full": "Bolaños 1735", "addr_postcode": "1824", "phone": "", "ref_sisa_codigo": 50064342201246, "ref_sisa_tipologia": "ESSIDT", "wikidata": "", "wikipedia": "" }, "geometry": { "type": "Point", "coordinates": [ -58.3735966, -34.7018502 ] } },
{ "type": "Feature", "properties": { "amenity": "clinic", "healthcare": "clinic", "operator": "Municipal", "operator_type": "public", "name": "Centro De Salud Heroes De Malvinas", "addr_full": "Ayacucho 2955", "addr_postcode": "1824", "phone": "0221-4230-3639", "ref_sisa_codigo": 50064342201248, "ref_sisa_tipologia": "ESSIDT", "wikidata": "", "wikipedia": "" }, "geometry": { "type": "Point", "coordinates": [ -58.3634579, -34.7138734 ] } },
{ "type": "Feature", "properties": { "amenity": "clinic", "healthcare": "clinic", "operator": "Municipal", "operator_type": "public", "name": "Centro De Salud Higuerita", "addr_full": "Bolanos Y Chascomus 724", "addr_postcode": "1824", "phone": "", "ref_sisa_codigo": 50064342201249, "ref_sisa_tipologia": "ESSIDT", "wikidata": "", "wikipedia": "" }, "geometry": { "type": "Point", "coordinates": [ -58.3536732, -34.7170914 ] } },
{ "type": "Feature", "properties": { "amenity": "clinic", "healthcare": "clinic", "operator": "Municipal", "operator_type": "public", "name": "Centro De Salud La Esperanza", "addr_full": "Beron De Astrada 4752", "addr_postcode": "1824", "phone": "", "ref_sisa_codigo": 50064342201253, "ref_sisa_tipologia": "ESSIDT", "wikidata": "", "wikipedia": "" }, "geometry": { "type": "Point", "coordinates": [ -58.3583472, -34.7380489 ] } },
{ "type": "Feature", "properties": { "amenity": "clinic", "healthcare": "clinic", "operator": "Municipal", "operator_type": "public", "name": "Centro De Salud Los Ceibos", "addr_full": "Centenario Uruguayo 2898", "addr_postcode": "1824", "phone": "(011) 4230-7663", "ref_sisa_codigo": 50064342201260, "ref_sisa_tipologia": "ESSIDT", "wikidata": "", "wikipedia": "" }, "geometry": { "type": "Point", "coordinates": [ -58.3658166, -34.7248776 ] } },
{ "type": "Feature", "properties": { "amenity": "clinic", "healthcare": "clinic", "operator": "Municipal", "operator_type": "public", "name": "Centro De Salud Manuel Guemes", "addr_full": "Las Piedras 5100", "addr_postcode": "1824", "phone": "(011) 4246-9854", "ref_sisa_codigo": 50064342201262, "ref_sisa_tipologia": "ESSIDT", "wikidata": "", "wikipedia": "" }, "geometry": { "type": "Point", "coordinates": [ -58.3512979, -34.7386435 ] } },
{ "type": "Feature", "properties": { "amenity": "clinic", "healthcare": "clinic", "operator": "Municipal", "operator_type": "public", "name": "Centro De Salud 19 General Balcarce De Lanus", "addr_full": "Gobernador Ugarte 3589", "addr_postcode": "1824", "phone": "(011) 4267-3971", "ref_sisa_codigo": 50064342201287, "ref_sisa_tipologia": "ESSIDT", "wikidata": "", "wikipedia": "" }, "geometry": { "type": "Point", "coordinates": [ -58.411006, -34.717871 ] } },
{ "type": "Feature", "properties": { "amenity": "clinic", "healthcare": "clinic", "operator": "Municipal", "operator_type": "public", "name": "Centro De Salud Ramon Carrillo De Lanus", "addr_full": "Marco Avellaneda Y Pasaje Muñiz", "addr_postcode": "1824", "phone": "(011) 4228-9555", "ref_sisa_codigo": 50064342201345, "ref_sisa_tipologia": "ESSIDT", "wikidata": "", "wikipedia": "" }, "geometry": { "type": "Point", "coordinates": [ -58.432108, -34.692849 ] } },
{ "type": "Feature", "properties": { "amenity": "clinic", "healthcare": "clinic", "operator": "Municipal", "operator_type": "public", "name": "Centro De Salud Santa Maria", "addr_full": "Victor Hugo 440", "addr_postcode": "1824", "phone": "(011) 4248-9854", "ref_sisa_codigo": 50064342201356, "ref_sisa_tipologia": "ESSIDT", "wikidata": "", "wikipedia": "" }, "geometry": { "type": "Point", "coordinates": [ -58.3375629, -34.7272142 ] } },
{ "type": "Feature", "properties": { "amenity": "clinic", "healthcare": "clinic", "operator": "Municipal", "operator_type": "public", "name": "Centro De Salud Villa Barcelo", "addr_full": "Felix De Alzaga 4119", "addr_postcode": "1824", "phone": "", "ref_sisa_codigo": 50064342201364, "ref_sisa_tipologia": "ESSIDT", "wikidata": "", "wikipedia": "" }, "geometry": { "type": "Point", "coordinates": [ -58.3646402, -34.7347801 ] } },
{ "type": "Feature", "properties": { "amenity": "clinic", "healthcare": "clinic", "operator": "Municipal", "operator_type": "public", "name": "Centro De Salud Villa Constitucion", "addr_full": "Viamonte 3846", "addr_postcode": "1824", "phone": "011-4208-2695", "ref_sisa_codigo": 50064342201368, "ref_sisa_tipologia": "ESSIDT", "wikidata": "", "wikipedia": "" }, "geometry": { "type": "Point", "coordinates": [ -58.4263718, -34.6739958 ] } },
{ "type": "Feature", "properties": { "amenity": "clinic", "healthcare": "clinic", "operator": "Municipal", "operator_type": "public", "name": "Centro De Salud Villa Eslovena", "addr_full": "Colon 2475", "addr_postcode": "1824", "phone": "011-4267-3419", "ref_sisa_codigo": 50064342201371, "ref_sisa_tipologia": "ESSIDT", "wikidata": "", "wikipedia": "" }, "geometry": { "type": "Point", "coordinates": [ -58.4200584, -34.7172665 ] } },
{ "type": "Feature", "properties": { "amenity": "clinic", "healthcare": "clinic", "operator": "Municipal", "operator_type": "public", "name": "Centro De Salud Villa Esperanza", "addr_full": "G. Ugarte Y Hernandarias", "addr_postcode": "1824", "phone": "011-4286-0296", "ref_sisa_codigo": 50064342201372, "ref_sisa_tipologia": "ESSIDT", "wikidata": "", "wikipedia": "" }, "geometry": { "type": "Point", "coordinates": [ -58.415588, -34.720288 ] } },
{ "type": "Feature", "properties": { "amenity": "clinic", "healthcare": "clinic", "operator": "Municipal", "operator_type": "public", "name": "Centro De Salud Villa Giardino", "addr_full": "Armenia 3114", "addr_postcode": "1824", "phone": "(011) 4208-6659", "ref_sisa_codigo": 50064342201374, "ref_sisa_tipologia": "ESSIDT", "wikidata": "", "wikipedia": "" }, "geometry": { "type": "Point", "coordinates": [ -58.4107552, -34.6701546 ] } },
{ "type": "Feature", "properties": { "amenity": "clinic", "healthcare": "clinic", "operator": "Municipal", "operator_type": "public", "name": "Centro De Salud Villa Independencia 20 De Lanus", "addr_full": "Manuel Corvalan 3168", "addr_postcode": "1824", "phone": "(011) 4246-7104", "ref_sisa_codigo": 50064342201375, "ref_sisa_tipologia": "ESSIDT", "wikidata": "", "wikipedia": "" }, "geometry": { "type": "Point", "coordinates": [ -58.368743, -34.7394973 ] } },
{ "type": "Feature", "properties": { "amenity": "clinic", "healthcare": "clinic", "operator": "Municipal", "operator_type": "public", "name": "Centro De Salud Villa Industrial Fiorito", "addr_full": "Teniente Coronel Bueras 3386", "addr_postcode": "1824", "phone": "011-42207004", "ref_sisa_codigo": 50064342216418, "ref_sisa_tipologia": "ESSIDT", "wikidata": "", "wikipedia": "" }, "geometry": { "type": "Point", "coordinates": [ -58.3534105, -34.7136769 ] } },
{ "type": "Feature", "properties": { "amenity": "clinic", "healthcare": "clinic", "operator": "Municipal", "operator_type": "public", "name": "Centro De Salud Villa Mauricio", "addr_full": "Felix De Alzaga 3441", "addr_postcode": "1824", "phone": "(011) 4220-7178", "ref_sisa_codigo": 50064342201378, "ref_sisa_tipologia": "ESSIDT", "wikidata": "", "wikipedia": "" }, "geometry": { "type": "Point", "coordinates": [ -58.3707857, -34.7299638 ] } },
{ "type": "Feature", "properties": { "amenity": "clinic", "healthcare": "clinic", "operator": "Municipal", "operator_type": "public", "name": "Centro De Salud Villa Obrera", "addr_full": "Eva Perón 3168", "addr_postcode": "1824", "phone": "011-4230-8348", "ref_sisa_codigo": 50064342201380, "ref_sisa_tipologia": "ESSIDT", "wikidata": "", "wikipedia": "" }, "geometry": { "type": "Point", "coordinates": [ -58.3651592, -34.7196385 ] } },
{ "type": "Feature", "properties": { "amenity": "clinic", "healthcare": "clinic", "operator": "Municipal", "operator_type": "public", "name": "Centro De Salud Villa Urquiza", "addr_full": "Condarco Y Maure", "addr_postcode": "1825", "phone": "", "ref_sisa_codigo": 50064342201382, "ref_sisa_tipologia": "ESSIDT", "wikidata": "", "wikipedia": "" }, "geometry": { "type": "Point", "coordinates": [ -58.3440553, -34.7202031 ] } },
{ "type": "Feature", "properties": { "amenity": "hospital", "healthcare": "hospital", "operator": "Privado", "operator_type": "private", "name": "Clinica Modelo De Lanus", "addr_full": "Avenida Hipólito Yrigoyen 4835", "addr_postcode": "1824", "phone": "(011) 4249-5167", "ref_sisa_codigo": 10064342300060, "ref_sisa_tipologia": "ESCIG", "wikidata": "", "wikipedia": "" }, "geometry": { "type": "Point", "coordinates": [ -58.392464, -34.710846 ] } },
{ "type": "Feature", "properties": { "amenity": "hospital", "healthcare": "hospital", "operator": "Privado", "operator_type": "private", "name": "Clinica Privada Cruz Blanca Del Sur", "addr_full": "Aristóbulo Del Valle 135", "addr_postcode": "1824", "phone": "(011) 4249-0909", "ref_sisa_codigo": 10064342300091, "ref_sisa_tipologia": "ESCIG", "wikidata": "", "wikipedia": "" }, "geometry": { "type": "Point", "coordinates": [ -58.3937319, -34.7047184 ] } },
{ "type": "Feature", "properties": { "amenity": "clinic", "healthcare": "clinic", "operator": "Municipal", "operator_type": "public", "name": "Consultorio Externo Nuestra Señora Del Encuentro", "addr_full": "Manuela Pedraza 3001", "addr_postcode": "1832", "phone": "(011) 4693-3756\/1540909749", "ref_sisa_codigo": 50064902201561, "ref_sisa_tipologia": "ESSIDT", "wikidata": "", "wikipedia": "" }, "geometry": { "type": "Point", "coordinates": [ -58.4218037, -34.6844958 ] } },
{ "type": "Feature", "properties": { "amenity": "hospital", "healthcare": "hospital", "operator": "Provincial", "operator_type": "public", "name": "Hospital Interzonal General Agudos Evita", "addr_full": "Río De Janeiro 1910", "addr_postcode": "1824", "phone": "(011) 4241-4050", "ref_sisa_codigo": 10064342100231, "ref_sisa_tipologia": "ESCIG", "wikidata": "", "wikipedia": "" }, "geometry": { "type": "Point", "coordinates": [ -58.4007883, -34.6964259 ] } },
{ "type": "Feature", "properties": { "amenity": "hospital", "healthcare": "hospital", "operator": "Provincial", "operator_type": "public", "name": "Hospital Local General Agudos Doctor Arturo Melo", "addr_full": "Av. Villa De Luján 3050", "addr_postcode": "1824", "phone": "(011) 4289-4485", "ref_sisa_codigo": 10064342100248, "ref_sisa_tipologia": "ESCIG", "wikidata": "", "wikipedia": "" }, "geometry": { "type": "Point", "coordinates": [ -58.3857891, -34.725841 ] } },
{ "type": "Feature", "properties": { "amenity": "clinic", "healthcare": "clinic", "operator": "Provincial", "operator_type": "public", "name": "Hospital Zonal Especializado En Oncologia De Lanus", "addr_full": "Coronel Pringles 1257", "addr_postcode": "1824", "phone": "(011) 4247-4376", "ref_sisa_codigo": 14064342100665, "ref_sisa_tipologia": "ESCIE", "wikidata": "", "wikipedia": "" }, "geometry": { "type": "Point", "coordinates": [ -58.3824992, -34.7033131 ] } },
{ "type": "Feature", "properties": { "amenity": "hospital", "healthcare": "hospital", "operator": "Provincial", "operator_type": "public", "name": "Hospital Zonal General Agudos Narciso Lopez", "addr_full": "O Higgins 1333", "addr_postcode": "1824", "phone": "(011) 4241-2749", "ref_sisa_codigo": 10064342100392, "ref_sisa_tipologia": "ESCIG", "wikidata": "", "wikipedia": "" }, "geometry": { "type": "Point", "coordinates": [ -58.3825823, -34.703972 ] } },
{ "type": "Feature", "properties": { "amenity": "clinic", "healthcare": "clinic", "operator": "Municipal", "operator_type": "public", "name": "Institucion Asistencial Y Hospital De Niños Doctor Luis Maspero", "addr_full": "Maspero 75", "addr_postcode": "1826", "phone": "", "ref_sisa_codigo": 50064342303944, "ref_sisa_tipologia": "ESSIDT", "wikidata": "", "wikipedia": "" }, "geometry": { "type": "Point", "coordinates": [ -58.3956574, -34.723336 ] } },
{ "type": "Feature", "properties": { "amenity": "hospital", "healthcare": "hospital", "operator": "Privado", "operator_type": "private", "name": "Sanatorio Privado Sociedad Espańola De Socorros Mutuos Y Beneficencia De Valentin Alsina", "addr_full": "Choele Choele 892", "addr_postcode": "1822", "phone": "", "ref_sisa_codigo": 10064342305482, "ref_sisa_tipologia": "ESCIG", "wikidata": "", "wikipedia": "" }, "geometry": { "type": "Point", "coordinates": [ -58.4113455, -34.671988 ] } },
{ "type": "Feature", "properties": { "amenity": "clinic", "healthcare": "clinic", "operator": "Municipal", "operator_type": "public", "name": "Servicio De Pediatria Odontologia Maspero", "addr_full": "Dr. Luis Maspero 35", "addr_postcode": "1826", "phone": "011-4247-7518", "ref_sisa_codigo": 50064342201977, "ref_sisa_tipologia": "ESSIDT", "wikidata": "", "wikipedia": "" }, "geometry": { "type": "Point", "coordinates": [ -58.3953269, -34.7235211 ] } },
{ "type": "Feature", "properties": { "amenity": "clinic", "healthcare": "clinic", "operator": "Municipal", "operator_type": "public", "name": "Unidad Sanitaria 1° De Mayo De Lanus", "addr_full": "Sanchez De Bustamante 2355", "addr_postcode": "1824", "phone": "(011) 4246-8689", "ref_sisa_codigo": 50064342202918, "ref_sisa_tipologia": "ESSIDT", "wikidata": "", "wikipedia": "" }, "geometry": { "type": "Point", "coordinates": [ -58.3617635, -34.7038622 ] } },
{ "type": "Feature", "properties": { "amenity": "clinic", "healthcare": "clinic", "operator": "Municipal", "operator_type": "public", "name": "Unidad Sanitaria Doctor Nicolas Natiello", "addr_full": "Martinto 1198", "addr_postcode": "1825", "phone": "(011) 4246-8126", "ref_sisa_codigo": 50064342202240, "ref_sisa_tipologia": "ESSIDT", "wikidata": "", "wikipedia": "" }, "geometry": { "type": "Point", "coordinates": [ -58.3422464, -34.7326173 ] } },
{ "type": "Feature", "properties": { "amenity": "clinic", "healthcare": "clinic", "operator": "Municipal", "operator_type": "public", "name": "Unidad Sanitaria La Salud Como Derecho", "addr_full": "Pasaje Eva Peron 2420", "addr_postcode": "6030", "phone": "011-42868867", "ref_sisa_codigo": 50064902202379, "ref_sisa_tipologia": "ESSIDT", "wikidata": "", "wikipedia": "" }, "geometry": { "type": "Point", "coordinates": [ -58.4379022, -34.6951195 ] } },
{ "type": "Feature", "properties": { "amenity": "clinic", "healthcare": "clinic", "operator": "Municipal", "operator_type": "public", "name": "Unidad Sanitaria Lanus Oeste", "addr_full": "Avenida 25 De Mayo 707", "addr_postcode": "1824", "phone": "(011) 241-7777\/2305", "ref_sisa_codigo": 50064342202389, "ref_sisa_tipologia": "ESSIDT", "wikidata": "", "wikipedia": "" }, "geometry": { "type": "Point", "coordinates": [ -58.4021965, -34.7065491 ] } },
{ "type": "Feature", "properties": { "amenity": "clinic", "healthcare": "clinic", "operator": "Municipal", "operator_type": "public", "name": "Unidad Sanitaria Miranda Norgreen", "addr_full": "Cnel. José Murature 4114", "addr_postcode": "1824", "phone": "(011) 4286-9778", "ref_sisa_codigo": 50064342202451, "ref_sisa_tipologia": "ESSIDT", "wikidata": "", "wikipedia": "" }, "geometry": { "type": "Point", "coordinates": [ -58.4345413, -34.7002422 ] } },
{ "type": "Feature", "properties": { "amenity": "clinic", "healthcare": "clinic", "operator": "Municipal", "operator_type": "public", "name": "Unidad Sanitaria Monte Chingolo", "addr_full": "Blanco Encalada Y Rondeau 4393", "addr_postcode": "1825", "phone": "(011) 4246-4702", "ref_sisa_codigo": 50064342202455, "ref_sisa_tipologia": "ESSIDT", "wikidata": "", "wikipedia": "" }, "geometry": { "type": "Point", "coordinates": [ -58.3471119, -34.7231452 ] } },
{ "type": "Feature", "properties": { "amenity": "clinic", "healthcare": "clinic", "operator": "Municipal", "operator_type": "public", "name": "Unidad Sanitaria 48 Villa Pora De Lanus", "addr_full": "Bueras 3100", "addr_postcode": "1824", "phone": "", "ref_sisa_codigo": 50064342202626, "ref_sisa_tipologia": "ESSIDT", "wikidata": "", "wikipedia": "" }, "geometry": { "type": "Point", "coordinates": [ -58.3573473, -34.7108793 ] } },
{ "type": "Feature", "properties": { "amenity": "clinic", "healthcare": "clinic", "operator": "Municipal", "operator_type": "public", "name": "Unidad Sanitaria San Martin De Lanus", "addr_full": "Corvalán 2107", "addr_postcode": "1824", "phone": "(011) 4246-6666", "ref_sisa_codigo": 50064342202798, "ref_sisa_tipologia": "ESSIDT", "wikidata": "", "wikipedia": "" }, "geometry": { "type": "Point", "coordinates": [ -58.3596825, -34.73154 ] } },
{ "type": "Feature", "properties": { "amenity": "clinic", "healthcare": "clinic", "operator": "Municipal", "operator_type": "public", "name": "Unidad Sanitaria Valentin Alsina", "addr_full": "Paso De Burgos 777", "addr_postcode": "1824", "phone": "(011) 4208-5555", "ref_sisa_codigo": 50064342202858, "ref_sisa_tipologia": "ESSIDT", "wikidata": "", "wikipedia": "" }, "geometry": { "type": "Point", "coordinates": [ -58.4093687, -34.6720732 ] } },
{ "type": "Feature", "properties": { "amenity": "clinic", "healthcare": "clinic", "operator": "Municipal", "operator_type": "public", "name": "Unidad Sanitaria Villa Jardin", "addr_full": "Emilio Castro 3826", "addr_postcode": "1824", "phone": "(011) 4208-9841", "ref_sisa_codigo": 50064342202891, "ref_sisa_tipologia": "ESSIDT", "wikidata": "", "wikipedia": "" }, "geometry": { "type": "Point", "coordinates": [ -58.4309846, -34.6780739 ] } }
]
}
