{
"type": "FeatureCollection",
"name": "065-primero_de_mayo",
"features": [
{ "type": "Feature", "properties": { "amenity": "clinic", "healthcare": "clinic", "operator": "Provincial", "operator_type": "public", "name": "Centro De Salud Barrio San Pedro Pescador", "addr_full": "Planta Urbana- Cerca Puente General Belgrano", "addr_postcode": "3505", "phone": "", "ref_sisa_codigo": 50221402126158, "ref_sisa_tipologia": "ESSIDT", "wikidata": "", "wikipedia": "" }, "geometry": { "type": "Point", "coordinates": [ -58.8812256, -27.4522277 ] } },
{ "type": "Feature", "properties": { "amenity": "clinic", "healthcare": "clinic", "operator": "Provincial", "operator_type": "public", "name": "Centro De Salud Colonia Benitez", "addr_full": "Cardenal S\/N - Planta Urbana", "addr_postcode": "3505", "phone": "(03722) 493011", "ref_sisa_codigo": 50221262126188, "ref_sisa_tipologia": "ESSIDT", "wikidata": "", "wikipedia": "" }, "geometry": { "type": "Point", "coordinates": [ -58.9339256, -27.3318202 ] } },
{ "type": "Feature", "properties": { "amenity": "clinic", "healthcare": "clinic", "operator": "Provincial", "operator_type": "public", "name": "Centro De Salud Costa Ine", "addr_full": "Zona Rural-Costa Ine", "addr_postcode": "4159", "phone": "", "ref_sisa_codigo": 50221262126203, "ref_sisa_tipologia": "ESSIDT", "wikidata": "", "wikipedia": "" }, "geometry": { "type": "Point", "coordinates": [ -58.9615, -27.2556 ] } },
{ "type": "Feature", "properties": { "amenity": "clinic", "healthcare": "clinic", "operator": "Provincial", "operator_type": "public", "name": "Centro De Salud Margarita Belen", "addr_full": "Manzana 105-Planta Urbana-Pablo Gerzel E Hipolito Irigoyen", "addr_postcode": "3505", "phone": "0362-4497001", "ref_sisa_codigo": 50221262126367, "ref_sisa_tipologia": "ESSIDT", "wikidata": "", "wikipedia": "" }, "geometry": { "type": "Point", "coordinates": [ -58.96873, -27.25882 ] } },
{ "type": "Feature", "properties": { "amenity": "clinic", "healthcare": "clinic", "operator": "Provincial", "operator_type": "public", "name": "Centro De Salud Tres Horquetas", "addr_full": "Zona Rural-Tres Horquetas", "addr_postcode": "3511", "phone": "", "ref_sisa_codigo": 50221262126460, "ref_sisa_tipologia": "ESSIDT", "wikidata": "", "wikipedia": "" }, "geometry": { "type": "Point", "coordinates": [ -58.9333248, -27.3335167 ] } },
{ "type": "Feature", "properties": { "amenity": "clinic", "healthcare": "clinic", "operator": "Municipal", "operator_type": "public", "name": "Centro Integrador Comunitario", "addr_full": "Av San Martin Y Av 9 De Julio", "addr_postcode": "3505", "phone": "", "ref_sisa_codigo": 50221262227269, "ref_sisa_tipologia": "ESSIDT", "wikidata": "", "wikipedia": "" }, "geometry": { "type": "Point", "coordinates": [ -58.9840508, -27.2833153 ] } },
{ "type": "Feature", "properties": { "amenity": "clinic", "healthcare": "clinic", "operator": "Provincial", "operator_type": "public", "name": "Comunidad Terapeutica La Eduvigis", "addr_full": "Zona Rural Ruta 90  - 4 Km Por Camino Vecinal De Tierra", "addr_postcode": "3507", "phone": "0362 15 4 523496", "ref_sisa_codigo": 13220842127139, "ref_sisa_tipologia": "ESCIESM", "wikidata": "", "wikipedia": "" }, "geometry": { "type": "Point", "coordinates": [ -58.975811, -26.9530598 ] } }
]
}
