{
"type": "FeatureCollection",
"name": "066-comuna_10",
"features": [
{ "type": "Feature", "properties": { "amenity": "clinic", "healthcare": "clinic", "operator": "Municipal", "operator_type": "public", "name": "CESAC 36", "addr_full": "Mercedes 1371\/79", "addr_postcode": "1407", "phone": "4567-1891", "ref_sisa_codigo": 50020012115369, "ref_sisa_tipologia": "ESSIDT", "wikidata": "Q90206227", "wikipedia": "" }, "geometry": { "type": "Point", "coordinates": [ -58.491916, -34.6218898 ] } },
{ "type": "Feature", "properties": { "amenity": "clinic", "healthcare": "clinic", "operator": "Municipal", "operator_type": "public", "name": "CMB 19", "addr_full": "Coligue 2977", "addr_postcode": "1419", "phone": "(011) 4566-8314", "ref_sisa_codigo": 50020012115396, "ref_sisa_tipologia": "ESSIDT", "wikidata": "", "wikipedia": "" }, "geometry": { "type": "Point", "coordinates": [ -58.5268307, -34.6136963 ] } },
{ "type": "Feature", "properties": { "amenity": "clinic", "healthcare": "clinic", "operator": "Municipal", "operator_type": "public", "name": "CMB 3", "addr_full": "Avenida Juan B. Justo 9668", "addr_postcode": "1408", "phone": "(011) 4644-5654", "ref_sisa_codigo": 50020012115408, "ref_sisa_tipologia": "ESSIDT", "wikidata": "", "wikipedia": "" }, "geometry": { "type": "Point", "coordinates": [ -58.5263547, -34.6346229 ] } },
{ "type": "Feature", "properties": { "amenity": "clinic", "healthcare": "clinic", "operator": "Municipal", "operator_type": "public", "name": "CMB 32", "addr_full": "Calderon De La Barca 1198", "addr_postcode": "1407", "phone": "(011) 4639-6249", "ref_sisa_codigo": 50020012115411, "ref_sisa_tipologia": "ESSIDT", "wikidata": "", "wikipedia": "" }, "geometry": { "type": "Point", "coordinates": [ -58.5039976, -34.6278556 ] } },
{ "type": "Feature", "properties": { "amenity": "clinic", "healthcare": "clinic", "operator": "Municipal", "operator_type": "public", "name": "CMB 38", "addr_full": "Moreto 1581", "addr_postcode": "1407", "phone": "(011) 4635-2599", "ref_sisa_codigo": 50020012115417, "ref_sisa_tipologia": "ESSIDT", "wikidata": "", "wikipedia": "" }, "geometry": { "type": "Point", "coordinates": [ -58.4947776, -34.6383108 ] } },
{ "type": "Feature", "properties": { "amenity": "clinic", "healthcare": "clinic", "operator": "Municipal", "operator_type": "public", "name": "CMB 5", "addr_full": "Nogoya 4302", "addr_postcode": "1417", "phone": "(011) 4639-5229", "ref_sisa_codigo": 50020012115419, "ref_sisa_tipologia": "ESSIDT", "wikidata": "", "wikipedia": "" }, "geometry": { "type": "Point", "coordinates": [ -58.5070422, -34.6145442 ] } },
{ "type": "Feature", "properties": { "amenity": "hospital", "healthcare": "hospital", "operator": "Municipal", "operator_type": "public", "name": "Hospital General De Agudos Dalmacio Velez Sarsfield", "addr_full": "Pedro Calderon De La Barca 1550", "addr_postcode": "", "phone": "(011) 4639-8700\/8705", "ref_sisa_codigo": 10020012215214, "ref_sisa_tipologia": "ESCIG", "wikidata": "Q93140613", "wikipedia": "" }, "geometry": { "type": "Point", "coordinates": [ -58.5074544, -34.6256157 ] } }
]
}
