{
"type": "FeatureCollection",
"name": "067-bariloche",
"features": [
{ "type": "Feature", "properties": { "amenity": "clinic", "healthcare": "clinic", "operator": "Provincial", "operator_type": "public", "name": "CAPS Manso Inferior", "addr_full": "El Manso S\/N", "addr_postcode": "7106", "phone": "02944-492240", "ref_sisa_codigo": 50620212170294, "ref_sisa_tipologia": "ESSIDT", "wikidata": "", "wikipedia": "" }, "geometry": { "type": "Point", "coordinates": [ -71.7325157, -41.6011985 ] } },
{ "type": "Feature", "properties": { "amenity": "clinic", "healthcare": "clinic", "operator": "Provincial", "operator_type": "public", "name": "CAPS Pampa Del Mallin Ahogado", "addr_full": "Pampa De Mallín Ahogado", "addr_postcode": "7106", "phone": "02944-498291", "ref_sisa_codigo": 50620212170298, "ref_sisa_tipologia": "ESSIDT", "wikidata": "", "wikipedia": "" }, "geometry": { "type": "Point", "coordinates": [ -71.50417, -41.83938 ] } },
{ "type": "Feature", "properties": { "amenity": "clinic", "healthcare": "clinic", "operator": "Provincial", "operator_type": "public", "name": "CAPS Rio Villegas", "addr_full": "Rio Villegas S\/N", "addr_postcode": "7106", "phone": "", "ref_sisa_codigo": 50620212170296, "ref_sisa_tipologia": "ESSIDT", "wikidata": "", "wikipedia": "" }, "geometry": { "type": "Point", "coordinates": [ -71.50078, -41.58106 ] } },
{ "type": "Feature", "properties": { "amenity": "clinic", "healthcare": "clinic", "operator": "Provincial", "operator_type": "public", "name": "Centro De Integracion Comunitaria", "addr_full": "Los Cipreses Y Primavera", "addr_postcode": "8430", "phone": "", "ref_sisa_codigo": 51620212170514, "ref_sisa_tipologia": "ESSIDT", "wikidata": "", "wikipedia": "" }, "geometry": { "type": "Point", "coordinates": [ -71.534729, -41.9681697 ] } },
{ "type": "Feature", "properties": { "amenity": "clinic", "healthcare": "clinic", "operator": "Provincial", "operator_type": "public", "name": "Centro De Salud 34 Hectareas", "addr_full": "Centro Comunitario Barrio 2 De Abril", "addr_postcode": "8400", "phone": "", "ref_sisa_codigo": 50620212170214, "ref_sisa_tipologia": "ESSIDT", "wikidata": "", "wikipedia": "" }, "geometry": { "type": "Point", "coordinates": [ -71.344398, -41.167479 ] } },
{ "type": "Feature", "properties": { "amenity": "clinic", "healthcare": "clinic", "operator": "Provincial", "operator_type": "public", "name": "Centro De Salud Barrio Esperanza", "addr_full": "Barrio Esperanza", "addr_postcode": "8430", "phone": "0299-455950", "ref_sisa_codigo": 50620212170108, "ref_sisa_tipologia": "ESSIDT", "wikidata": "", "wikipedia": "" }, "geometry": { "type": "Point", "coordinates": [ -71.53194, -41.98667 ] } },
{ "type": "Feature", "properties": { "amenity": "clinic", "healthcare": "clinic", "operator": "Provincial", "operator_type": "public", "name": "Centro De Salud Barrio Lujan", "addr_full": "Calle Principal Del Barrio S\/N°", "addr_postcode": "8430", "phone": "(02944) 49-1843", "ref_sisa_codigo": 50620212170112, "ref_sisa_tipologia": "ESSIDT", "wikidata": "", "wikipedia": "" }, "geometry": { "type": "Point", "coordinates": [ -71.52031, -41.92115 ] } },
{ "type": "Feature", "properties": { "amenity": "clinic", "healthcare": "clinic", "operator": "Provincial", "operator_type": "public", "name": "Centro De Salud Barrio Usina", "addr_full": "Avenida Del Libertador", "addr_postcode": "8430", "phone": "", "ref_sisa_codigo": 50620212170120, "ref_sisa_tipologia": "ESSIDT", "wikidata": "", "wikipedia": "" }, "geometry": { "type": "Point", "coordinates": [ -71.54289, -41.95217 ] } },
{ "type": "Feature", "properties": { "amenity": "clinic", "healthcare": "clinic", "operator": "Provincial", "operator_type": "public", "name": "Centro De Salud Casa De La Salud", "addr_full": "Ruta Nacional 40 Y Beschet", "addr_postcode": "8400", "phone": "", "ref_sisa_codigo": 50620212170122, "ref_sisa_tipologia": "ESSIDT", "wikidata": "", "wikipedia": "" }, "geometry": { "type": "Point", "coordinates": [ -71.30625, -41.15458 ] } },
{ "type": "Feature", "properties": { "amenity": "clinic", "healthcare": "clinic", "operator": "Provincial", "operator_type": "public", "name": "Centro De Salud Costa Del Rio Azul", "addr_full": "Mallin Ahogado", "addr_postcode": "8430", "phone": "", "ref_sisa_codigo": 50620212170128, "ref_sisa_tipologia": "ESSIDT", "wikidata": "", "wikipedia": "" }, "geometry": { "type": "Point", "coordinates": [ -71.53571, -41.87319 ] } },
{ "type": "Feature", "properties": { "amenity": "clinic", "healthcare": "clinic", "operator": "Provincial", "operator_type": "public", "name": "Centro De Salud El Foyel", "addr_full": "Paraje El Foyel", "addr_postcode": "8430", "phone": "", "ref_sisa_codigo": 50620212170138, "ref_sisa_tipologia": "ESSIDT", "wikidata": "", "wikipedia": "" }, "geometry": { "type": "Point", "coordinates": [ -71.46029, -41.65408 ] } },
{ "type": "Feature", "properties": { "amenity": "clinic", "healthcare": "clinic", "operator": "Provincial", "operator_type": "public", "name": "Centro De Salud El Frutillar", "addr_full": "Cacique Chocori", "addr_postcode": "8400", "phone": "", "ref_sisa_codigo": 50620212170139, "ref_sisa_tipologia": "ESSIDT", "wikidata": "", "wikipedia": "" }, "geometry": { "type": "Point", "coordinates": [ -71.3278661, -41.1651269 ] } },
{ "type": "Feature", "properties": { "amenity": "clinic", "healthcare": "clinic", "operator": "Provincial", "operator_type": "public", "name": "Centro De Salud Industrial", "addr_full": "Malvinas Y Saavedra", "addr_postcode": "8363", "phone": "", "ref_sisa_codigo": 51620142170565, "ref_sisa_tipologia": "ESSIDT", "wikidata": "", "wikipedia": "" }, "geometry": { "type": "Point", "coordinates": [ -71.3142117, -41.1382282 ] } },
{ "type": "Feature", "properties": { "amenity": "clinic", "healthcare": "clinic", "operator": "Provincial", "operator_type": "public", "name": "Centro De Salud La Cumbre", "addr_full": "Los Andes 1707", "addr_postcode": "8400", "phone": "", "ref_sisa_codigo": 50620212170159, "ref_sisa_tipologia": "ESSIDT", "wikidata": "", "wikipedia": "" }, "geometry": { "type": "Point", "coordinates": [ -71.3140179, -41.1484316 ] } },
{ "type": "Feature", "properties": { "amenity": "clinic", "healthcare": "clinic", "operator": "Provincial", "operator_type": "public", "name": "Centro De Salud Las Quintas", "addr_full": "Onelli 1578", "addr_postcode": "8400", "phone": "", "ref_sisa_codigo": 50620212170163, "ref_sisa_tipologia": "ESSIDT", "wikidata": "", "wikipedia": "" }, "geometry": { "type": "Point", "coordinates": [ -71.2995095, -41.1480444 ] } },
{ "type": "Feature", "properties": { "amenity": "clinic", "healthcare": "clinic", "operator": "Provincial", "operator_type": "public", "name": "Centro De Salud Lera", "addr_full": "Los Colihues 1460", "addr_postcode": "8400", "phone": "", "ref_sisa_codigo": 50620212170164, "ref_sisa_tipologia": "ESSIDT", "wikidata": "", "wikipedia": "" }, "geometry": { "type": "Point", "coordinates": [ -71.2866003, -41.1480798 ] } },
{ "type": "Feature", "properties": { "amenity": "clinic", "healthcare": "clinic", "operator": "Provincial", "operator_type": "public", "name": "Centro De Salud Los Arrayanes", "addr_full": "Maitenes 845", "addr_postcode": "8400", "phone": "", "ref_sisa_codigo": 50620212170165, "ref_sisa_tipologia": "ESSIDT", "wikidata": "", "wikipedia": "" }, "geometry": { "type": "Point", "coordinates": [ -71.3025843, -41.1600548 ] } },
{ "type": "Feature", "properties": { "amenity": "clinic", "healthcare": "clinic", "operator": "Provincial", "operator_type": "public", "name": "Centro De Salud Ojo De Agua", "addr_full": "Dos Islas Entre Isla Del Tigre Y Paso De Los Vuriloches - Barrio Nahuel Hue", "addr_postcode": "8400", "phone": "", "ref_sisa_codigo": 51620212170556, "ref_sisa_tipologia": "ESSIDT", "wikidata": "", "wikipedia": "" }, "geometry": { "type": "Point", "coordinates": [ -71.31618, -41.1754 ] } },
{ "type": "Feature", "properties": { "amenity": "clinic", "healthcare": "clinic", "operator": "Provincial", "operator_type": "public", "name": "Centro De Salud Pilar I", "addr_full": "Vicente Robles S\/N- Barrio Pilar I", "addr_postcode": "8400", "phone": "", "ref_sisa_codigo": 50620212170871, "ref_sisa_tipologia": "ESSIDT", "wikidata": "", "wikipedia": "" }, "geometry": { "type": "Point", "coordinates": [ -71.35004, -41.18131 ] } },
{ "type": "Feature", "properties": { "amenity": "clinic", "healthcare": "clinic", "operator": "Provincial", "operator_type": "public", "name": "Centro De Salud Pilar Ii", "addr_full": "Barrio Pilar Ii", "addr_postcode": "8400", "phone": "02944 15660408", "ref_sisa_codigo": 51620212170493, "ref_sisa_tipologia": "ESSIDT", "wikidata": "", "wikipedia": "" }, "geometry": { "type": "Point", "coordinates": [ -71.34056, -41.1899 ] } },
{ "type": "Feature", "properties": { "amenity": "clinic", "healthcare": "clinic", "operator": "Provincial", "operator_type": "public", "name": "Centro De Salud Rinconada Nahuelpan", "addr_full": "Paraje Rinconada De Nahuelpan", "addr_postcode": "8430", "phone": "", "ref_sisa_codigo": 50620212170187, "ref_sisa_tipologia": "ESSIDT", "wikidata": "", "wikipedia": "" }, "geometry": { "type": "Point", "coordinates": [ -71.4932, -41.90042 ] } },
{ "type": "Feature", "properties": { "amenity": "clinic", "healthcare": "clinic", "operator": "Provincial", "operator_type": "public", "name": "Centro De Salud San Francisco (De Barrio Ippv)", "addr_full": "Avenida San Martin 750", "addr_postcode": "8430", "phone": "", "ref_sisa_codigo": 50620212170191, "ref_sisa_tipologia": "ESSIDT", "wikidata": "", "wikipedia": "" }, "geometry": { "type": "Point", "coordinates": [ -71.3192928, -41.1327785 ] } },
{ "type": "Feature", "properties": { "amenity": "clinic", "healthcare": "clinic", "operator": "Provincial", "operator_type": "public", "name": "Centro De Salud San Francisco Iii", "addr_full": "San Jose De Costa Rica 1150", "addr_postcode": "8400", "phone": "", "ref_sisa_codigo": 50620212170192, "ref_sisa_tipologia": "ESSIDT", "wikidata": "", "wikipedia": "" }, "geometry": { "type": "Point", "coordinates": [ -71.2760503, -41.1442828 ] } },
{ "type": "Feature", "properties": { "amenity": "clinic", "healthcare": "clinic", "operator": "Provincial", "operator_type": "public", "name": "Centro De Salud Virgen Misionera", "addr_full": "Tejada Gomez 7120", "addr_postcode": "8400", "phone": "", "ref_sisa_codigo": 50620212170211, "ref_sisa_tipologia": "ESSIDT", "wikidata": "", "wikipedia": "" }, "geometry": { "type": "Point", "coordinates": [ -71.3891256, -41.1312028 ] } },
{ "type": "Feature", "properties": { "amenity": "hospital", "healthcare": "hospital", "operator": "Privado", "operator_type": "private", "name": "Clinica La Merced", "addr_full": "Azcuénaga 564", "addr_postcode": "8430", "phone": "(02944) 49-2466", "ref_sisa_codigo": 10620212370002, "ref_sisa_tipologia": "ESCIG", "wikidata": "", "wikipedia": "" }, "geometry": { "type": "Point", "coordinates": [ -71.5352681, -41.9617723 ] } },
{ "type": "Feature", "properties": { "amenity": "hospital", "healthcare": "hospital", "operator": "Provincial", "operator_type": "public", "name": "Hospital Area Programa El Bolson", "addr_full": "Francisco Perito Moreno 2645", "addr_postcode": "8430", "phone": "(02944) 49-2838", "ref_sisa_codigo": 10620212170019, "ref_sisa_tipologia": "ESCIG", "wikidata": "", "wikipedia": "" }, "geometry": { "type": "Point", "coordinates": [ -71.53395, -41.96545 ] } },
{ "type": "Feature", "properties": { "amenity": "hospital", "healthcare": "hospital", "operator": "Provincial", "operator_type": "public", "name": "Hospital Area Programa San Carlos De Bariloche Doctor Ramon Carrillo", "addr_full": "Moreno 601", "addr_postcode": "8400", "phone": "0294-4426119\/4426100 int 395", "ref_sisa_codigo": 10620212170033, "ref_sisa_tipologia": "ESCIG", "wikidata": "", "wikipedia": "" }, "geometry": { "type": "Point", "coordinates": [ -71.3014395, -41.1355043 ] } },
{ "type": "Feature", "properties": { "amenity": "hospital", "healthcare": "hospital", "operator": "Privado", "operator_type": "private", "name": "Hospital Privado Regional Del Sur S.a", "addr_full": "20 De Febrero 598", "addr_postcode": "8400", "phone": "(02944) 52-5000", "ref_sisa_codigo": 10620212370041, "ref_sisa_tipologia": "ESCIG", "wikidata": "", "wikipedia": "" }, "geometry": { "type": "Point", "coordinates": [ -71.3125082, -41.1375851 ] } },
{ "type": "Feature", "properties": { "amenity": "hospital", "healthcare": "hospital", "operator": "Privado", "operator_type": "private", "name": "Sanatorio San Carlos S.a", "addr_full": "Avenida Bustillo Km 1", "addr_postcode": "8400", "phone": "(0294) 4437505", "ref_sisa_codigo": 10620212370050, "ref_sisa_tipologia": "ESCIG", "wikidata": "", "wikipedia": "" }, "geometry": { "type": "Point", "coordinates": [ -71.320828, -41.132613 ] } }
]
}
