{
"type": "FeatureCollection",
"name": "068-comuna_4",
"features": [
{ "type": "Feature", "properties": { "amenity": "clinic", "healthcare": "clinic", "operator": "Provincial", "operator_type": "public", "name": "Casa Masantonio", "addr_full": "Masantonio 2984", "addr_postcode": "1437", "phone": "", "ref_sisa_codigo": 50020042118986, "ref_sisa_tipologia": "ESSIDT", "wikidata": "", "wikipedia": "" }, "geometry": { "type": "Point", "coordinates": [ -58.4032762, -34.6463095 ] } },
{ "type": "Feature", "properties": { "amenity": "clinic", "healthcare": "clinic", "operator": "Municipal", "operator_type": "public", "name": "CESAC 1", "addr_full": "Velez Sarsfield 1271", "addr_postcode": "1289", "phone": "(011) 4302-0059", "ref_sisa_codigo": 50020012115343, "ref_sisa_tipologia": "ESSIDT", "wikidata": "", "wikipedia": "" }, "geometry": { "type": "Point", "coordinates": [ -58.3891904, -34.6490875 ] } },
{ "type": "Feature", "properties": { "amenity": "clinic", "healthcare": "clinic", "operator": "Municipal", "operator_type": "public", "name": "CESAC 10", "addr_full": "Amancio Alcorta 1402", "addr_postcode": "1283", "phone": "(011) 4304-2002", "ref_sisa_codigo": 50020012115344, "ref_sisa_tipologia": "ESSIDT", "wikidata": "", "wikipedia": "" }, "geometry": { "type": "Point", "coordinates": [ -58.3837764, -34.6334202 ] } },
{ "type": "Feature", "properties": { "amenity": "clinic", "healthcare": "clinic", "operator": "Municipal", "operator_type": "public", "name": "CESAC 16", "addr_full": "Osvaldo Cruz 2055", "addr_postcode": "1293", "phone": "(011) 4301-6411", "ref_sisa_codigo": 50020012115350, "ref_sisa_tipologia": "ESSIDT", "wikidata": "", "wikipedia": "" }, "geometry": { "type": "Point", "coordinates": [ -58.3747436, -34.6518434 ] } },
{ "type": "Feature", "properties": { "amenity": "clinic", "healthcare": "clinic", "operator": "Municipal", "operator_type": "public", "name": "CESAC 30", "addr_full": "Amancio Alcorta E Iguazu", "addr_postcode": "1437", "phone": "(011) 4912-2620", "ref_sisa_codigo": 50020012115364, "ref_sisa_tipologia": "ESSIDT", "wikidata": "Q90206196", "wikipedia": "" }, "geometry": { "type": "Point", "coordinates": [ -58.4045434, -34.6492552 ] } },
{ "type": "Feature", "properties": { "amenity": "clinic", "healthcare": "clinic", "operator": "Municipal", "operator_type": "public", "name": "CESAC 32", "addr_full": "Charrua 2900", "addr_postcode": "1437", "phone": "(011) 4919-7106", "ref_sisa_codigo": 50020012115366, "ref_sisa_tipologia": "ESSIDT", "wikidata": "", "wikipedia": "" }, "geometry": { "type": "Point", "coordinates": [ -58.4311348, -34.6543348 ] } },
{ "type": "Feature", "properties": { "amenity": "clinic", "healthcare": "clinic", "operator": "Municipal", "operator_type": "public", "name": "CESAC 35", "addr_full": "Osvaldo Cruz 3600", "addr_postcode": "1437", "phone": "(011) 4304-8720", "ref_sisa_codigo": 50020012217482, "ref_sisa_tipologia": "ESSIDT", "wikidata": "Q90206191", "wikipedia": "" }, "geometry": { "type": "Point", "coordinates": [ -58.399415, -34.6564746 ] } },
{ "type": "Feature", "properties": { "amenity": "clinic", "healthcare": "clinic", "operator": "Municipal", "operator_type": "public", "name": "CESAC 39", "addr_full": "24 De Noviembre 1679", "addr_postcode": "1242", "phone": "(011) 4911-3576", "ref_sisa_codigo": 50020012115372, "ref_sisa_tipologia": "ESSIDT", "wikidata": "Q90207116", "wikipedia": "" }, "geometry": { "type": "Point", "coordinates": [ -58.4098434, -34.630842 ] } },
{ "type": "Feature", "properties": { "amenity": "clinic", "healthcare": "clinic", "operator": "Municipal", "operator_type": "public", "name": "CESAC 41", "addr_full": "Ministro Brin 843", "addr_postcode": "1158", "phone": "4361-8736", "ref_sisa_codigo": 50020012115375, "ref_sisa_tipologia": "ESSIDT", "wikidata": "Q90206180", "wikipedia": "" }, "geometry": { "type": "Point", "coordinates": [ -58.3578994, -34.6312127 ] } },
{ "type": "Feature", "properties": { "amenity": "clinic", "healthcare": "clinic", "operator": "Municipal", "operator_type": "public", "name": "CESAC 8", "addr_full": "Osvaldo Cruz 3485", "addr_postcode": "1437", "phone": "(011) 4302-3825", "ref_sisa_codigo": 50020012115379, "ref_sisa_tipologia": "ESSIDT", "wikidata": "Q90206185", "wikipedia": "" }, "geometry": { "type": "Point", "coordinates": [ -58.3970171, -34.656086 ] } },
{ "type": "Feature", "properties": { "amenity": "clinic", "healthcare": "clinic", "operator": "Municipal", "operator_type": "public", "name": "CESAC 9", "addr_full": "Irala 1254", "addr_postcode": "1164", "phone": "(011) 4302-9983", "ref_sisa_codigo": 50020012115380, "ref_sisa_tipologia": "ESSIDT", "wikidata": "Q90206970", "wikipedia": "" }, "geometry": { "type": "Point", "coordinates": [ -58.3661127, -34.6401286 ] } },
{ "type": "Feature", "properties": { "amenity": "clinic", "healthcare": "clinic", "operator": "Municipal", "operator_type": "public", "name": "CMB 10", "addr_full": "Martin Garcia 612 Pb B", "addr_postcode": "1268", "phone": "(011) 4361 8866", "ref_sisa_codigo": 50020012115387, "ref_sisa_tipologia": "ESSIDT", "wikidata": "", "wikipedia": "" }, "geometry": { "type": "Point", "coordinates": [ -58.3586454, -34.6332079 ] } },
{ "type": "Feature", "properties": { "amenity": "clinic", "healthcare": "clinic", "operator": "Municipal", "operator_type": "public", "name": "CMB 18", "addr_full": "Carlos Maria Ramirez 1445", "addr_postcode": "1437", "phone": "(011) 4919-4671", "ref_sisa_codigo": 50020012115395, "ref_sisa_tipologia": "ESSIDT", "wikidata": "", "wikipedia": "" }, "geometry": { "type": "Point", "coordinates": [ -58.4228468, -34.6529444 ] } },
{ "type": "Feature", "properties": { "amenity": "clinic", "healthcare": "clinic", "operator": "Municipal", "operator_type": "public", "name": "CMB 24", "addr_full": "Brasil 2967", "addr_postcode": "1260", "phone": "(011) 4941-1385", "ref_sisa_codigo": 50020012115402, "ref_sisa_tipologia": "ESSIDT", "wikidata": "", "wikipedia": "" }, "geometry": { "type": "Point", "coordinates": [ -58.4053942, -34.63342 ] } },
{ "type": "Feature", "properties": { "amenity": "clinic", "healthcare": "clinic", "operator": "Municipal", "operator_type": "public", "name": "CMB 30", "addr_full": "Arzobispo Espinosa 1211", "addr_postcode": "1268", "phone": "(011) 4307-8377", "ref_sisa_codigo": 50020012115409, "ref_sisa_tipologia": "ESSIDT", "wikidata": "", "wikipedia": "" }, "geometry": { "type": "Point", "coordinates": [ -58.370533, -34.6336493 ] } },
{ "type": "Feature", "properties": { "amenity": "clinic", "healthcare": "clinic", "operator": "Municipal", "operator_type": "public", "name": "CMB 37", "addr_full": "Isabel La Catolica 1492", "addr_postcode": "1291", "phone": "(011) 4302-6078", "ref_sisa_codigo": 50020012115416, "ref_sisa_tipologia": "ESSIDT", "wikidata": "", "wikipedia": "" }, "geometry": { "type": "Point", "coordinates": [ -58.3763823, -34.6490929 ] } },
{ "type": "Feature", "properties": { "amenity": "clinic", "healthcare": "clinic", "operator": "Municipal", "operator_type": "public", "name": "COI 4", "addr_full": "Amancio Alcorta 1402", "addr_postcode": "1283", "phone": "(011) 4304-8335", "ref_sisa_codigo": 50020012115425, "ref_sisa_tipologia": "ESSIDT", "wikidata": "", "wikipedia": "" }, "geometry": { "type": "Point", "coordinates": [ -58.3837764, -34.6334202 ] } },
{ "type": "Feature", "properties": { "amenity": "hospital", "healthcare": "hospital", "operator": "FFAA\/Seguridad", "operator_type": "public", "name": "Hospital Aeronautico Central", "addr_full": "Ventura De La Vega 3697", "addr_postcode": "1437", "phone": "11-51687100", "ref_sisa_codigo": 10020012415206, "ref_sisa_tipologia": "ESCIG", "wikidata": "Q16575995", "wikipedia": "ES:Hospital Aeronáutico Central" }, "geometry": { "type": "Point", "coordinates": [ -58.4120536, -34.6530327 ] } },
{ "type": "Feature", "properties": { "amenity": "hospital", "healthcare": "hospital", "operator": "Privado", "operator_type": "private", "name": "Hospital Britanico De Buenos Aires", "addr_full": "Perdriel 74", "addr_postcode": "1275", "phone": "(011) 4304-1081", "ref_sisa_codigo": 10020012315207, "ref_sisa_tipologia": "ESCIG", "wikidata": "Q5908361", "wikipedia": "ES:Hospital Británico de Buenos Aires" }, "geometry": { "type": "Point", "coordinates": [ -58.3882356, -34.6344085 ] } },
{ "type": "Feature", "properties": { "amenity": "hospital", "healthcare": "hospital", "operator": "FFAA\/Seguridad", "operator_type": "public", "name": "Hospital Complejo Medico De La Policia Federal Churruca - Visca", "addr_full": "Uspallata 3400", "addr_postcode": "1437", "phone": "(011) 4912-4103  4254", "ref_sisa_codigo": 10020012415208, "ref_sisa_tipologia": "ESCIG", "wikidata": "Q93140226", "wikipedia": "" }, "geometry": { "type": "Point", "coordinates": [ -58.4114313, -34.639546 ] } },
{ "type": "Feature", "properties": { "amenity": "clinic", "healthcare": "clinic", "operator": "Municipal", "operator_type": "public", "name": "Hospital De Odontologia Infantil Don Benito Quinquela Martin", "addr_full": "Don Pedro De Mendoza 1795", "addr_postcode": "1167", "phone": "(011) 4301-4870\/4834", "ref_sisa_codigo": 50020012115435, "ref_sisa_tipologia": "ESSIDT", "wikidata": "Q89819725", "wikipedia": "" }, "geometry": { "type": "Point", "coordinates": [ -58.3602306, -34.6389743 ] } },
{ "type": "Feature", "properties": { "amenity": "hospital", "healthcare": "hospital", "operator": "Municipal", "operator_type": "public", "name": "Hospital General De Agudos Doctor Cosme Argerich", "addr_full": "Corbeta Pi Y Margal 750", "addr_postcode": "", "phone": "(011) 4121-0700\/0800", "ref_sisa_codigo": 10020012215217, "ref_sisa_tipologia": "ESCIG", "wikidata": "Q10966594", "wikipedia": "ES:Hospital Argerich" }, "geometry": { "type": "Point", "coordinates": [ -58.3661127, -34.6278581 ] } },
{ "type": "Feature", "properties": { "amenity": "hospital", "healthcare": "hospital", "operator": "Municipal", "operator_type": "public", "name": "Hospital General De Agudos Jose A. Penna", "addr_full": "Doctor Profesor Pedro Chutro 3380", "addr_postcode": "", "phone": "(011) 4912-1085", "ref_sisa_codigo": 10020012215222, "ref_sisa_tipologia": "ESCIG", "wikidata": "Q10946500", "wikipedia": "ES:Hospital Penna" }, "geometry": { "type": "Point", "coordinates": [ -58.4104676, -34.6428695 ] } }
]
}
