{
"type": "FeatureCollection",
"name": "069-florencio_varela",
"features": [
{ "type": "Feature", "properties": { "amenity": "clinic", "healthcare": "clinic", "operator": "Provincial", "operator_type": "public", "name": "Centro Provincial de Atención - Adicciones", "addr_full": "Calle 12 548 Esquina.Boulevard 50", "addr_postcode": "1888", "phone": "", "ref_sisa_codigo": 50062742116390, "ref_sisa_tipologia": "ESSIDT", "wikidata": "", "wikipedia": "" }, "geometry": { "type": "Point", "coordinates": [ -58.29636, -34.789527 ] } },
{ "type": "Feature", "properties": { "amenity": "hospital", "healthcare": "hospital", "operator": "Servicio Penitenciario Provincial", "operator_type": "public", "name": "CAPS 32", "addr_full": "Calle Buenos Aires y Ruta 53", "addr_postcode": "1888", "phone": "", "ref_sisa_codigo": 10062743217976, "ref_sisa_tipologia": "ESCIG", "wikidata": "", "wikipedia": "" }, "geometry": { "type": "Point", "coordinates": [ -58.263105, -34.938476 ] } },
{ "type": "Feature", "properties": { "amenity": "hospital", "healthcare": "hospital", "operator": "Servicio Penitenciario Provincial", "operator_type": "public", "name": "CAPS 42 - Unidad Carcelaria 42", "addr_full": "Calle Buenos Aires y Ruta 53 - Unidad Carcelaria 42", "addr_postcode": "1888", "phone": "", "ref_sisa_codigo": 10062743217974, "ref_sisa_tipologia": "ESCIG", "wikidata": "", "wikipedia": "" }, "geometry": { "type": "Point", "coordinates": [ -58.263099, -34.938433 ] } },
{ "type": "Feature", "properties": { "amenity": "clinic", "healthcare": "clinic", "operator": "Municipal", "operator_type": "public", "name": "CAPS Villa Vatteone", "addr_full": "12 De Octubre 363", "addr_postcode": "1888", "phone": "", "ref_sisa_codigo": 50062742206748, "ref_sisa_tipologia": "ESSIDT", "wikidata": "", "wikipedia": "" }, "geometry": { "type": "Point", "coordinates": [ -58.272883, -34.816728 ] } },
{ "type": "Feature", "properties": { "amenity": "clinic", "healthcare": "clinic", "operator": "Municipal", "operator_type": "public", "name": "Centro Comunitario De Salud Cedepo", "addr_full": "Calle Malal Hue S\/N - La Carolina Rural", "addr_postcode": "1888", "phone": "(02229) 49-2130", "ref_sisa_codigo": 50062742201115, "ref_sisa_tipologia": "ESSIDT", "wikidata": "", "wikipedia": "" }, "geometry": { "type": "Point", "coordinates": [ -58.2250714, -34.8781243 ] } },
{ "type": "Feature", "properties": { "amenity": "clinic", "healthcare": "clinic", "operator": "Municipal", "operator_type": "public", "name": "Centro De Integracion  Comunitaria", "addr_full": "Lobos Y Chascomús Bo. El Rocío", "addr_postcode": "1889", "phone": "", "ref_sisa_codigo": 50062742216377, "ref_sisa_tipologia": "ESSIDT", "wikidata": "", "wikipedia": "" }, "geometry": { "type": "Point", "coordinates": [ -58.2276464, -34.832735 ] } },
{ "type": "Feature", "properties": { "amenity": "clinic", "healthcare": "clinic", "operator": "Municipal", "operator_type": "public", "name": "Centro De Salud Carolina Ii", "addr_full": "Garin 2666 Entre Ciudadela Y San Fernando - Barrio Carolina Ii", "addr_postcode": "1888", "phone": "(02229) 45-3894", "ref_sisa_codigo": 50062742201213, "ref_sisa_tipologia": "ESSIDT", "wikidata": "", "wikipedia": "" }, "geometry": { "type": "Point", "coordinates": [ -58.1957345, -34.8228914 ] } },
{ "type": "Feature", "properties": { "amenity": "clinic", "healthcare": "clinic", "operator": "Municipal", "operator_type": "public", "name": "Centro De Salud Don Jose", "addr_full": "El Indio 57 - Barrio Don Jose", "addr_postcode": "1888", "phone": "(011) 4213-1731", "ref_sisa_codigo": 50062742201218, "ref_sisa_tipologia": "ESSIDT", "wikidata": "", "wikipedia": "" }, "geometry": { "type": "Point", "coordinates": [ -58.311764, -34.795192 ] } },
{ "type": "Feature", "properties": { "amenity": "clinic", "healthcare": "clinic", "operator": "Municipal", "operator_type": "public", "name": "Centro Periferico De Salud Sarmiento", "addr_full": "Calle 1339 Entre 1306 Y 1308 - Barrio Sarmiento", "addr_postcode": "1888", "phone": "(011) 4274-2096", "ref_sisa_codigo": 50062742201466, "ref_sisa_tipologia": "ESSIDT", "wikidata": "", "wikipedia": "" }, "geometry": { "type": "Point", "coordinates": [ -58.2719328, -34.8525155 ] } },
{ "type": "Feature", "properties": { "amenity": "clinic", "healthcare": "clinic", "operator": "Municipal", "operator_type": "public", "name": "Cic El Rocio", "addr_full": "Chascomus Y Lobos", "addr_postcode": "1888", "phone": "011-4221-3688", "ref_sisa_codigo": 50062742215008, "ref_sisa_tipologia": "ESSIDT", "wikidata": "", "wikipedia": "" }, "geometry": { "type": "Point", "coordinates": [ -58.2276678, -34.8327834 ] } },
{ "type": "Feature", "properties": { "amenity": "clinic", "healthcare": "clinic", "operator": "Municipal", "operator_type": "public", "name": "Cic Pista De Trote", "addr_full": "Río Traful Y Juramento", "addr_postcode": "1888", "phone": "011-42379568", "ref_sisa_codigo": 50062742216389, "ref_sisa_tipologia": "ESSIDT", "wikidata": "", "wikipedia": "" }, "geometry": { "type": "Point", "coordinates": [ -58.264339, -34.8253328 ] } },
{ "type": "Feature", "properties": { "amenity": "hospital", "healthcare": "hospital", "operator": "Privado", "operator_type": "private", "name": "Clinica Medica Privada Modelo De Florencio Varela S.a.", "addr_full": "Moreno 43 (esquina San Martín)", "addr_postcode": "1888", "phone": "", "ref_sisa_codigo": 10062742306081, "ref_sisa_tipologia": "ESCIG", "wikidata": "", "wikipedia": "" }, "geometry": { "type": "Point", "coordinates": [ -58.2788749, -34.8102663 ] } },
{ "type": "Feature", "properties": { "amenity": "hospital", "healthcare": "hospital", "operator": "Provincial", "operator_type": "public", "name": "Hospital General Mi Pueblo", "addr_full": "Doctor Juan Carlos Mainini 240", "addr_postcode": "1888", "phone": "(011) 4255-1767", "ref_sisa_codigo": 10062742100225, "ref_sisa_tipologia": "ESCIG", "wikidata": "", "wikipedia": "" }, "geometry": { "type": "Point", "coordinates": [ -58.2717754, -34.8195402 ] } },
{ "type": "Feature", "properties": { "amenity": "hospital", "healthcare": "hospital", "operator": "Privado", "operator_type": "private", "name": "Instituto Del Diagnostico Florencio Varela", "addr_full": "Avenida 12 De Octubre 370", "addr_postcode": "1888", "phone": "", "ref_sisa_codigo": 10062742300412, "ref_sisa_tipologia": "ESCIG", "wikidata": "", "wikipedia": "" }, "geometry": { "type": "Point", "coordinates": [ -58.2729664, -34.8166108 ] } },
{ "type": "Feature", "properties": { "amenity": "hospital", "healthcare": "hospital", "operator": "Privado", "operator_type": "private", "name": "Sanatorio Santa Clara Florencio Varela", "addr_full": "General Juan M. De Pueyrredón 396", "addr_postcode": "1888", "phone": "(011) 4255-0239", "ref_sisa_codigo": 10062742300160, "ref_sisa_tipologia": "ESCIG", "wikidata": "", "wikipedia": "" }, "geometry": { "type": "Point", "coordinates": [ -58.2706222, -34.8147755 ] } },
{ "type": "Feature", "properties": { "amenity": "clinic", "healthcare": "clinic", "operator": "Municipal", "operator_type": "public", "name": "Unidad Movil", "addr_full": "12 De Octubre Y Florida", "addr_postcode": "1888", "phone": "4237-6184", "ref_sisa_codigo": 50062742215029, "ref_sisa_tipologia": "ESSIDT", "wikidata": "", "wikipedia": "" }, "geometry": { "type": "Point", "coordinates": [ -58.2726002, -34.8164282 ] } },
{ "type": "Feature", "properties": { "amenity": "clinic", "healthcare": "clinic", "operator": "Municipal", "operator_type": "public", "name": "Unidad Sanitaria 20 De Junio De Florencio Varela", "addr_full": "Sarratea (66) 1030 - San Nicolas", "addr_postcode": "1888", "phone": "(011) 4255-2177", "ref_sisa_codigo": 50062742202930, "ref_sisa_tipologia": "ESSIDT", "wikidata": "", "wikipedia": "" }, "geometry": { "type": "Point", "coordinates": [ -58.2915452, -34.8005093 ] } },
{ "type": "Feature", "properties": { "amenity": "clinic", "healthcare": "clinic", "operator": "Municipal", "operator_type": "public", "name": "Unidad Sanitaria Barrio San Jorge De Florencio Varela", "addr_full": "Calle 503 3805 Entre 554 Y 507 - Barrio San Jorge", "addr_postcode": "1888", "phone": "(011) 4255-3717", "ref_sisa_codigo": 50062742202127, "ref_sisa_tipologia": "ESSIDT", "wikidata": "", "wikipedia": "" }, "geometry": { "type": "Point", "coordinates": [ -58.292305, -34.8146591 ] } },
{ "type": "Feature", "properties": { "amenity": "clinic", "healthcare": "clinic", "operator": "Municipal", "operator_type": "public", "name": "Unidad Sanitaria Barrio Sirena De Florencio Varela", "addr_full": "Guido Spano 1017 - Barrio La Sirena", "addr_postcode": "1888", "phone": "(011) 4237-3417", "ref_sisa_codigo": 50062742202134, "ref_sisa_tipologia": "ESSIDT", "wikidata": "", "wikipedia": "" }, "geometry": { "type": "Point", "coordinates": [ -58.2912984, -34.7818038 ] } },
{ "type": "Feature", "properties": { "amenity": "clinic", "healthcare": "clinic", "operator": "Municipal", "operator_type": "public", "name": "Unidad Sanitaria Bosques Norte Baigorri", "addr_full": "Marcos Paz 1383", "addr_postcode": "1889", "phone": "011-42212402", "ref_sisa_codigo": 50062742202157, "ref_sisa_tipologia": "ESSIDT", "wikidata": "", "wikipedia": "" }, "geometry": { "type": "Point", "coordinates": [ -58.2227363, -34.817257 ] } },
{ "type": "Feature", "properties": { "amenity": "clinic", "healthcare": "clinic", "operator": "Municipal", "operator_type": "public", "name": "Unidad Sanitaria Doctor Arturo Oñativia Barrio El Parque", "addr_full": "Calle 21 Entre 5 Y 6 S\/N- Barrio El Parque", "addr_postcode": "1888", "phone": "(02229) 49-3584", "ref_sisa_codigo": 50062742202212, "ref_sisa_tipologia": "ESSIDT", "wikidata": "", "wikipedia": "" }, "geometry": { "type": "Point", "coordinates": [ -58.2913971, -34.7829326 ] } },
{ "type": "Feature", "properties": { "amenity": "clinic", "healthcare": "clinic", "operator": "Municipal", "operator_type": "public", "name": "Unidad Sanitaria Doctor Bengoechea", "addr_full": "Avenida Eva Peron (Ruta Provincial 53) Entre 1628 Y 1631 - Barrio La Capilla", "addr_postcode": "1888", "phone": "(02225) 49-8309", "ref_sisa_codigo": 50062742202220, "ref_sisa_tipologia": "ESSIDT", "wikidata": "", "wikipedia": "" }, "geometry": { "type": "Point", "coordinates": [ -58.266488, -34.922757 ] } },
{ "type": "Feature", "properties": { "amenity": "clinic", "healthcare": "clinic", "operator": "Municipal", "operator_type": "public", "name": "Unidad Sanitaria Doctor Evaristo Rodriguez - Villa Hudson", "addr_full": "Iberia 359 Entre Pico Truncado Y Brochero - Barrio Villa Hudson", "addr_postcode": "1888", "phone": "(011) 4213-9318", "ref_sisa_codigo": 50062742202226, "ref_sisa_tipologia": "ESSIDT", "wikidata": "", "wikipedia": "" }, "geometry": { "type": "Point", "coordinates": [ -58.2326331, -34.8402237 ] } },
{ "type": "Feature", "properties": { "amenity": "clinic", "healthcare": "clinic", "operator": "Municipal", "operator_type": "public", "name": "Unidad Sanitaria Ingeniero Allan", "addr_full": "Amelia (1134) Entre Cuyen (1147) Y Piran (1145) Barrio Ingeniero Allan", "addr_postcode": "1888", "phone": "02229-493400", "ref_sisa_codigo": 50062742202328, "ref_sisa_tipologia": "ESSIDT", "wikidata": "", "wikipedia": "" }, "geometry": { "type": "Point", "coordinates": [ -58.1992557, -34.8690132 ] } },
{ "type": "Feature", "properties": { "amenity": "clinic", "healthcare": "clinic", "operator": "Municipal", "operator_type": "public", "name": "Unidad Sanitaria La Esmeralda", "addr_full": "Avenida 13 De Diciembre (Av. Padre Obispo J. Novak)  2332 E\/Lambardi Y Liejas - Barrio La Esmeralda", "addr_postcode": "1888", "phone": "(011) 4237-3423", "ref_sisa_codigo": 50062742202363, "ref_sisa_tipologia": "ESSIDT", "wikidata": "", "wikipedia": "" }, "geometry": { "type": "Point", "coordinates": [ -58.284749, -34.820862 ] } },
{ "type": "Feature", "properties": { "amenity": "clinic", "healthcare": "clinic", "operator": "Municipal", "operator_type": "public", "name": "Unidad Sanitaria Las Malvinas", "addr_full": "Quebracho 2350", "addr_postcode": "1888", "phone": "(011) 4268-2052", "ref_sisa_codigo": 50062742202402, "ref_sisa_tipologia": "ESSIDT", "wikidata": "", "wikipedia": "" }, "geometry": { "type": "Point", "coordinates": [ -58.3262959, -34.8076979 ] } },
{ "type": "Feature", "properties": { "amenity": "clinic", "healthcare": "clinic", "operator": "Municipal", "operator_type": "public", "name": "Unidad Sanitaria Los Tronquitos", "addr_full": "Calle 1523 Entre 1550 Y 1552 - Barrio Los Tronquitos", "addr_postcode": "1888", "phone": "", "ref_sisa_codigo": 50062742202426, "ref_sisa_tipologia": "ESSIDT", "wikidata": "", "wikipedia": "" }, "geometry": { "type": "Point", "coordinates": [ -58.26611, -34.94667 ] } },
{ "type": "Feature", "properties": { "amenity": "clinic", "healthcare": "clinic", "operator": "Municipal", "operator_type": "public", "name": "Unidad Sanitaria Mandirola Barrio La Rotonda", "addr_full": "Cecilia Grierson Entre La Rotonda Y Juana De Ibarburu", "addr_postcode": "1888", "phone": "(02229) 49-5920", "ref_sisa_codigo": 50062742202434, "ref_sisa_tipologia": "ESSIDT", "wikidata": "", "wikipedia": "" }, "geometry": { "type": "Point", "coordinates": [ -58.208188, -34.842315 ] } },
{ "type": "Feature", "properties": { "amenity": "clinic", "healthcare": "clinic", "operator": "Municipal", "operator_type": "public", "name": "Unidad Sanitaria Martin Fierro De Florencio Varela", "addr_full": "Campichuelo (114) 445 - Barrio Martin Fierro", "addr_postcode": "1888", "phone": "(011) 4237-1425", "ref_sisa_codigo": 50062742202443, "ref_sisa_tipologia": "ESSIDT", "wikidata": "", "wikipedia": "" }, "geometry": { "type": "Point", "coordinates": [ -58.274333, -34.779012 ] } },
{ "type": "Feature", "properties": { "amenity": "clinic", "healthcare": "clinic", "operator": "Municipal", "operator_type": "public", "name": "Unidad Sanitaria 1 Zeballos De Florencio Varela", "addr_full": "Calle 820 87 Entre Avenida Hudson Y Soler - Villa Arias", "addr_postcode": "1888", "phone": "(011) 4255-1095", "ref_sisa_codigo": 50062742202470, "ref_sisa_tipologia": "ESSIDT", "wikidata": "", "wikipedia": "" }, "geometry": { "type": "Point", "coordinates": [ -58.251591, -34.8174931 ] } },
{ "type": "Feature", "properties": { "amenity": "clinic", "healthcare": "clinic", "operator": "Municipal", "operator_type": "public", "name": "Unidad Sanitaria 2 De Zeballos Florencio Varela", "addr_full": "Boedo 780 Y Sucre - Villa Esther", "addr_postcode": "1888", "phone": "(011) 4275-0772", "ref_sisa_codigo": 50062742202553, "ref_sisa_tipologia": "ESSIDT", "wikidata": "", "wikipedia": "" }, "geometry": { "type": "Point", "coordinates": [ -58.2492092, -34.8081472 ] } },
{ "type": "Feature", "properties": { "amenity": "clinic", "healthcare": "clinic", "operator": "Municipal", "operator_type": "public", "name": "Unidad Sanitaria Padre Mujica", "addr_full": "El Boyero (533) Entre Los Olivos Y El Algarrobo - Barrio Lujan", "addr_postcode": "1888", "phone": "(011) 4268-2197", "ref_sisa_codigo": 50062742202703, "ref_sisa_tipologia": "ESSIDT", "wikidata": "", "wikipedia": "" }, "geometry": { "type": "Point", "coordinates": [ -58.3133354, -34.8089224 ] } },
{ "type": "Feature", "properties": { "amenity": "clinic", "healthcare": "clinic", "operator": "Municipal", "operator_type": "public", "name": "Unidad Sanitaria Pico De Oro Doctor Nicolas Bocuzzi", "addr_full": "Yugoslavia Entre La Haya Y Madrid S\/N- Barrio Pico De Oro", "addr_postcode": "1888", "phone": "(011) 4274-2199", "ref_sisa_codigo": 50062742202723, "ref_sisa_tipologia": "ESSIDT", "wikidata": "", "wikipedia": "" }, "geometry": { "type": "Point", "coordinates": [ -58.2859125, -34.8378902 ] } },
{ "type": "Feature", "properties": { "amenity": "clinic", "healthcare": "clinic", "operator": "Municipal", "operator_type": "public", "name": "Unidad Sanitaria Presidente Peron Barrio Pepsi De Florencio Varela", "addr_full": "Ruta 36 Km 31.5 Entrada 50 Planta Baja - Barrio Presidente Peron - Bosques", "addr_postcode": "1889", "phone": "(011) 4221-1048", "ref_sisa_codigo": 50062742202733, "ref_sisa_tipologia": "ESSIDT", "wikidata": "", "wikipedia": "" }, "geometry": { "type": "Point", "coordinates": [ -58.23, -34.8192 ] } },
{ "type": "Feature", "properties": { "amenity": "clinic", "healthcare": "clinic", "operator": "Municipal", "operator_type": "public", "name": "Unidad Sanitaria Ricardo Rojas", "addr_full": "Copdevilla 960 - Barrio Ricardo Rojas", "addr_postcode": "1889", "phone": "(011) 4221-2382", "ref_sisa_codigo": 50062742202753, "ref_sisa_tipologia": "ESSIDT", "wikidata": "", "wikipedia": "" }, "geometry": { "type": "Point", "coordinates": [ -58.2335987, -34.8219587 ] } },
{ "type": "Feature", "properties": { "amenity": "clinic", "healthcare": "clinic", "operator": "Municipal", "operator_type": "public", "name": "Unidad Sanitaria San Eduardo", "addr_full": "Nicolas Rodriguez Peña 845", "addr_postcode": "1888", "phone": "(011) 4255-1045", "ref_sisa_codigo": 50062742202783, "ref_sisa_tipologia": "ESSIDT", "wikidata": "", "wikipedia": "" }, "geometry": { "type": "Point", "coordinates": [ -58.2823558, -34.7845693 ] } },
{ "type": "Feature", "properties": { "amenity": "clinic", "healthcare": "clinic", "operator": "Municipal", "operator_type": "public", "name": "Unidad Sanitaria San Francisco De Florencio Varela", "addr_full": "Calle 1336 Entre 1319 Y 1321 S\/N - Barrio San Francisco - El Alpino", "addr_postcode": "1888", "phone": "(011) 4274-3782", "ref_sisa_codigo": 50062742202787, "ref_sisa_tipologia": "ESSIDT", "wikidata": "", "wikipedia": "" }, "geometry": { "type": "Point", "coordinates": [ -58.2730165, -34.8680625 ] } },
{ "type": "Feature", "properties": { "amenity": "clinic", "healthcare": "clinic", "operator": "Municipal", "operator_type": "public", "name": "Unidad Sanitaria San Rudecindo", "addr_full": "Ambato Entre Alvear Nuñez Cabeza De Vaca Y Hernandarias - Barrio San Rudecindo", "addr_postcode": "1888", "phone": "", "ref_sisa_codigo": 50062742202806, "ref_sisa_tipologia": "ESSIDT", "wikidata": "", "wikipedia": "" }, "geometry": { "type": "Point", "coordinates": [ -58.2071199, -34.8172201 ] } },
{ "type": "Feature", "properties": { "amenity": "clinic", "healthcare": "clinic", "operator": "Municipal", "operator_type": "public", "name": "Unidad Sanitaria Santa Rosa", "addr_full": "Sicilia Entre Milan Y Brown Manzana 5", "addr_postcode": "1888", "phone": "", "ref_sisa_codigo": 50062742215030, "ref_sisa_tipologia": "ESSIDT", "wikidata": "", "wikipedia": "" }, "geometry": { "type": "Point", "coordinates": [ -58.2915902, -34.8304167 ] } },
{ "type": "Feature", "properties": { "amenity": "clinic", "healthcare": "clinic", "operator": "Municipal", "operator_type": "public", "name": "Unidad Sanitaria Santo Tomas", "addr_full": "Santa Cruz Entre Caracas Y Bogota", "addr_postcode": "1888", "phone": "(011) 4351-0581", "ref_sisa_codigo": 50062742202835, "ref_sisa_tipologia": "ESSIDT", "wikidata": "", "wikipedia": "" }, "geometry": { "type": "Point", "coordinates": [ -58.2450356, -34.7974787 ] } },
{ "type": "Feature", "properties": { "amenity": "clinic", "healthcare": "clinic", "operator": "Municipal", "operator_type": "public", "name": "Unidad Sanitaria Scrochi", "addr_full": "Blandengues (403) 1403 - Km 26.700", "addr_postcode": "1888", "phone": "(011) 4255-1036", "ref_sisa_codigo": 50062742202840, "ref_sisa_tipologia": "ESSIDT", "wikidata": "", "wikipedia": "" }, "geometry": { "type": "Point", "coordinates": [ -58.301159, -34.803663 ] } },
{ "type": "Feature", "properties": { "amenity": "clinic", "healthcare": "clinic", "operator": "Municipal", "operator_type": "public", "name": "Unidad Sanitaria Villa Angelica", "addr_full": "Tapalquen 1251 Entre Bolivar Y Gorriti", "addr_postcode": "1888", "phone": "(011) 4237-0240", "ref_sisa_codigo": 50062742202867, "ref_sisa_tipologia": "ESSIDT", "wikidata": "", "wikipedia": "" }, "geometry": { "type": "Point", "coordinates": [ -58.2613006, -34.7971879 ] } },
{ "type": "Feature", "properties": { "amenity": "clinic", "healthcare": "clinic", "operator": "Municipal", "operator_type": "public", "name": "Unidad Sanitaria Villa Argentina", "addr_full": "Calle 511 Entre 544 Y 546 S\/N - Villa Argentina", "addr_postcode": "1888", "phone": "(011) 4237-3416", "ref_sisa_codigo": 50062742202869, "ref_sisa_tipologia": "ESSIDT", "wikidata": "", "wikipedia": "" }, "geometry": { "type": "Point", "coordinates": [ -58.2981327, -34.8126926 ] } },
{ "type": "Feature", "properties": { "amenity": "clinic", "healthcare": "clinic", "operator": "Municipal", "operator_type": "public", "name": "Unidad Sanitaria Villa Aurora", "addr_full": "Victorino De La Plaza (11) 1250 - Barrio Villa Aurora", "addr_postcode": "1888", "phone": "(011) 4237-3472", "ref_sisa_codigo": 50062742202871, "ref_sisa_tipologia": "ESSIDT", "wikidata": "", "wikipedia": "" }, "geometry": { "type": "Point", "coordinates": [ -58.2800868, -34.7886063 ] } },
{ "type": "Feature", "properties": { "amenity": "clinic", "healthcare": "clinic", "operator": "Municipal", "operator_type": "public", "name": "Unidad Sanitaria Villa Del Plata", "addr_full": "Ameghino (129) 3810 Entre Caseros Y Santa Cruz - Barrio Villa Del Plata", "addr_postcode": "1888", "phone": "(011) 4237-3079", "ref_sisa_codigo": 50062742202877, "ref_sisa_tipologia": "ESSIDT", "wikidata": "", "wikipedia": "" }, "geometry": { "type": "Point", "coordinates": [ -58.2548096, -34.8020775 ] } },
{ "type": "Feature", "properties": { "amenity": "clinic", "healthcare": "clinic", "operator": "Municipal", "operator_type": "public", "name": "Unidad Sanitaria Villa Doctor Amador Roselli", "addr_full": "Calle 735 Entre 738 Y 740 - Barrio Villa Monica", "addr_postcode": "1888", "phone": "(011) 4274-1017", "ref_sisa_codigo": 50062742202879, "ref_sisa_tipologia": "ESSIDT", "wikidata": "", "wikipedia": "" }, "geometry": { "type": "Point", "coordinates": [ -58.2688859, -34.8348256 ] } }
]
}
