{
"type": "FeatureCollection",
"name": "070-comuna_7",
"features": [
{ "type": "Feature", "properties": { "amenity": "clinic", "healthcare": "clinic", "operator": "Municipal", "operator_type": "public", "name": "CESAC 19", "addr_full": "Curapaligüe 1905", "addr_postcode": "1406", "phone": "(011) 4925-0992", "ref_sisa_codigo": 50020012115352, "ref_sisa_tipologia": "ESSIDT", "wikidata": "Q90206218", "wikipedia": "" }, "geometry": { "type": "Point", "coordinates": [ -58.4423665, -34.6427988 ] } },
{ "type": "Feature", "properties": { "amenity": "clinic", "healthcare": "clinic", "operator": "Municipal", "operator_type": "public", "name": "CESAC 20", "addr_full": "Ana Maria Janer 2330", "addr_postcode": "1437", "phone": "(011) 4919-2144", "ref_sisa_codigo": 50020012115354, "ref_sisa_tipologia": "ESSIDT", "wikidata": "", "wikipedia": "" }, "geometry": { "type": "Point", "coordinates": [ -58.4416297, -34.6531177 ] } },
{ "type": "Feature", "properties": { "amenity": "clinic", "healthcare": "clinic", "operator": "Municipal", "operator_type": "public", "name": "CESAC 40", "addr_full": "Esteban Bonorino 1729", "addr_postcode": "1406", "phone": "(011) 4631-4554", "ref_sisa_codigo": 50020012115374, "ref_sisa_tipologia": "ESSIDT", "wikidata": "Q90206245", "wikipedia": "" }, "geometry": { "type": "Point", "coordinates": [ -58.4451199, -34.6450363 ] } },
{ "type": "Feature", "properties": { "amenity": "clinic", "healthcare": "clinic", "operator": "Municipal", "operator_type": "public", "name": "CESAC 44", "addr_full": "Saraza 4202 - Barrio Nagera", "addr_postcode": "1439", "phone": "2821-3644", "ref_sisa_codigo": 50020012117481, "ref_sisa_tipologia": "ESSIDT", "wikidata": "", "wikipedia": "" }, "geometry": { "type": "Point", "coordinates": [ -58.461342, -34.653121 ] } },
{ "type": "Feature", "properties": { "amenity": "hospital", "healthcare": "hospital", "operator": "Privado", "operator_type": "private", "name": "Clinica Y Maternidad Santa Isabel", "addr_full": "Av. Directorio 2037", "addr_postcode": "", "phone": "(011) 4670-8000", "ref_sisa_codigo": 12020012316686, "ref_sisa_tipologia": "ESCIG", "wikidata": "Q90410172", "wikipedia": "" }, "geometry": { "type": "Point", "coordinates": [ -58.4559774, -34.632078 ] } },
{ "type": "Feature", "properties": { "amenity": "clinic", "healthcare": "clinic", "operator": "Municipal", "operator_type": "public", "name": "CMB 12", "addr_full": "Paez 2283", "addr_postcode": "1406", "phone": "(011) 4631-8254", "ref_sisa_codigo": 50020012115389, "ref_sisa_tipologia": "ESSIDT", "wikidata": "", "wikipedia": "" }, "geometry": { "type": "Point", "coordinates": [ -58.4645605, -34.6192236 ] } },
{ "type": "Feature", "properties": { "amenity": "clinic", "healthcare": "clinic", "operator": "Municipal", "operator_type": "public", "name": "CMB 23", "addr_full": "Tejedor 251", "addr_postcode": "1424", "phone": "(011) 4923-8624", "ref_sisa_codigo": 50020012115401, "ref_sisa_tipologia": "ESSIDT", "wikidata": "", "wikipedia": "" }, "geometry": { "type": "Point", "coordinates": [ -58.4296703, -34.6299945 ] } },
{ "type": "Feature", "properties": { "amenity": "clinic", "healthcare": "clinic", "operator": "Municipal", "operator_type": "public", "name": "CMB 31", "addr_full": "Avelino Diaz 1971", "addr_postcode": "1406", "phone": "(011) 4632-2097", "ref_sisa_codigo": 50020012115410, "ref_sisa_tipologia": "ESSIDT", "wikidata": "", "wikipedia": "" }, "geometry": { "type": "Point", "coordinates": [ -58.445987, -34.6394532 ] } },
{ "type": "Feature", "properties": { "amenity": "clinic", "healthcare": "clinic", "operator": "Municipal", "operator_type": "public", "name": "CMB 4", "addr_full": "Avenida Carabobo 801", "addr_postcode": "1406", "phone": "(011) 4632-7525", "ref_sisa_codigo": 50020012115418, "ref_sisa_tipologia": "ESSIDT", "wikidata": "", "wikipedia": "" }, "geometry": { "type": "Point", "coordinates": [ -58.4525164, -34.6356266 ] } },
{ "type": "Feature", "properties": { "amenity": "clinic", "healthcare": "clinic", "operator": "Municipal", "operator_type": "public", "name": "CMB 8", "addr_full": "La Capital 1131", "addr_postcode": "1424", "phone": "(011) 4924-0461", "ref_sisa_codigo": 50020012115422, "ref_sisa_tipologia": "ESSIDT", "wikidata": "", "wikipedia": "" }, "geometry": { "type": "Point", "coordinates": [ -58.4320524, -34.6411395 ] } },
{ "type": "Feature", "properties": { "amenity": "hospital", "healthcare": "hospital", "operator": "Municipal", "operator_type": "public", "name": "Hospital General De Agudos Doctor Teodoro Alvarez", "addr_full": "Aranguren 2701", "addr_postcode": "", "phone": "011- 4611-6666", "ref_sisa_codigo": 10020012215221, "ref_sisa_tipologia": "ESCIG", "wikidata": "Q89822525", "wikipedia": "" }, "geometry": { "type": "Point", "coordinates": [ -58.4694088, -34.6243202 ] } },
{ "type": "Feature", "properties": { "amenity": "hospital", "healthcare": "hospital", "operator": "Municipal", "operator_type": "public", "name": "Hospital General De Agudos P. Pińero", "addr_full": "Avenida Varela 1301", "addr_postcode": "", "phone": "(011) 4631-8100\/0526", "ref_sisa_codigo": 10020012215212, "ref_sisa_tipologia": "ESCIG", "wikidata": "Q11682608", "wikipedia": "ES:Hospital Piñero" }, "geometry": { "type": "Point", "coordinates": [ -58.4541474, -34.643665 ] } },
{ "type": "Feature", "properties": { "amenity": "hospital", "healthcare": "hospital", "operator": "Privado", "operator_type": "private", "name": "Iteba - Instituto De Terapias Especializadas De Buenos Aires", "addr_full": "Terrada 550", "addr_postcode": "", "phone": "(011) 4611-2647", "ref_sisa_codigo": 10020012315468, "ref_sisa_tipologia": "ESCIG", "wikidata": "Q93141390", "wikipedia": "" }, "geometry": { "type": "Point", "coordinates": [ -58.4704828, -34.6252979 ] } }
]
}
