{
"type": "FeatureCollection",
"name": "071-moron",
"features": [
{ "type": "Feature", "properties": { "amenity": "clinic", "healthcare": "clinic", "operator": "Municipal", "operator_type": "public", "name": "Atencion Primaria Barrio Marina", "addr_full": "Lacarra 3535", "addr_postcode": "1712", "phone": "011-46925398", "ref_sisa_codigo": 50065682201063, "ref_sisa_tipologia": "ESSIDT", "wikidata": "", "wikipedia": "" }, "geometry": { "type": "Point", "coordinates": [ -58.6642327, -34.6833247 ] } },
{ "type": "Feature", "properties": { "amenity": "clinic", "healthcare": "clinic", "operator": "Municipal", "operator_type": "public", "name": "Centro Asistencial Doctor Angel Bo", "addr_full": "Almafuerte 2642", "addr_postcode": "1712", "phone": "", "ref_sisa_codigo": 50065682304090, "ref_sisa_tipologia": "ESSIDT", "wikidata": "", "wikipedia": "" }, "geometry": { "type": "Point", "coordinates": [ -58.6418173, -34.6529501 ] } },
{ "type": "Feature", "properties": { "amenity": "clinic", "healthcare": "clinic", "operator": "Municipal", "operator_type": "public", "name": "Centro De Salud Mercedes Sosa", "addr_full": "Eva Peron Esquina Baradero", "addr_postcode": "1708", "phone": "011-46970312", "ref_sisa_codigo": 50065682201207, "ref_sisa_tipologia": "ESSIDT", "wikidata": "", "wikipedia": "" }, "geometry": { "type": "Point", "coordinates": [ -58.636632, -34.689271 ] } },
{ "type": "Feature", "properties": { "amenity": "clinic", "healthcare": "clinic", "operator": "Municipal", "operator_type": "public", "name": "Centro De Salud Santa Laura", "addr_full": "Gral. Cornelio Saavedra 1265 - Barrio Santa Laura", "addr_postcode": "1708", "phone": "(011) 4650-8928", "ref_sisa_codigo": 50065682201355, "ref_sisa_tipologia": "ESSIDT", "wikidata": "", "wikipedia": "" }, "geometry": { "type": "Point", "coordinates": [ -58.5979714, -34.6578505 ] } },
{ "type": "Feature", "properties": { "amenity": "hospital", "healthcare": "hospital", "operator": "Privado", "operator_type": "private", "name": "Centro Medico Alcorta", "addr_full": "Gobernador Emilio Castro 729", "addr_postcode": "1706", "phone": "", "ref_sisa_codigo": 10065682300009, "ref_sisa_tipologia": "ESCIG", "wikidata": "", "wikipedia": "" }, "geometry": { "type": "Point", "coordinates": [ -58.5949971, -34.6514426 ] } },
{ "type": "Feature", "properties": { "amenity": "hospital", "healthcare": "hospital", "operator": "Privado", "operator_type": "private", "name": "Clinica De Ojos Doctor Nano", "addr_full": "Mendoza 45\/61", "addr_postcode": "1708", "phone": "", "ref_sisa_codigo": 10065682305907, "ref_sisa_tipologia": "ESCIG", "wikidata": "", "wikipedia": "" }, "geometry": { "type": "Point", "coordinates": [ -58.6225995, -34.6478392 ] } },
{ "type": "Feature", "properties": { "amenity": "hospital", "healthcare": "hospital", "operator": "Privado", "operator_type": "private", "name": "Clinica De Ojos Oftal Medic", "addr_full": "La Fraternidad 114", "addr_postcode": "1706", "phone": "", "ref_sisa_codigo": 10065682317280, "ref_sisa_tipologia": "ESCIG", "wikidata": "", "wikipedia": "" }, "geometry": { "type": "Point", "coordinates": [ -58.5896157, -34.6428268 ] } },
{ "type": "Feature", "properties": { "amenity": "hospital", "healthcare": "hospital", "operator": "Privado", "operator_type": "private", "name": "Clinica Modelo De Moron", "addr_full": "República Oriental De Uruguay 224", "addr_postcode": "1708", "phone": "", "ref_sisa_codigo": 10065682305587, "ref_sisa_tipologia": "ESCIG", "wikidata": "", "wikipedia": "" }, "geometry": { "type": "Point", "coordinates": [ -58.6172372, -34.6508109 ] } },
{ "type": "Feature", "properties": { "amenity": "hospital", "healthcare": "hospital", "operator": "Privado", "operator_type": "private", "name": "Clinica Privada Constituyentes", "addr_full": "Constituyentes 1068", "addr_postcode": "1708", "phone": "(011) 4483-3192 \/ 96", "ref_sisa_codigo": 10065682306666, "ref_sisa_tipologia": "ESCIG", "wikidata": "", "wikipedia": "" }, "geometry": { "type": "Point", "coordinates": [ -58.6181826, -34.6453052 ] } },
{ "type": "Feature", "properties": { "amenity": "hospital", "healthcare": "hospital", "operator": "Privado", "operator_type": "private", "name": "Clinica Privada Cordoba", "addr_full": "Córdoba 1205", "addr_postcode": "1708", "phone": "(011) 4696-0137", "ref_sisa_codigo": 10065682300090, "ref_sisa_tipologia": "ESCIG", "wikidata": "", "wikipedia": "" }, "geometry": { "type": "Point", "coordinates": [ -58.6048127, -34.662485 ] } },
{ "type": "Feature", "properties": { "amenity": "hospital", "healthcare": "hospital", "operator": "Privado", "operator_type": "private", "name": "Clinica Privada Dres. Marcelo S. Tachella", "addr_full": "Avenida Rivadavia 15577", "addr_postcode": "1706", "phone": "(011) 4460-9000 \/ 9032", "ref_sisa_codigo": 10065682300104, "ref_sisa_tipologia": "ESCIG", "wikidata": "", "wikipedia": "" }, "geometry": { "type": "Point", "coordinates": [ -58.5860968, -34.6435225 ] } },
{ "type": "Feature", "properties": { "amenity": "hospital", "healthcare": "hospital", "operator": "Privado", "operator_type": "private", "name": "Clinica Privada Gonzales Otharan", "addr_full": "Coronel Machado 772\/778", "addr_postcode": "1708", "phone": "(011) 4629-0870", "ref_sisa_codigo": 10065682305905, "ref_sisa_tipologia": "ESCIG", "wikidata": "", "wikipedia": "" }, "geometry": { "type": "Point", "coordinates": [ -58.6193776, -34.6464308 ] } },
{ "type": "Feature", "properties": { "amenity": "clinic", "healthcare": "clinic", "operator": "Provincial", "operator_type": "public", "name": "Hospital Moron - Serv Farmacia", "addr_full": "Uruguay 621", "addr_postcode": "1708", "phone": "", "ref_sisa_codigo": 50065682106684, "ref_sisa_tipologia": "ESSIDT", "wikidata": "", "wikipedia": "" }, "geometry": { "type": "Point", "coordinates": [ -58.617554, -34.654392 ] } },
{ "type": "Feature", "properties": { "amenity": "hospital", "healthcare": "hospital", "operator": "Municipal", "operator_type": "public", "name": "Hospital Municipal Ostaciana B. De Lavignole", "addr_full": "Doctor Rodolfo Monte 848", "addr_postcode": "1708", "phone": "011-46289602", "ref_sisa_codigo": 10065682200332, "ref_sisa_tipologia": "ESCIG", "wikidata": "", "wikipedia": "" }, "geometry": { "type": "Point", "coordinates": [ -58.6104227, -34.6586848 ] } },
{ "type": "Feature", "properties": { "amenity": "hospital", "healthcare": "hospital", "operator": "Nacional", "operator_type": "public", "name": "Hospital Nacional Profesor Doctor Alejandro Posadas", "addr_full": "Pte. A Illia Y Marconi", "addr_postcode": "1708", "phone": "011-44699300", "ref_sisa_codigo": 10065682000343, "ref_sisa_tipologia": "ESCIG", "wikidata": "Q5902814", "wikipedia": "ES:Hospital Nacional Profesor Alejandro Posadas" }, "geometry": { "type": "Point", "coordinates": [ -58.5750675, -34.6305949 ] } },
{ "type": "Feature", "properties": { "amenity": "hospital", "healthcare": "hospital", "operator": "Privado", "operator_type": "private", "name": "Instituto Medico Aguero", "addr_full": "Agüero 1395", "addr_postcode": "1708", "phone": "(011) 4696-4457", "ref_sisa_codigo": 10065682300123, "ref_sisa_tipologia": "ESCIG", "wikidata": "", "wikipedia": "" }, "geometry": { "type": "Point", "coordinates": [ -58.611907, -34.6702669 ] } },
{ "type": "Feature", "properties": { "amenity": "clinic", "healthcare": "clinic", "operator": "Municipal", "operator_type": "public", "name": "Unidad Sanitaria 10 De Agosto De Moron", "addr_full": "Avellaneda 2467 Barrio San Jose Moron Sur", "addr_postcode": "1708", "phone": "011-46961141", "ref_sisa_codigo": 50065682202919, "ref_sisa_tipologia": "ESSIDT", "wikidata": "", "wikipedia": "" }, "geometry": { "type": "Point", "coordinates": [ -58.6172833, -34.6753401 ] } },
{ "type": "Feature", "properties": { "amenity": "clinic", "healthcare": "clinic", "operator": "Municipal", "operator_type": "public", "name": "Unidad Sanitaria Almafuerte", "addr_full": "Gregoria Perez 131- Moron Sur", "addr_postcode": "1708", "phone": "011-46979407", "ref_sisa_codigo": 50065682202051, "ref_sisa_tipologia": "ESSIDT", "wikidata": "", "wikipedia": "" }, "geometry": { "type": "Point", "coordinates": [ -58.6397281, -34.6804398 ] } },
{ "type": "Feature", "properties": { "amenity": "clinic", "healthcare": "clinic", "operator": "Municipal", "operator_type": "public", "name": "Unidad Sanitaria Doctor Gelpi - Barrio San Juan", "addr_full": "Miró Y Betbeder - Castelar Sur", "addr_postcode": "1712", "phone": "011-46925547", "ref_sisa_codigo": 50065682202231, "ref_sisa_tipologia": "ESSIDT", "wikidata": "", "wikipedia": "" }, "geometry": { "type": "Point", "coordinates": [ -58.6524525, -34.6865096 ] } },
{ "type": "Feature", "properties": { "amenity": "clinic", "healthcare": "clinic", "operator": "Municipal", "operator_type": "public", "name": "Unidad Sanitaria Doctor Monte", "addr_full": "Grito De Alcorta 3500 - Barrio Belgrano", "addr_postcode": "1708", "phone": "011-46970915", "ref_sisa_codigo": 50065682202239, "ref_sisa_tipologia": "ESSIDT", "wikidata": "", "wikipedia": "" }, "geometry": { "type": "Point", "coordinates": [ -58.6316353, -34.6819074 ] } },
{ "type": "Feature", "properties": { "amenity": "clinic", "healthcare": "clinic", "operator": "Municipal", "operator_type": "public", "name": "Unidad Sanitaria Juana Azurduy", "addr_full": "Berlin 3870 - Castelar Sur", "addr_postcode": "1712", "phone": "(011) 4692-5399", "ref_sisa_codigo": 50065682202826, "ref_sisa_tipologia": "ESSIDT", "wikidata": "", "wikipedia": "" }, "geometry": { "type": "Point", "coordinates": [ -58.6643046, -34.6757634 ] } },
{ "type": "Feature", "properties": { "amenity": "clinic", "healthcare": "clinic", "operator": "Municipal", "operator_type": "public", "name": "Unidad Sanitaria Loma Verde De Castelar", "addr_full": "Curutchet 2531- Castelar Sur", "addr_postcode": "1712", "phone": "011-44895497", "ref_sisa_codigo": 50065682202412, "ref_sisa_tipologia": "ESSIDT", "wikidata": "", "wikipedia": "" }, "geometry": { "type": "Point", "coordinates": [ -58.6414447, -34.6344959 ] } },
{ "type": "Feature", "properties": { "amenity": "clinic", "healthcare": "clinic", "operator": "Municipal", "operator_type": "public", "name": "Unidad Sanitaria Malvinas Argentinas De Haedo", "addr_full": "Monoblock 29 Barrio Carlos Gardel", "addr_postcode": "1706", "phone": "011-44692021", "ref_sisa_codigo": 50065682202433, "ref_sisa_tipologia": "ESSIDT", "wikidata": "", "wikipedia": "" }, "geometry": { "type": "Point", "coordinates": [ -58.579878, -34.625792 ] } },
{ "type": "Feature", "properties": { "amenity": "clinic", "healthcare": "clinic", "operator": "Municipal", "operator_type": "public", "name": "Unidad Sanitaria Nuestra Señora Del Valle", "addr_full": "Rafael Castillo 951", "addr_postcode": "1684", "phone": "(011) 4450-3673", "ref_sisa_codigo": 50065682202693, "ref_sisa_tipologia": "ESSIDT", "wikidata": "", "wikipedia": "" }, "geometry": { "type": "Point", "coordinates": [ -58.6180772, -34.6299138 ] } },
{ "type": "Feature", "properties": { "amenity": "clinic", "healthcare": "clinic", "operator": "Municipal", "operator_type": "public", "name": "Unidad Sanitaria Presidente Ibañez", "addr_full": "Presidente Ibañez 1824 - Barrio San Jose", "addr_postcode": "1708", "phone": "(011) 4697-0915", "ref_sisa_codigo": 50065682202738, "ref_sisa_tipologia": "ESSIDT", "wikidata": "", "wikipedia": "" }, "geometry": { "type": "Point", "coordinates": [ -58.6162319, -34.6791075 ] } },
{ "type": "Feature", "properties": { "amenity": "clinic", "healthcare": "clinic", "operator": "Municipal", "operator_type": "public", "name": "Unidad Sanitaria San Francisco De Moron", "addr_full": "Santa Marta 1871 - Morón Sur", "addr_postcode": "1708", "phone": "(011) 4690-1475", "ref_sisa_codigo": 50065682202788, "ref_sisa_tipologia": "ESSIDT", "wikidata": "", "wikipedia": "" }, "geometry": { "type": "Point", "coordinates": [ -58.643028, -34.700778 ] } },
{ "type": "Feature", "properties": { "amenity": "clinic", "healthcare": "clinic", "operator": "Municipal", "operator_type": "public", "name": "Unidad Sanitaria Springolo", "addr_full": "General Galan 655", "addr_postcode": "1684", "phone": "(011) 4751-3791", "ref_sisa_codigo": 50065682202846, "ref_sisa_tipologia": "ESSIDT", "wikidata": "", "wikipedia": "" }, "geometry": { "type": "Point", "coordinates": [ -58.5962811, -34.6085908 ] } },
{ "type": "Feature", "properties": { "amenity": "clinic", "healthcare": "clinic", "operator": "Provincial", "operator_type": "public", "name": "Unidad Sanitaria Vias Respiratorias Doctor Argerich", "addr_full": "Machado 778", "addr_postcode": "1708", "phone": "(011) 4629-1671", "ref_sisa_codigo": 50065682202862, "ref_sisa_tipologia": "ESSIDT", "wikidata": "", "wikipedia": "" }, "geometry": { "type": "Point", "coordinates": [ -58.619403, -34.6465229 ] } },
{ "type": "Feature", "properties": { "amenity": "clinic", "healthcare": "clinic", "operator": "Municipal", "operator_type": "public", "name": "Unidad Sanitaria Villa Rivadavia", "addr_full": "Dr. Osvaldo Magnasco 933", "addr_postcode": "1706", "phone": "(011) 4460-2145", "ref_sisa_codigo": 50065682202902, "ref_sisa_tipologia": "ESSIDT", "wikidata": "", "wikipedia": "" }, "geometry": { "type": "Point", "coordinates": [ -58.602151, -34.64872 ] } }
]
}
