{
"type": "FeatureCollection",
"name": "072-comuna_1",
"features": [
{ "type": "Feature", "properties": { "amenity": "clinic", "healthcare": "clinic", "operator": "Municipal", "operator_type": "public", "name": "CESAC 15", "addr_full": "Humberto Primo 470", "addr_postcode": "1103", "phone": "(011) 4361-4938", "ref_sisa_codigo": 50020012115349, "ref_sisa_tipologia": "ESSIDT", "wikidata": "Q90206212", "wikipedia": "" }, "geometry": { "type": "Point", "coordinates": [ -58.3724662, -34.6207491 ] } },
{ "type": "Feature", "properties": { "amenity": "clinic", "healthcare": "clinic", "operator": "Municipal", "operator_type": "public", "name": "CESAC 25", "addr_full": "Manzana 33 Barrio 31", "addr_postcode": "1104", "phone": "4315-1553", "ref_sisa_codigo": 50020012117478, "ref_sisa_tipologia": "ESSIDT", "wikidata": "", "wikipedia": "" }, "geometry": { "type": "Point", "coordinates": [ -58.3705866, -34.5887306 ] } },
{ "type": "Feature", "properties": { "amenity": "clinic", "healthcare": "clinic", "operator": "Municipal", "operator_type": "public", "name": "CMB 14", "addr_full": "Santiago Del Estero 1678", "addr_postcode": "1136", "phone": "(011) 4305-4923", "ref_sisa_codigo": 50020012115391, "ref_sisa_tipologia": "ESSIDT", "wikidata": "", "wikipedia": "" }, "geometry": { "type": "Point", "coordinates": [ -58.3843088, -34.6278228 ] } },
{ "type": "Feature", "properties": { "amenity": "clinic", "healthcare": "clinic", "operator": "Provincial", "operator_type": "public", "name": "Ministerio De Salud Santa Cruz Deleg. Caba", "addr_full": "25 De Mayo 279", "addr_postcode": "1010", "phone": "4343-8478", "ref_sisa_codigo": 53020012018857, "ref_sisa_tipologia": "ESCL", "wikidata": "", "wikipedia": "" }, "geometry": { "type": "Point", "coordinates": [ -58.3709844, -34.6045253 ] } },
{ "type": "Feature", "properties": { "amenity": "hospital", "healthcare": "hospital", "operator": "Privado", "operator_type": "private", "name": "Sanatorio Ateneo", "addr_full": "Lavalle 1726\/30\/36", "addr_postcode": "", "phone": "(011) 5811-4435", "ref_sisa_codigo": 10020012315447, "ref_sisa_tipologia": "ESCIG", "wikidata": "Q93141473", "wikipedia": "" }, "geometry": { "type": "Point", "coordinates": [ -58.3919048, -34.6030821 ] } }
]
}
